{"type": "FeatureCollection", "features": [{"type": "Feature", "properties": {}, "geometry": {"type": "Polygon", "coordinates": [[[-118.25651, 34.25227], [-118.25669, 34.26723], [-118.2385, 34.26706], [-118.23875, 34.25226], [-118.24343, 34.25231], [-118.24348, 34.24665], [-118.2438, 34.24667], [-118.24378, 34.2465], [-118.24417, 34.24591], [-118.24455, 34.24596], [-118.24537, 34.24638], [-118.24598, 34.24535], [-118.24604, 34.24511], [-118.24607, 34.24518], [-118.24634, 34.24523], [-118.24665, 34.24449], [-118.24699, 34.24434], [-118.24704, 34.24402], [-118.24751, 34.24419], [-118.24772, 34.24378], [-118.24848, 34.24406], [-118.24849, 34.24398], [-118.24858, 34.24398], [-118.24873, 34.22224], [-118.24845, 34.22225], [-118.24577, 34.22113], [-118.24447, 34.22043], [-118.24434, 34.22043], [-118.24435, 34.2187], [-118.24403, 34.2185], [-118.24374, 34.21883], [-118.24347, 34.21867], [-118.24348, 34.21906], [-118.24041, 34.21716], [-118.24041, 34.21699], [-118.2401, 34.21679], [-118.23997, 34.21679], [-118.23996, 34.21777], [-118.23949, 34.21746], [-118.23955, 34.2174], [-118.23955, 34.21661], [-118.23759, 34.21542], [-118.2376, 34.21451], [-118.23522, 34.21303], [-118.23526, 34.20914], [-118.23325, 34.2079], [-118.23259, 34.20812], [-118.23259, 34.20826], [-118.23227, 34.20834], [-118.23194, 34.20758], [-118.23153, 34.20735], [-118.23099, 34.20716], [-118.23074, 34.20765], [-118.2306, 34.20759], [-118.23085, 34.20711], [-118.22969, 34.20668], [-118.22944, 34.20714], [-118.22913, 34.20703], [-118.22937, 34.20657], [-118.22892, 34.2064], [-118.22867, 34.20688], [-118.22836, 34.20678], [-118.22861, 34.20629], [-118.22765, 34.20597], [-118.22748, 34.20657], [-118.22652, 34.20644], [-118.22558, 34.20643], [-118.22572, 34.20575], [-118.22513, 34.20566], [-118.2247, 34.20578], [-118.22418, 34.20571], [-118.22422, 34.20558], [-118.2234, 34.20546], [-118.22341, 34.206], [-118.2221, 34.20569], [-118.2221, 34.20618], [-118.22116, 34.20612], [-118.22073, 34.20632], [-118.22028, 34.20631], [-118.22028, 34.20503], [-118.21838, 34.20554], [-118.21656, 34.20573], [-118.21658, 34.20587], [-118.2163, 34.20604], [-118.215, 34.20642], [-118.215, 34.20354], [-118.2155, 34.20354], [-118.21571, 34.20325], [-118.21769, 34.20295], [-118.2177, 34.20115], [-118.21722, 34.20098], [-118.21701, 34.20047], [-118.21673, 34.19779], [-118.21535, 34.19728], [-118.21462, 34.1962], [-118.21287, 34.19537], [-118.2127, 34.19508], [-118.21346, 34.19409], [-118.21225, 34.19276], [-118.2111, 34.19282], [-118.20806, 34.19069], [-118.2078, 34.18931], [-118.20812, 34.18758], [-118.20585, 34.18692], [-118.20473, 34.18567], [-118.19835, 34.18143], [-118.19643, 34.17991], [-118.19236, 34.18044], [-118.19226, 34.18023], [-118.19173, 34.18028], [-118.19083, 34.18008], [-118.19004, 34.17919], [-118.18993, 34.17926], [-118.18952, 34.17908], [-118.18932, 34.17876], [-118.18901, 34.17853], [-118.18931, 34.17835], [-118.1889, 34.17788], [-118.19098, 34.17319], [-118.19049, 34.17032], [-118.18978, 34.1691], [-118.18908, 34.16908], [-118.18792, 34.16673], [-118.18861, 34.16567], [-118.18727, 34.16521], [-118.18655, 34.16434], [-118.186, 34.1636], [-118.18483, 34.15979], [-118.18413, 34.15978], [-118.18147, 34.14994], [-118.18172, 34.14909], [-118.19818, 34.14905], [-118.19816, 34.15163], [-118.19889, 34.15115], [-118.20271, 34.15067], [-118.20358, 34.14972], [-118.20423, 34.1493], [-118.20541, 34.14744], [-118.20771, 34.14725], [-118.20876, 34.14651], [-118.21095, 34.14622], [-118.21161, 34.14718], [-118.21324, 34.14728], [-118.2162, 34.14726], [-118.2168, 34.14756], [-118.21919, 34.14755], [-118.21945, 34.14829], [-118.22202, 34.14889], [-118.22249, 34.14929], [-118.22499, 34.14937], [-118.22625, 34.1498], [-118.22696, 34.14862], [-118.22705, 34.1481], [-118.22703, 34.14762], [-118.22747, 34.14776], [-118.2281, 34.1467], [-118.22862, 34.14688], [-118.2287, 34.14673], [-118.22826, 34.14644], [-118.22865, 34.14579], [-118.22878, 34.14589], [-118.22878, 34.13909], [-118.22915, 34.13908], [-118.22914, 34.13809], [-118.22789, 34.1381], [-118.22793, 34.13561], [-118.23372, 34.13561], [-118.23372, 34.13451], [-118.23629, 34.1345], [-118.23662, 34.13272], [-118.23603, 34.12884], [-118.23532, 34.1276], [-118.23524, 34.12672], [-118.25288, 34.1243], [-118.25326, 34.12445], [-118.25365, 34.1233], [-118.25114, 34.12094], [-118.25428, 34.11877], [-118.25708, 34.12123], [-118.25876, 34.12293], [-118.26044, 34.12493], [-118.26223, 34.12748], [-118.26335, 34.12942], [-118.2756, 34.15324], [-118.27899, 34.15322], [-118.2793, 34.15511], [-118.28057, 34.15634], [-118.28269, 34.15678], [-118.28797, 34.15568], [-118.29145, 34.15571], [-118.29544, 34.15882], [-118.29745, 34.15888], [-118.29887, 34.15761], [-118.30437, 34.15885], [-118.30707, 34.16084], [-118.30786, 34.16116], [-118.2969, 34.17155], [-118.29934, 34.17332], [-118.29639, 34.17611], [-118.29781, 34.17715], [-118.28994, 34.18461], [-118.29006, 34.18468], [-118.28787, 34.18767], [-118.28349, 34.18586], [-118.27999, 34.1907], [-118.28011, 34.20747], [-118.29279, 34.22166], [-118.26688, 34.22185], [-118.26673, 34.2408], [-118.26604, 34.24036], [-118.26603, 34.24165], [-118.26609, 34.24777], [-118.2667, 34.24777], [-118.26667, 34.25077], [-118.2653, 34.25026], [-118.26527, 34.25238], [-118.25651, 34.25227]]]}}]}