{"type":"FeatureCollection","features":[{"type":"Feature","properties":{"level":"zone","label":"Alquist-Priolo earthquake fault zone"},"geometry":{"type":"Polygon","coordinates":[[[-118.2667,34.24917],[-118.2667,34.25001],[-118.25092,34.25],[-118.25092,34.24483],[-118.2667,34.24917]]]}},{"type":"Feature","properties":{"level":"zone","label":"Alquist-Priolo earthquake fault zone"},"geometry":{"type":"Polygon","coordinates":[[[-118.25766,34.25215],[-118.25092,34.25],[-118.2667,34.25001],[-118.26667,34.25077],[-118.2653,34.25026],[-118.26527,34.25238],[-118.25858,34.25229],[-118.25766,34.25215]]]}},{"type":"Feature","properties":{"level":"zone","label":"Alquist-Priolo earthquake fault zone"},"geometry":{"type":"Polygon","coordinates":[[[-118.25092,34.24421],[-118.25092,34.25],[-118.24721,34.24589],[-118.24462,34.24661],[-118.24401,34.24621],[-118.24417,34.24591],[-118.24455,34.24596],[-118.24537,34.24638],[-118.24598,34.24535],[-118.24604,34.24511],[-118.24607,34.24518],[-118.24634,34.24523],[-118.24665,34.24449],[-118.24699,34.24434],[-118.24704,34.24402],[-118.24751,34.24419],[-118.24772,34.24378],[-118.24848,34.24406],[-118.24849,34.24398],[-118.24858,34.24398],[-118.24859,34.24346],[-118.25092,34.24421]]]}}]}