{"type":"FeatureCollection","features":[{"type":"Feature","properties":{"level":"zone","label":"Fire station district 24P","district":"24P"},"geometry":{"type":"Polygon","coordinates":[[[-118.21474,34.19647],[-118.21456,34.19613],[-118.21182,34.19487],[-118.21296,34.19382],[-118.21206,34.19238],[-118.21047,34.19243],[-118.20922,34.19197],[-118.21928,34.19125],[-118.22008,34.1937],[-118.22013,34.1953],[-118.22006,34.19631],[-118.21474,34.19647]]]}},{"type":"Feature","properties":{"level":"zone","label":"Fire station district 26","district":"26"},"geometry":{"type":"Polygon","coordinates":[[[-118.24117,34.1605],[-118.24513,34.15908],[-118.24686,34.1582],[-118.24681,34.15628],[-118.24912,34.15628],[-118.24912,34.15473],[-118.25013,34.15469],[-118.2501,34.15179],[-118.25638,34.15173],[-118.25638,34.15159],[-118.25814,34.15157],[-118.25812,34.15507],[-118.26478,34.15505],[-118.26473,34.15576],[-118.26539,34.15566],[-118.26679,34.15562],[-118.26679,34.15642],[-118.27034,34.15641],[-118.27116,34.15657],[-118.27328,34.1558],[-118.27385,34.15575],[-118.27394,34.15625],[-118.27385,34.15692],[-118.27264,34.16037],[-118.27481,34.16097],[-118.27483,34.16105],[-118.27433,34.16172],[-118.27436,34.16247],[-118.2742,34.16442],[-118.27388,34.16601],[-118.27226,34.17114],[-118.27108,34.17553],[-118.26665,34.18148],[-118.26593,34.18148],[-118.26593,34.18297],[-118.2633,34.18148],[-118.26015,34.18149],[-118.25789,34.18161],[-118.24818,34.18185],[-118.24814,34.17609],[-118.24699,34.17458],[-118.24588,34.17393],[-118.24453,34.1727],[-118.24456,34.17265],[-118.24417,34.17248],[-118.2418,34.17075],[-118.24005,34.16923],[-118.23837,34.16794],[-118.23783,34.16737],[-118.23756,34.16687],[-118.23708,34.16635],[-118.23747,34.16607],[-118.23765,34.16575],[-118.23812,34.16569],[-118.23938,34.16446],[-118.2401,34.16399],[-118.24118,34.16356],[-118.24144,34.16334],[-118.24162,34.16306],[-118.24201,34.16152],[-118.24189,34.16107],[-118.24117,34.1605]]]}},{"type":"Feature","properties":{"level":"zone","label":"Fire station district 27","district":"27"},"geometry":{"type":"Polygon","coordinates":[[[-118.30727,34.16145],[-118.29706,34.17134],[-118.29954,34.17313],[-118.29631,34.1762],[-118.2964,34.17627],[-118.29653,34.17616],[-118.29789,34.17718],[-118.29741,34.1775],[-118.28988,34.18462],[-118.29017,34.18478],[-118.28791,34.18761],[-118.28349,34.18582],[-118.28089,34.18941],[-118.28002,34.19083],[-118.27568,34.1884],[-118.26857,34.18399],[-118.26593,34.18148],[-118.26665,34.18148],[-118.27108,34.17553],[-118.27226,34.17114],[-118.27388,34.16601],[-118.2742,34.16442],[-118.27436,34.16247],[-118.27433,34.16172],[-118.27487,34.16099],[-118.27265,34.16037],[-118.27385,34.15692],[-118.27392,34.15632],[-118.2738,34.15547],[-118.27626,34.15461],[-118.27541,34.15318],[-118.27939,34.15329],[-118.27931,34.15478],[-118.27939,34.15493],[-118.2798,34.15547],[-118.28032,34.15595],[-118.28079,34.15628],[-118.28166,34.15655],[-118.28227,34.15664],[-118.2861,34.15565],[-118.29094,34.15559],[-118.29446,34.15795],[-118.29576,34.15892],[-118.2962,34.15867],[-118.29754,34.15858],[-118.29881,34.15767],[-118.30286,34.15857],[-118.30412,34.15893],[-118.30457,34.15915],[-118.30534,34.15977],[-118.30695,34.16129],[-118.30727,34.16145]]]}},{"type":"Feature","properties":{"level":"zone","label":"Fire station district 28","district":"28"},"geometry":{"type":"Polygon","coordinates":[[[-118.26658,34.25063],[-118.26537,34.25007],[-118.26523,34.24975],[-118.24874,34.24955],[-118.24871,34.22241],[-118.24649,34.22182],[-118.24427,34.22066],[-118.24445,34.21518],[-118.25082,34.21921],[-118.25087,34.21909],[-118.25276,34.2176],[-118.25525,34.21603],[-118.25766,34.21827],[-118.25786,34.22211],[-118.26697,34.22209],[-118.26655,34.24063],[-118.26616,34.24039],[-118.26602,34.24043],[-118.26604,34.24779],[-118.26652,34.24783],[-118.26658,34.25063]]]}},{"type":"Feature","properties":{"level":"zone","label":"Fire station district 29","district":"29"},"geometry":{"type":"Polygon","coordinates":[[[-118.25082,34.21923],[-118.2445,34.21519],[-118.24433,34.21872],[-118.24384,34.21842],[-118.24362,34.21872],[-118.24326,34.21853],[-118.24321,34.21894],[-118.24057,34.21735],[-118.24057,34.21705],[-118.23994,34.21668],[-118.23999,34.21765],[-118.23928,34.21728],[-118.23927,34.21631],[-118.23757,34.21531],[-118.23757,34.21446],[-118.23524,34.21302],[-118.23523,34.20904],[-118.23317,34.2079],[-118.23272,34.20795],[-118.23259,34.20811],[-118.23223,34.20819],[-118.23203,34.20761],[-118.23121,34.20727],[-118.23096,34.20773],[-118.23064,34.20759],[-118.23085,34.20715],[-118.22978,34.20674],[-118.22955,34.20719],[-118.2292,34.20706],[-118.22938,34.20661],[-118.22885,34.20642],[-118.22865,34.20689],[-118.22828,34.20677],[-118.22842,34.20634],[-118.22777,34.20607],[-118.22762,34.20658],[-118.2265,34.20643],[-118.22565,34.20642],[-118.22577,34.20565],[-118.22405,34.20563],[-118.22405,34.20542],[-118.22339,34.20538],[-118.2234,34.20572],[-118.22227,34.20564],[-118.22224,34.20622],[-118.22125,34.20621],[-118.22044,34.20648],[-118.22027,34.20647],[-118.22031,34.20488],[-118.21878,34.20532],[-118.21731,34.20554],[-118.21737,34.20503],[-118.21767,34.20466],[-118.21895,34.20147],[-118.21997,34.19714],[-118.22007,34.19605],[-118.22013,34.19493],[-118.22009,34.19375],[-118.21928,34.19124],[-118.21776,34.18816],[-118.21747,34.18721],[-118.21737,34.18621],[-118.21737,34.18565],[-118.2176,34.18417],[-118.2182,34.18269],[-118.21883,34.18162],[-118.21901,34.18116],[-118.22023,34.18133],[-118.21915,34.18341],[-118.21896,34.18403],[-118.21824,34.18559],[-118.21835,34.18636],[-118.21825,34.1868],[-118.2189,34.18738],[-118.21953,34.18766],[-118.21994,34.18801],[-118.22024,34.18872],[-118.2202,34.18917],[-118.22009,34.18986],[-118.21965,34.1906],[-118.21978,34.19084],[-118.22009,34.19089],[-118.22068,34.19156],[-118.22159,34.19095],[-118.22445,34.19032],[-118.2279,34.18969],[-118.22999,34.19294],[-118.23265,34.19255],[-118.23362,34.19311],[-118.23438,34.19368],[-118.2346,34.1941],[-118.23446,34.19526],[-118.23464,34.1961],[-118.23627,34.19834],[-118.23629,34.19898],[-118.23649,34.19963],[-118.23719,34.20041],[-118.23995,34.19887],[-118.24074,34.19761],[-118.24153,34.19689],[-118.24303,34.19582],[-118.24627,34.19706],[-118.24865,34.20282],[-118.25523,34.21606],[-118.25287,34.21751],[-118.25082,34.21923]]]}},{"type":"Feature","properties":{"level":"zone","label":"Fire station district 21","district":"21"},"geometry":{"type":"Polygon","coordinates":[[[-118.27034,34.15641],[-118.26679,34.15642],[-118.26679,34.15562],[-118.26539,34.15566],[-118.26473,34.15577],[-118.26478,34.15505],[-118.25812,34.15507],[-118.25814,34.15157],[-118.25638,34.1516],[-118.25638,34.15173],[-118.2501,34.15179],[-118.25011,34.14815],[-118.24901,34.14815],[-118.24894,34.1444],[-118.24567,34.1444],[-118.24566,34.14261],[-118.25256,34.14255],[-118.25255,34.13859],[-118.25785,34.13804],[-118.2579,34.1364],[-118.26673,34.13634],[-118.27331,34.149],[-118.27535,34.15318],[-118.27596,34.15398],[-118.27627,34.1546],[-118.2738,34.15546],[-118.27385,34.15575],[-118.27328,34.1558],[-118.27116,34.15657],[-118.27034,34.15641]]]}},{"type":"Feature","properties":{"level":"zone","label":"Fire station district 25","district":"25"},"geometry":{"type":"Polygon","coordinates":[[[-118.185,34.15948],[-118.18434,34.15959],[-118.18423,34.15919],[-118.18191,34.1498],[-118.18225,34.14896],[-118.19815,34.14858],[-118.19834,34.1512],[-118.19818,34.15119],[-118.19834,34.1512],[-118.19839,34.15171],[-118.1993,34.15124],[-118.19986,34.15106],[-118.20276,34.15048],[-118.20358,34.14968],[-118.20411,34.14934],[-118.20525,34.14723],[-118.20804,34.14692],[-118.20879,34.14644],[-118.21148,34.14614],[-118.21192,34.14664],[-118.21283,34.14668],[-118.21604,34.14649],[-118.21653,34.14671],[-118.21905,34.14674],[-118.21961,34.14733],[-118.22243,34.14857],[-118.22288,34.14931],[-118.22492,34.14949],[-118.22636,34.14992],[-118.2268,34.14891],[-118.22684,34.14768],[-118.22758,34.14794],[-118.22833,34.14678],[-118.22865,34.14689],[-118.22873,34.14677],[-118.22848,34.14656],[-118.22876,34.1461],[-118.2288,34.14591],[-118.22897,34.13905],[-118.22926,34.13905],[-118.22928,34.13803],[-118.22797,34.13802],[-118.22803,34.13558],[-118.23363,34.13562],[-118.2336,34.13506],[-118.23516,34.13506],[-118.2358,34.13564],[-118.2358,34.13677],[-118.23612,34.13667],[-118.23612,34.13761],[-118.23775,34.13713],[-118.24183,34.13714],[-118.24183,34.139],[-118.24627,34.13904],[-118.24627,34.14084],[-118.24563,34.14087],[-118.24567,34.14435],[-118.24894,34.1444],[-118.24901,34.14814],[-118.2501,34.14814],[-118.25013,34.15469],[-118.24912,34.15473],[-118.24912,34.15628],[-118.24681,34.15628],[-118.24686,34.1582],[-118.24666,34.15836],[-118.24402,34.15951],[-118.23895,34.16127],[-118.23824,34.16157],[-118.23669,34.1625],[-118.23319,34.15933],[-118.2314,34.16029],[-118.22756,34.16163],[-118.22609,34.16189],[-118.22599,34.16166],[-118.22608,34.16189],[-118.22592,34.16205],[-118.2256,34.16366],[-118.2224,34.16363],[-118.22169,34.16352],[-118.22106,34.16324],[-118.22059,34.16282],[-118.22009,34.16213],[-118.21951,34.16077],[-118.21708,34.1614],[-118.21606,34.16201],[-118.21414,34.16278],[-118.2113,34.16017],[-118.20899,34.15816],[-118.20823,34.15847],[-118.20687,34.15867],[-118.20538,34.15956],[-118.20304,34.15995],[-118.2024,34.16117],[-118.20163,34.162],[-118.19966,34.16384],[-118.19712,34.16453],[-118.19214,34.1654],[-118.18842,34.16567],[-118.18729,34.16537],[-118.18601,34.16376],[-118.185,34.15948]]]}},{"type":"Feature","properties":{"level":"zone","label":"Fire station district 22","district":"22"},"geometry":{"type":"Polygon","coordinates":[[[-118.24564,34.14087],[-118.24627,34.14082],[-118.24624,34.13904],[-118.24184,34.13899],[-118.24182,34.13714],[-118.23773,34.13712],[-118.23614,34.1376],[-118.23612,34.13667],[-118.23582,34.13676],[-118.2358,34.13563],[-118.23515,34.13505],[-118.23358,34.13506],[-118.23354,34.13416],[-118.23634,34.13422],[-118.23655,34.1335],[-118.2366,34.13276],[-118.23651,34.13178],[-118.23611,34.13032],[-118.23542,34.1286],[-118.23534,34.12799],[-118.2354,34.12689],[-118.23766,34.12643],[-118.23781,34.12647],[-118.25275,34.12441],[-118.25339,34.12462],[-118.25357,34.12375],[-118.25377,34.1232],[-118.25126,34.12091],[-118.2541,34.11889],[-118.25444,34.11909],[-118.25729,34.1216],[-118.25956,34.12401],[-118.26076,34.1255],[-118.26288,34.1288],[-118.26676,34.13634],[-118.25789,34.1364],[-118.25784,34.13804],[-118.25256,34.1386],[-118.2526,34.14256],[-118.24566,34.14261],[-118.24564,34.14087]]]}},{"type":"Feature","properties":{"level":"zone","label":"Fire station district 24","district":"24"},"geometry":{"type":"Polygon","coordinates":[[[-118.23719,34.20041],[-118.23649,34.19963],[-118.23629,34.19898],[-118.23627,34.19834],[-118.23464,34.1961],[-118.23446,34.19526],[-118.2346,34.1941],[-118.23438,34.19368],[-118.23362,34.19311],[-118.23265,34.19255],[-118.22999,34.19294],[-118.2279,34.18969],[-118.22445,34.19032],[-118.22159,34.19095],[-118.22068,34.19156],[-118.22006,34.1909],[-118.21978,34.19085],[-118.21963,34.19059],[-118.22006,34.1899],[-118.22023,34.18871],[-118.21994,34.18805],[-118.21957,34.18769],[-118.21888,34.1874],[-118.21825,34.18681],[-118.21837,34.18638],[-118.21822,34.18562],[-118.21896,34.18403],[-118.21913,34.18343],[-118.22024,34.18133],[-118.21212,34.18033],[-118.21218,34.17952],[-118.21244,34.17851],[-118.21258,34.17841],[-118.21319,34.17696],[-118.21375,34.17585],[-118.21374,34.17301],[-118.21455,34.17299],[-118.2148,34.17228],[-118.21411,34.17127],[-118.21416,34.17123],[-118.21226,34.16961],[-118.21189,34.16869],[-118.21141,34.16786],[-118.20961,34.1672],[-118.20865,34.16642],[-118.21233,34.16342],[-118.21606,34.16201],[-118.21708,34.1614],[-118.21951,34.16077],[-118.22009,34.16213],[-118.22059,34.16282],[-118.22106,34.16324],[-118.22169,34.16352],[-118.2224,34.16363],[-118.2256,34.16366],[-118.22592,34.16205],[-118.22608,34.16189],[-118.22754,34.16163],[-118.2314,34.16029],[-118.23319,34.15933],[-118.23669,34.1625],[-118.23824,34.16157],[-118.24117,34.1605],[-118.24189,34.16107],[-118.24201,34.16152],[-118.24162,34.16306],[-118.24144,34.16334],[-118.24118,34.16356],[-118.2401,34.16399],[-118.23938,34.16446],[-118.23812,34.16569],[-118.23765,34.16575],[-118.23747,34.16607],[-118.23708,34.16635],[-118.23756,34.16687],[-118.23783,34.16737],[-118.23837,34.16794],[-118.24005,34.16923],[-118.2418,34.17075],[-118.24417,34.17248],[-118.24456,34.17265],[-118.24453,34.1727],[-118.24588,34.17393],[-118.24699,34.17458],[-118.24814,34.17609],[-118.24818,34.18185],[-118.24798,34.18201],[-118.24768,34.18208],[-118.24721,34.18201],[-118.24675,34.18212],[-118.24649,34.18237],[-118.24594,34.18216],[-118.24373,34.1827],[-118.24143,34.18372],[-118.24007,34.1842],[-118.2387,34.1848],[-118.23756,34.1854],[-118.23619,34.1866],[-118.23569,34.18797],[-118.23671,34.1915],[-118.23786,34.19215],[-118.24067,34.19244],[-118.24261,34.1934],[-118.24303,34.19582],[-118.24153,34.19689],[-118.24074,34.19761],[-118.23995,34.19887],[-118.23719,34.20041]]]}},{"type":"Feature","properties":{"level":"zone","label":"Fire station district 23","district":"23"},"geometry":{"type":"Polygon","coordinates":[[[-118.20247,34.18415],[-118.20225,34.18418],[-118.19645,34.17985],[-118.19607,34.17982],[-118.19238,34.18036],[-118.19229,34.18018],[-118.19095,34.17997],[-118.18991,34.17916],[-118.1898,34.17925],[-118.18912,34.17863],[-118.18884,34.17849],[-118.18898,34.17829],[-118.18828,34.17809],[-118.19036,34.17413],[-118.19095,34.17341],[-118.19086,34.17099],[-118.19071,34.17053],[-118.18988,34.16919],[-118.18903,34.16931],[-118.18761,34.16683],[-118.18844,34.16567],[-118.19201,34.16543],[-118.19713,34.16452],[-118.19965,34.16384],[-118.20151,34.1621],[-118.2024,34.16117],[-118.20304,34.15995],[-118.2054,34.15955],[-118.20687,34.15866],[-118.20823,34.15847],[-118.20898,34.15815],[-118.2113,34.16017],[-118.21414,34.16278],[-118.21233,34.16342],[-118.20865,34.16642],[-118.20961,34.1672],[-118.21141,34.16786],[-118.21189,34.16869],[-118.21226,34.16961],[-118.21416,34.17123],[-118.21411,34.17127],[-118.2148,34.17228],[-118.21455,34.17299],[-118.21374,34.17301],[-118.21375,34.17585],[-118.21319,34.17696],[-118.21258,34.17841],[-118.21244,34.17851],[-118.21218,34.17952],[-118.21211,34.18033],[-118.21901,34.18117],[-118.21589,34.18326],[-118.21197,34.18501],[-118.20952,34.18646],[-118.20651,34.18712],[-118.20548,34.18663],[-118.20222,34.1842],[-118.20247,34.18415]]]}}]}