{"type":"FeatureCollection","features":[{"type":"Feature","properties":{"name":"Fire Station 21","kind":"Fire station"},"geometry":{"type":"Point","coordinates":[-118.26152,34.14377]}},{"type":"Feature","properties":{"name":"Fire Station 22","kind":"Fire station"},"geometry":{"type":"Point","coordinates":[-118.25244,34.13195]}},{"type":"Feature","properties":{"name":"Fire Station 23","kind":"Fire station"},"geometry":{"type":"Point","coordinates":[-118.19985,34.17383]}},{"type":"Feature","properties":{"name":"Fire Station 24","kind":"Fire station"},"geometry":{"type":"Point","coordinates":[-118.22853,34.17328]}},{"type":"Feature","properties":{"name":"Fire Station 25","kind":"Fire station"},"geometry":{"type":"Point","coordinates":[-118.23707,34.15126]}},{"type":"Feature","properties":{"name":"Fire Station 26","kind":"Fire station"},"geometry":{"type":"Point","coordinates":[-118.25547,34.16247]}},{"type":"Feature","properties":{"name":"Fire Station 27","kind":"Fire station"},"geometry":{"type":"Point","coordinates":[-118.28909,34.17223]}},{"type":"Feature","properties":{"name":"Fire Station 28","kind":"Fire station"},"geometry":{"type":"Point","coordinates":[-118.25254,34.23019]}},{"type":"Feature","properties":{"name":"Fire Station 29","kind":"Fire station"},"geometry":{"type":"Point","coordinates":[-118.2329,34.20756]}}]}