{"type":"FeatureCollection","features":[{"type":"Feature","properties":{"level":"unknown","label":"Zone D, flood hazard undetermined (not studied)"},"geometry":{"type":"Polygon","coordinates":[[[-118.22923,34.19204],[-118.23165,34.19205],[-118.23267,34.19232],[-118.23434,34.19317],[-118.23456,34.1933],[-118.23471,34.19355],[-118.23334,34.193],[-118.23222,34.19266],[-118.23065,34.19234],[-118.2289,34.19211],[-118.22923,34.19204]]]}},{"type":"Feature","properties":{"level":"unknown","label":"Zone D, flood hazard undetermined (not studied)"},"geometry":{"type":"Polygon","coordinates":[[[-118.21998,34.1582],[-118.21989,34.15841],[-118.21971,34.15823],[-118.21988,34.15813],[-118.21998,34.1582]]]}},{"type":"Feature","properties":{"level":1,"label":"Zone X, 0.2% annual chance flood area"},"geometry":{"type":"Polygon","coordinates":[[[-118.20393,34.1734],[-118.20462,34.17418],[-118.20457,34.17422],[-118.20387,34.17431],[-118.20393,34.1734]]]}},{"type":"Feature","properties":{"level":3,"label":"Special flood hazard area, Zone A (1% annual chance)"},"geometry":{"type":"Polygon","coordinates":[[[-118.30459,34.16413],[-118.3048,34.16399],[-118.30459,34.16423],[-118.30459,34.16413]]]}},{"type":"Feature","properties":{"level":1,"label":"Zone X, 0.2% annual chance flood area"},"geometry":{"type":"Polygon","coordinates":[[[-118.27682,34.18078],[-118.27668,34.18149],[-118.27659,34.18153],[-118.27648,34.18139],[-118.27638,34.18075],[-118.27662,34.18072],[-118.27682,34.18078]]]}},{"type":"Feature","properties":{"level":"unknown","label":"Zone D, flood hazard undetermined (not studied)"},"geometry":{"type":"Polygon","coordinates":[[[-118.23357,34.17199],[-118.23528,34.17133],[-118.23494,34.17164],[-118.23492,34.17175],[-118.23464,34.17172],[-118.23427,34.17201],[-118.2328,34.1726],[-118.23267,34.1725],[-118.23267,34.17233],[-118.23287,34.17219],[-118.23357,34.17199]]]}},{"type":"Feature","properties":{"level":"unknown","label":"Zone D, flood hazard undetermined (not studied)"},"geometry":{"type":"Polygon","coordinates":[[[-118.19087,34.17349],[-118.191,34.17322],[-118.19087,34.17253],[-118.19102,34.17323],[-118.19087,34.17349]]]}},{"type":"Feature","properties":{"level":"unknown","label":"Zone D, flood hazard undetermined (not studied)"},"geometry":{"type":"Polygon","coordinates":[[[-118.2398,34.17311],[-118.23983,34.17358],[-118.23967,34.17367],[-118.23942,34.17254],[-118.23906,34.17249],[-118.23872,34.17278],[-118.23834,34.17331],[-118.23813,34.17333],[-118.23796,34.17321],[-118.23848,34.17265],[-118.23868,34.17225],[-118.23915,34.17213],[-118.23953,34.17228],[-118.23995,34.17222],[-118.24207,34.17357],[-118.24194,34.1737],[-118.24179,34.17371],[-118.24187,34.174],[-118.24179,34.17412],[-118.24159,34.17412],[-118.24152,34.17376],[-118.24127,34.17348],[-118.24076,34.17311],[-118.2404,34.17296],[-118.24,34.17261],[-118.24015,34.17292],[-118.24072,34.17366],[-118.24081,34.17414],[-118.24054,34.17431],[-118.24021,34.17389],[-118.2398,34.17311]]]}},{"type":"Feature","properties":{"level":1,"label":"Zone X, 0.2% annual chance flood area"},"geometry":{"type":"Polygon","coordinates":[[[-118.20136,34.17421],[-118.20187,34.17232],[-118.20278,34.17069],[-118.2031,34.17029],[-118.20327,34.17027],[-118.20333,34.17151],[-118.20352,34.17216],[-118.20372,34.17339],[-118.20367,34.17443],[-118.20229,34.17455],[-118.20127,34.17483],[-118.20136,34.17421]]]}},{"type":"Feature","properties":{"level":"unknown","label":"Zone D, flood hazard undetermined (not studied)"},"geometry":{"type":"Polygon","coordinates":[[[-118.26682,34.23013],[-118.26618,34.22988],[-118.26544,34.22931],[-118.26274,34.22854],[-118.26127,34.22802],[-118.26,34.22734],[-118.25941,34.22683],[-118.25855,34.2258],[-118.25782,34.22438],[-118.25739,34.22397],[-118.25596,34.22346],[-118.25533,34.22301],[-118.25295,34.22059],[-118.2488,34.21598],[-118.24688,34.21408],[-118.24581,34.21289],[-118.24533,34.21249],[-118.24362,34.21047],[-118.24317,34.20947],[-118.24228,34.20878],[-118.24107,34.20717],[-118.24105,34.20624],[-118.24125,34.20452],[-118.24285,34.20085],[-118.24314,34.19954],[-118.24309,34.19588],[-118.24284,34.19427],[-118.24283,34.19379],[-118.24263,34.19343],[-118.24223,34.19325],[-118.23883,34.19341],[-118.23826,34.19338],[-118.23684,34.19306],[-118.23575,34.1931],[-118.235,34.19268],[-118.23348,34.19204],[-118.23284,34.19192],[-118.23265,34.19122],[-118.23275,34.19099],[-118.23317,34.19082],[-118.23319,34.19059],[-118.23291,34.19],[-118.23224,34.18919],[-118.23224,34.18899],[-118.23237,34.18874],[-118.23287,34.18839],[-118.23293,34.18807],[-118.23267,34.1876],[-118.2317,34.18679],[-118.2314,34.18666],[-118.23133,34.18624],[-118.23166,34.18576],[-118.23187,34.18567],[-118.23226,34.18481],[-118.23223,34.18466],[-118.23179,34.18414],[-118.23177,34.18391],[-118.23192,34.18378],[-118.23264,34.1837],[-118.233,34.18347],[-118.23335,34.18287],[-118.23402,34.18222],[-118.23447,34.18222],[-118.23533,34.18241],[-118.23578,34.18243],[-118.23607,34.18226],[-118.23704,34.18217],[-118.23738,34.18202],[-118.23823,34.18207],[-118.23888,34.18163],[-118.23942,34.18149],[-118.24298,34.1815],[-118.24304,34.18112],[-118.24296,34.18095],[-118.24265,34.18067],[-118.23993,34.1802],[-118.23912,34.17982],[-118.23898,34.17966],[-118.23906,34.1788],[-118.2389,34.17847],[-118.23862,34.17833],[-118.23843,34.17836],[-118.23812,34.17822],[-118.23748,34.17783],[-118.23729,34.17766],[-118.23706,34.177],[-118.23598,34.17626],[-118.23532,34.17609],[-118.2342,34.17607],[-118.23391,34.17592],[-118.23368,34.17575],[-118.23334,34.17493],[-118.23269,34.17424],[-118.23236,34.17414],[-118.23152,34.1743],[-118.22968,34.1743],[-118.22954,34.17404],[-118.22944,34.17324],[-118.22964,34.17142],[-118.23046,34.16929],[-118.23092,34.16862],[-118.23114,34.16843],[-118.23164,34.16846],[-118.23159,34.16918],[-118.23145,34.16967],[-118.23139,34.17089],[-118.2314,34.17214],[-118.2316,34.17281],[-118.2321,34.17318],[-118.2337,34.17365],[-118.23382,34.17365],[-118.23407,34.17306],[-118.2343,34.17301],[-118.23444,34.17305],[-118.23453,34.17326],[-118.23426,34.1732],[-118.23407,34.17367],[-118.23412,34.17374],[-118.23688,34.17402],[-118.2381,34.17427],[-118.23963,34.17482],[-118.24115,34.17571],[-118.2425,34.17664],[-118.24285,34.17722],[-118.24294,34.17795],[-118.24311,34.17809],[-118.24345,34.17766],[-118.24361,34.17778],[-118.2435,34.178],[-118.24358,34.17814],[-118.24441,34.17817],[-118.24406,34.17731],[-118.24415,34.17719],[-118.24429,34.17724],[-118.2447,34.17818],[-118.2449,34.17816],[-118.24555,34.17786],[-118.24485,34.17732],[-118.24488,34.17726],[-118.24495,34.17722],[-118.24523,34.17737],[-118.24581,34.1778],[-118.24679,34.17692],[-118.24743,34.17599],[-118.24781,34.17497],[-118.24792,34.17404],[-118.24778,34.17295],[-118.24785,34.1726],[-118.2482,34.17279],[-118.24846,34.17307],[-118.24922,34.17363],[-118.24984,34.17394],[-118.25128,34.1745],[-118.25222,34.17471],[-118.25274,34.17493],[-118.25315,34.17485],[-118.2534,34.17489],[-118.25428,34.17566],[-118.25661,34.17673],[-118.25811,34.17711],[-118.25897,34.17629],[-118.25925,34.17612],[-118.2593,34.17634],[-118.25941,34.17639],[-118.25876,34.17694],[-118.25867,34.17725],[-118.25876,34.17736],[-118.25964,34.17734],[-118.26029,34.17755],[-118.26098,34.17762],[-118.26175,34.17786],[-118.26211,34.17808],[-118.26301,34.17798],[-118.26402,34.17765],[-118.26518,34.17748],[-118.26646,34.17799],[-118.26715,34.17809],[-118.26727,34.17804],[-118.26733,34.17784],[-118.26798,34.17769],[-118.26838,34.17794],[-118.26922,34.17786],[-118.26968,34.17765],[-118.27045,34.17656],[-118.27077,34.17658],[-118.27179,34.17697],[-118.2724,34.17679],[-118.27261,34.17794],[-118.27272,34.17817],[-118.27314,34.17855],[-118.27522,34.17944],[-118.27558,34.17986],[-118.27579,34.18028],[-118.27579,34.18045],[-118.27661,34.18044],[-118.27699,34.18024],[-118.27733,34.18048],[-118.27704,34.18184],[-118.27669,34.18198],[-118.27662,34.18218],[-118.27694,34.18319],[-118.27744,34.18398],[-118.27753,34.18398],[-118.27771,34.18371],[-118.27817,34.18377],[-118.27941,34.18427],[-118.2796,34.18429],[-118.2802,34.18371],[-118.2802,34.18383],[-118.27975,34.18433],[-118.27987,34.18473],[-118.28054,34.18556],[-118.28065,34.18647],[-118.28064,34.18706],[-118.28032,34.18771],[-118.28032,34.18799],[-118.28056,34.18825],[-118.28101,34.18806],[-118.28192,34.18804],[-118.27999,34.1907],[-118.28011,34.20747],[-118.29279,34.22166],[-118.26688,34.22185],[-118.26682,34.23013]],[[-118.27638,34.18075],[-118.27648,34.18139],[-118.27659,34.18153],[-118.27668,34.18149],[-118.27682,34.18078],[-118.27662,34.18072],[-118.27638,34.18075]]]}},{"type":"Feature","properties":{"level":"unknown","label":"Zone D, flood hazard undetermined (not studied)"},"geometry":{"type":"Polygon","coordinates":[[[-118.20764,34.18744],[-118.2085,34.1868],[-118.20917,34.18606],[-118.2096,34.18535],[-118.21002,34.18424],[-118.21042,34.18366],[-118.21039,34.18328],[-118.21014,34.1829],[-118.21017,34.18254],[-118.21033,34.18183],[-118.21078,34.18095],[-118.21079,34.18079],[-118.21064,34.18015],[-118.21037,34.17972],[-118.20973,34.17921],[-118.20882,34.17916],[-118.2084,34.17925],[-118.20791,34.17956],[-118.20661,34.18004],[-118.20567,34.18014],[-118.20454,34.17918],[-118.20384,34.17879],[-118.20162,34.17858],[-118.20067,34.17816],[-118.19886,34.17671],[-118.19863,34.17618],[-118.19868,34.17608],[-118.19963,34.17586],[-118.2003,34.17553],[-118.20082,34.17506],[-118.20157,34.17228],[-118.20207,34.17141],[-118.20302,34.17],[-118.20404,34.16954],[-118.20401,34.17003],[-118.2036,34.17025],[-118.20413,34.17309],[-118.2049,34.17401],[-118.20529,34.17432],[-118.2059,34.17433],[-118.20659,34.17448],[-118.20725,34.17409],[-118.20745,34.17386],[-118.20759,34.17352],[-118.20907,34.17338],[-118.20944,34.17343],[-118.20978,34.17367],[-118.21124,34.17428],[-118.21166,34.17461],[-118.21189,34.17495],[-118.21201,34.17503],[-118.21216,34.17501],[-118.21249,34.1748],[-118.2127,34.1744],[-118.21264,34.1739],[-118.21276,34.17268],[-118.21255,34.1722],[-118.21165,34.17172],[-118.21114,34.17131],[-118.21062,34.17072],[-118.21047,34.17028],[-118.21024,34.1699],[-118.20945,34.16922],[-118.20748,34.16819],[-118.20594,34.16753],[-118.20467,34.16726],[-118.20385,34.16733],[-118.20274,34.16779],[-118.20177,34.16843],[-118.20076,34.16877],[-118.20064,34.16894],[-118.20031,34.17013],[-118.19957,34.17038],[-118.19924,34.17024],[-118.19875,34.17021],[-118.19801,34.17025],[-118.19674,34.17054],[-118.19604,34.17086],[-118.19526,34.1716],[-118.19482,34.17221],[-118.19476,34.17249],[-118.19496,34.17266],[-118.19608,34.17256],[-118.19629,34.17318],[-118.19636,34.17383],[-118.19632,34.17432],[-118.19561,34.17519],[-118.19579,34.17598],[-118.19578,34.17636],[-118.19536,34.17673],[-118.19514,34.17686],[-118.19467,34.17685],[-118.19261,34.17626],[-118.19189,34.17619],[-118.19166,34.17626],[-118.19096,34.17672],[-118.1903,34.1774],[-118.18927,34.17706],[-118.19102,34.17323],[-118.19049,34.17032],[-118.18978,34.1691],[-118.18968,34.16903],[-118.18908,34.16903],[-118.18792,34.16673],[-118.18861,34.16567],[-118.18727,34.16521],[-118.186,34.1636],[-118.18483,34.15979],[-118.18417,34.15976],[-118.18159,34.1499],[-118.18183,34.14909],[-118.19817,34.14905],[-118.19816,34.15163],[-118.19891,34.15116],[-118.20271,34.15067],[-118.20359,34.14972],[-118.20424,34.14931],[-118.20541,34.14744],[-118.2077,34.14726],[-118.20876,34.14651],[-118.21095,34.14622],[-118.21161,34.14718],[-118.21324,34.14728],[-118.2162,34.14726],[-118.2168,34.14756],[-118.21919,34.14755],[-118.21945,34.14829],[-118.22202,34.14889],[-118.22249,34.14929],[-118.2246,34.14936],[-118.22394,34.14988],[-118.22337,34.15061],[-118.22316,34.15069],[-118.22257,34.15061],[-118.22241,34.15066],[-118.22128,34.15063],[-118.22121,34.15121],[-118.22065,34.15108],[-118.22079,34.15054],[-118.2201,34.15042],[-118.22006,34.15069],[-118.21983,34.15037],[-118.21942,34.15019],[-118.21744,34.14989],[-118.21609,34.14954],[-118.21309,34.14934],[-118.21197,34.14892],[-118.21014,34.14852],[-118.20922,34.14823],[-118.20837,34.14813],[-118.20812,34.14834],[-118.20769,34.14836],[-118.20755,34.14848],[-118.20814,34.14878],[-118.20811,34.14897],[-118.20773,34.14883],[-118.20745,34.14881],[-118.20727,34.14868],[-118.20649,34.14864],[-118.20642,34.14892],[-118.20657,34.1494],[-118.20684,34.14945],[-118.20772,34.14994],[-118.20811,34.15004],[-118.20826,34.15004],[-118.20831,34.14995],[-118.20973,34.14993],[-118.20989,34.15],[-118.21005,34.15029],[-118.21018,34.15062],[-118.21013,34.15074],[-118.20977,34.15089],[-118.20936,34.15094],[-118.20908,34.15127],[-118.20823,34.15181],[-118.20668,34.15251],[-118.20615,34.15259],[-118.2034,34.15258],[-118.20272,34.15346],[-118.20259,34.15369],[-118.20258,34.15388],[-118.20264,34.1541],[-118.20291,34.15434],[-118.20475,34.15499],[-118.20537,34.15554],[-118.20576,34.15559],[-118.2061,34.15536],[-118.2064,34.15499],[-118.20765,34.15477],[-118.2087,34.15403],[-118.20947,34.15396],[-118.21036,34.15358],[-118.21093,34.15353],[-118.21185,34.15313],[-118.21316,34.15307],[-118.21478,34.15287],[-118.21625,34.1522],[-118.21654,34.15163],[-118.2168,34.15174],[-118.21708,34.15169],[-118.21713,34.15179],[-118.21704,34.15208],[-118.21714,34.15217],[-118.21916,34.1524],[-118.21995,34.15236],[-118.22029,34.15221],[-118.22078,34.15214],[-118.2216,34.15228],[-118.22279,34.15185],[-118.22322,34.15182],[-118.22341,34.15189],[-118.22341,34.15246],[-118.22296,34.15238],[-118.22239,34.15243],[-118.22219,34.15256],[-118.2221,34.15276],[-118.2221,34.15299],[-118.22261,34.15364],[-118.22272,34.15404],[-118.22262,34.1544],[-118.22196,34.15503],[-118.22187,34.15528],[-118.22183,34.15556],[-118.22197,34.15598],[-118.22224,34.15626],[-118.22366,34.15491],[-118.22408,34.15465],[-118.22457,34.15464],[-118.22503,34.15476],[-118.22512,34.15498],[-118.22478,34.15511],[-118.2246,34.15495],[-118.22401,34.15506],[-118.22308,34.15578],[-118.22241,34.15645],[-118.22174,34.1569],[-118.22165,34.15684],[-118.22161,34.15662],[-118.22134,34.15701],[-118.22079,34.1573],[-118.22002,34.15753],[-118.21931,34.15757],[-118.21789,34.15852],[-118.21638,34.15897],[-118.21602,34.15933],[-118.2151,34.15929],[-118.2137,34.15958],[-118.21328,34.15982],[-118.21298,34.16026],[-118.21242,34.16067],[-118.21189,34.16093],[-118.21121,34.16111],[-118.21104,34.16125],[-118.21092,34.16147],[-118.21102,34.16179],[-118.2113,34.16212],[-118.21168,34.16236],[-118.2123,34.16246],[-118.21147,34.16149],[-118.21157,34.16135],[-118.21172,34.16162],[-118.21239,34.16232],[-118.2125,34.16203],[-118.21269,34.16195],[-118.213,34.16203],[-118.21335,34.16233],[-118.21334,34.16208],[-118.21285,34.16066],[-118.21291,34.16057],[-118.213,34.16051],[-118.21348,34.16224],[-118.21379,34.16183],[-118.2143,34.16156],[-118.21451,34.16135],[-118.21504,34.16048],[-118.21564,34.15972],[-118.21618,34.15947],[-118.2164,34.15949],[-118.21656,34.15959],[-118.21654,34.16038],[-118.21625,34.16137],[-118.21682,34.161],[-118.21701,34.161],[-118.21733,34.16113],[-118.21719,34.15958],[-118.21743,34.15957],[-118.21756,34.16109],[-118.21779,34.16094],[-118.21794,34.15971],[-118.21804,34.1596],[-118.21811,34.15968],[-118.21805,34.16084],[-118.21811,34.16094],[-118.21822,34.16082],[-118.21826,34.16055],[-118.21845,34.16048],[-118.21873,34.16057],[-118.21886,34.16049],[-118.21915,34.15852],[-118.21942,34.15838],[-118.21951,34.15926],[-118.22064,34.15994],[-118.22069,34.16048],[-118.21984,34.16141],[-118.2199,34.16162],[-118.22068,34.16228],[-118.22093,34.16244],[-118.22123,34.16247],[-118.22232,34.16205],[-118.22259,34.16198],[-118.22275,34.16204],[-118.22279,34.16239],[-118.22262,34.16338],[-118.22271,34.16361],[-118.22303,34.16384],[-118.22411,34.1639],[-118.22591,34.16378],[-118.22602,34.16354],[-118.22616,34.16278],[-118.22631,34.16117],[-118.22611,34.15962],[-118.2259,34.15893],[-118.22565,34.15864],[-118.22448,34.15816],[-118.22377,34.15767],[-118.22353,34.15698],[-118.22353,34.15653],[-118.22368,34.15629],[-118.22365,34.15584],[-118.22392,34.15571],[-118.22395,34.15603],[-118.2244,34.15595],[-118.22512,34.15642],[-118.22561,34.1573],[-118.22575,34.15727],[-118.22585,34.15708],[-118.22624,34.15613],[-118.22636,34.15615],[-118.22647,34.15655],[-118.22586,34.15754],[-118.22579,34.15802],[-118.22642,34.15884],[-118.2268,34.15921],[-118.22742,34.15955],[-118.22786,34.15967],[-118.2291,34.16057],[-118.22928,34.16083],[-118.2294,34.16124],[-118.22916,34.1617],[-118.22914,34.16244],[-118.22977,34.1635],[-118.22988,34.16444],[-118.22981,34.1648],[-118.22968,34.16495],[-118.22861,34.16504],[-118.22831,34.16502],[-118.22769,34.16477],[-118.22743,34.16488],[-118.22719,34.16517],[-118.2271,34.16577],[-118.22714,34.16598],[-118.22732,34.16608],[-118.22818,34.1663],[-118.22967,34.1665],[-118.23027,34.16676],[-118.23005,34.16696],[-118.22711,34.16635],[-118.22687,34.16645],[-118.22676,34.16707],[-118.22756,34.1673],[-118.22923,34.16753],[-118.22939,34.16764],[-118.22902,34.1679],[-118.22865,34.16776],[-118.22681,34.16741],[-118.22639,34.16753],[-118.2261,34.16831],[-118.22611,34.16877],[-118.22773,34.1693],[-118.2277,34.16941],[-118.22745,34.16956],[-118.22732,34.16955],[-118.2264,34.16926],[-118.22585,34.1692],[-118.2248,34.16977],[-118.2238,34.17008],[-118.22009,34.1705],[-118.21967,34.17073],[-118.21929,34.17116],[-118.21854,34.17135],[-118.21841,34.17148],[-118.21841,34.17173],[-118.21785,34.17202],[-118.21832,34.17255],[-118.21952,34.17313],[-118.21963,34.17358],[-118.21974,34.1737],[-118.2217,34.17451],[-118.22212,34.1748],[-118.22228,34.1751],[-118.2221,34.17636],[-118.2221,34.17725],[-118.22284,34.17732],[-118.22335,34.17778],[-118.22366,34.17783],[-118.22405,34.17803],[-118.2243,34.17821],[-118.22484,34.17881],[-118.22496,34.17916],[-118.22485,34.17991],[-118.22475,34.18005],[-118.22443,34.18029],[-118.22408,34.18041],[-118.224,34.18056],[-118.22426,34.18166],[-118.22301,34.18213],[-118.22213,34.18234],[-118.21951,34.18246],[-118.21858,34.18281],[-118.21823,34.18336],[-118.21807,34.18383],[-118.21783,34.18464],[-118.21774,34.18538],[-118.2178,34.18558],[-118.21814,34.18578],[-118.21842,34.18574],[-118.21926,34.18532],[-118.21986,34.18521],[-118.2217,34.18541],[-118.22335,34.18532],[-118.22333,34.18508],[-118.22311,34.18471],[-118.22204,34.18368],[-118.22219,34.18357],[-118.2232,34.18434],[-118.22361,34.18521],[-118.22455,34.18525],[-118.22495,34.1856],[-118.22526,34.1857],[-118.22541,34.18591],[-118.2254,34.18617],[-118.22529,34.18623],[-118.2252,34.18653],[-118.22522,34.18692],[-118.22499,34.18731],[-118.22429,34.18739],[-118.22327,34.18809],[-118.223,34.18816],[-118.22182,34.18817],[-118.22133,34.18833],[-118.22115,34.18831],[-118.22084,34.18823],[-118.22053,34.188],[-118.22016,34.18785],[-118.2197,34.18784],[-118.21859,34.18744],[-118.21815,34.18738],[-118.21801,34.18744],[-118.21798,34.18757],[-118.2185,34.18884],[-118.21891,34.18901],[-118.22003,34.1893],[-118.22052,34.18934],[-118.22246,34.18933],[-118.22315,34.18925],[-118.22486,34.18975],[-118.22512,34.18994],[-118.22531,34.19031],[-118.22538,34.19069],[-118.22526,34.1917],[-118.2252,34.1918],[-118.22487,34.19188],[-118.22371,34.19184],[-118.22257,34.19125],[-118.2219,34.19107],[-118.21969,34.19115],[-118.2197,34.19132],[-118.22021,34.19237],[-118.22043,34.19365],[-118.22067,34.19398],[-118.22089,34.19414],[-118.2215,34.19413],[-118.22173,34.194],[-118.222,34.19366],[-118.22322,34.19288],[-118.22376,34.19298],[-118.22392,34.19317],[-118.22406,34.19374],[-118.22388,34.19394],[-118.22326,34.19439],[-118.22203,34.1949],[-118.2219,34.19504],[-118.22187,34.19524],[-118.22188,34.19596],[-118.22197,34.19624],[-118.22221,34.19641],[-118.22336,34.1967],[-118.22362,34.1969],[-118.22413,34.19766],[-118.22413,34.19844],[-118.22358,34.19949],[-118.22329,34.19972],[-118.22254,34.19973],[-118.22137,34.19921],[-118.22129,34.1994],[-118.22132,34.19985],[-118.2208,34.20022],[-118.22082,34.20082],[-118.22072,34.20113],[-118.22062,34.20123],[-118.21974,34.20168],[-118.2186,34.20251],[-118.21753,34.20306],[-118.21676,34.20332],[-118.21598,34.20349],[-118.21577,34.20352],[-118.21549,34.20355],[-118.21545,34.20354],[-118.21571,34.20325],[-118.21769,34.20295],[-118.2177,34.20115],[-118.21722,34.20098],[-118.21701,34.20047],[-118.21673,34.19779],[-118.21535,34.19728],[-118.21462,34.1962],[-118.21287,34.19537],[-118.2127,34.19508],[-118.21346,34.19409],[-118.21225,34.19276],[-118.2111,34.19282],[-118.20806,34.19069],[-118.2078,34.18931],[-118.20812,34.18758],[-118.20764,34.18744]],[[-118.20195,34.17462],[-118.20367,34.17443],[-118.20372,34.1738],[-118.20352,34.17216],[-118.20333,34.17151],[-118.20332,34.17033],[-118.20321,34.17025],[-118.20296,34.17043],[-118.20278,34.17069],[-118.20187,34.17232],[-118.20136,34.17421],[-118.20127,34.17483],[-118.20195,34.17462]],[[-118.20387,34.17431],[-118.20462,34.17418],[-118.20393,34.1734],[-118.20387,34.17431]],[[-118.21615,34.16105],[-118.21636,34.16013],[-118.21632,34.15973],[-118.21622,34.15961],[-118.21598,34.15969],[-118.21566,34.16001],[-118.21459,34.16163],[-118.21525,34.16148],[-118.21584,34.16146],[-118.21595,34.16142],[-118.21615,34.16105]],[[-118.2218,34.15666],[-118.222,34.15651],[-118.22185,34.15637],[-118.22178,34.15643],[-118.2218,34.15666]]]}},{"type":"Feature","properties":{"level":"unknown","label":"Zone D, flood hazard undetermined (not studied)"},"geometry":{"type":"MultiPolygon","coordinates":[[[[-118.24352,34.24669],[-118.2438,34.24667],[-118.24378,34.2465],[-118.24416,34.24594],[-118.24452,34.24599],[-118.24537,34.24638],[-118.24603,34.24518],[-118.24634,34.24523],[-118.24665,34.24449],[-118.24699,34.24434],[-118.24704,34.24404],[-118.24751,34.24419],[-118.24765,34.24392],[-118.2488,34.24423],[-118.25318,34.24578],[-118.2535,34.2461],[-118.25415,34.24779],[-118.25484,34.24911],[-118.25499,34.24914],[-118.25546,34.24903],[-118.25602,34.24878],[-118.25629,34.24855],[-118.25707,34.2473],[-118.25749,34.24746],[-118.25707,34.24823],[-118.2566,34.24882],[-118.2558,34.24944],[-118.25736,34.2498],[-118.25959,34.24992],[-118.25999,34.24987],[-118.26037,34.24963],[-118.26062,34.24937],[-118.26204,34.24731],[-118.26232,34.24647],[-118.26232,34.24622],[-118.26244,34.24607],[-118.26263,34.24607],[-118.26304,34.24626],[-118.26314,34.24653],[-118.26233,34.24753],[-118.26199,34.24782],[-118.26134,34.24868],[-118.26136,34.2488],[-118.262,34.24913],[-118.2653,34.25029],[-118.26527,34.25238],[-118.25651,34.25227],[-118.25669,34.26723],[-118.2385,34.26706],[-118.23875,34.25226],[-118.24343,34.25231],[-118.24352,34.24669]]],[[[-118.26536,34.25028],[-118.26573,34.25013],[-118.26621,34.25044],[-118.26668,34.25048],[-118.26667,34.25077],[-118.26536,34.25028]]]]}}]}