{"type":"FeatureCollection","features":[{"type":"Feature","properties":{"name":"USC Verdugo Hills Hospital","kind":"Hospital"},"geometry":{"type":"Point","coordinates":[-118.21625,34.20455]}},{"type":"Feature","properties":{"name":"Glendale Adventist Medical Center","kind":"Hospital"},"geometry":{"type":"Point","coordinates":[-118.23025,34.15087]}},{"type":"Feature","properties":{"name":"Glendale Memorial Hospital and Health Center","kind":"Hospital"},"geometry":{"type":"Point","coordinates":[-118.25722,34.12794]}}]}