{"type":"FeatureCollection","features":[{"type":"Feature","properties":{"level":"zone","label":"Seismic hazard zone: liquefaction"},"geometry":{"type":"Polygon","coordinates":[[[-118.29603,34.17504],[-118.29585,34.17446],[-118.29533,34.17374],[-118.29454,34.17273],[-118.29358,34.17186],[-118.28791,34.16753],[-118.2852,34.16616],[-118.28224,34.16371],[-118.27818,34.15841],[-118.27673,34.15583],[-118.27522,34.1558],[-118.27493,34.15556],[-118.27561,34.1549],[-118.276,34.15408],[-118.276,34.15323],[-118.27899,34.15322],[-118.2793,34.15511],[-118.28057,34.15634],[-118.28269,34.15678],[-118.28797,34.15568],[-118.29145,34.15571],[-118.29544,34.15882],[-118.29745,34.15888],[-118.29887,34.15761],[-118.30437,34.15885],[-118.30707,34.16084],[-118.30786,34.16116],[-118.2969,34.17155],[-118.29934,34.17332],[-118.29671,34.17581],[-118.29603,34.17504]]]}},{"type":"Feature","properties":{"level":"zone","label":"Seismic hazard zone: liquefaction"},"geometry":{"type":"Polygon","coordinates":[[[-118.26514,34.22939],[-118.26007,34.22778],[-118.25933,34.22775],[-118.25835,34.22759],[-118.25499,34.22563],[-118.25403,34.22529],[-118.25224,34.22438],[-118.25092,34.22412],[-118.25092,34.21774],[-118.25117,34.21789],[-118.25155,34.21828],[-118.25208,34.21903],[-118.25263,34.21942],[-118.25342,34.21979],[-118.2539,34.21978],[-118.25444,34.21953],[-118.25481,34.21948],[-118.25524,34.21921],[-118.25582,34.21919],[-118.25599,34.21925],[-118.25594,34.21948],[-118.25514,34.22049],[-118.25525,34.22074],[-118.25586,34.22122],[-118.25584,34.22136],[-118.25555,34.22142],[-118.25499,34.22128],[-118.25484,34.22129],[-118.25476,34.22144],[-118.2548,34.22196],[-118.25495,34.22233],[-118.25515,34.22272],[-118.25542,34.223],[-118.25567,34.22313],[-118.25643,34.22321],[-118.25741,34.22394],[-118.25773,34.22411],[-118.25809,34.22416],[-118.25849,34.22405],[-118.25903,34.22363],[-118.25931,34.22271],[-118.25933,34.22214],[-118.25943,34.22208],[-118.25957,34.22224],[-118.25976,34.22361],[-118.26,34.22403],[-118.2607,34.2245],[-118.26096,34.22453],[-118.26136,34.22476],[-118.26174,34.22514],[-118.26196,34.22585],[-118.2622,34.22601],[-118.26304,34.2261],[-118.26332,34.22661],[-118.2636,34.22682],[-118.2638,34.22687],[-118.26445,34.22642],[-118.26463,34.22577],[-118.265,34.22518],[-118.26648,34.22374],[-118.26687,34.22318],[-118.26686,34.22477],[-118.26608,34.22488],[-118.26562,34.22539],[-118.26582,34.22559],[-118.26624,34.22578],[-118.26632,34.22587],[-118.26628,34.22602],[-118.26576,34.22607],[-118.2646,34.22666],[-118.26456,34.2269],[-118.26479,34.2271],[-118.26478,34.22718],[-118.26458,34.22727],[-118.264,34.22729],[-118.26378,34.22746],[-118.26381,34.22769],[-118.26396,34.2279],[-118.26457,34.22828],[-118.26506,34.22902],[-118.26514,34.22939]]]}},{"type":"Feature","properties":{"level":"zone","label":"Seismic hazard zone: liquefaction"},"geometry":{"type":"Polygon","coordinates":[[[-118.25989,34.21145],[-118.25998,34.2115],[-118.25989,34.21174],[-118.25992,34.21196],[-118.26027,34.21213],[-118.26004,34.21247],[-118.25862,34.21243],[-118.25667,34.2128],[-118.25565,34.2128],[-118.25508,34.213],[-118.25462,34.21335],[-118.25417,34.21353],[-118.25308,34.21371],[-118.25175,34.21437],[-118.25126,34.21448],[-118.25114,34.21456],[-118.25111,34.21484],[-118.25163,34.21543],[-118.25171,34.21589],[-118.25158,34.21591],[-118.25124,34.21574],[-118.25092,34.21575],[-118.25092,34.21361],[-118.25234,34.21313],[-118.25269,34.21279],[-118.2531,34.21288],[-118.25443,34.21249],[-118.25514,34.21249],[-118.25606,34.21185],[-118.25637,34.21185],[-118.25662,34.21202],[-118.25805,34.21193],[-118.25966,34.21162],[-118.25989,34.21145]]]}},{"type":"Feature","properties":{"level":"zone","label":"Seismic hazard zone: liquefaction"},"geometry":{"type":"MultiPolygon","coordinates":[[[[-118.25092,34.21361],[-118.25092,34.21575],[-118.25054,34.21534],[-118.25028,34.21521],[-118.24975,34.21531],[-118.24962,34.21548],[-118.24983,34.21579],[-118.24976,34.21603],[-118.25019,34.21635],[-118.25045,34.21677],[-118.25054,34.21714],[-118.25092,34.21774],[-118.25092,34.22412],[-118.24945,34.22382],[-118.24871,34.22399],[-118.24873,34.22224],[-118.24845,34.22225],[-118.2475,34.22185],[-118.24787,34.2212],[-118.24869,34.21926],[-118.24916,34.21721],[-118.24889,34.21641],[-118.24772,34.21607],[-118.24669,34.21545],[-118.24614,34.21493],[-118.24435,34.21408],[-118.24346,34.21369],[-118.24209,34.21323],[-118.24058,34.21198],[-118.24064,34.21028],[-118.2405,34.20931],[-118.23995,34.20806],[-118.23919,34.20663],[-118.23785,34.20529],[-118.23726,34.20522],[-118.2368,34.20556],[-118.23661,34.20545],[-118.23691,34.20506],[-118.2367,34.20483],[-118.23491,34.20373],[-118.23371,34.20335],[-118.23109,34.20317],[-118.22962,34.20367],[-118.22811,34.20439],[-118.22567,34.20599],[-118.22572,34.20575],[-118.22513,34.20566],[-118.2247,34.20578],[-118.22418,34.20571],[-118.22422,34.20558],[-118.2234,34.20546],[-118.22341,34.206],[-118.22299,34.20588],[-118.22284,34.20547],[-118.22251,34.20527],[-118.22196,34.20557],[-118.22116,34.2056],[-118.22093,34.2057],[-118.22086,34.20569],[-118.22081,34.2054],[-118.22028,34.20537],[-118.22028,34.20503],[-118.21994,34.20511],[-118.22013,34.20505],[-118.22101,34.20488],[-118.22152,34.20484],[-118.222,34.20462],[-118.22238,34.20409],[-118.22254,34.20345],[-118.22293,34.20305],[-118.22369,34.20297],[-118.22378,34.20286],[-118.2241,34.20288],[-118.22519,34.20269],[-118.22548,34.20256],[-118.2262,34.20127],[-118.22654,34.2009],[-118.22697,34.20065],[-118.22703,34.20051],[-118.22664,34.19979],[-118.22663,34.19924],[-118.22608,34.1992],[-118.22573,34.19894],[-118.22542,34.19897],[-118.22515,34.19913],[-118.22451,34.20024],[-118.2241,34.20038],[-118.22329,34.2004],[-118.22292,34.20056],[-118.22259,34.20049],[-118.22295,34.20036],[-118.22312,34.20023],[-118.22316,34.20008],[-118.22307,34.19982],[-118.22267,34.19946],[-118.22325,34.19949],[-118.22379,34.19918],[-118.22412,34.19885],[-118.22463,34.19806],[-118.2252,34.1977],[-118.22535,34.19712],[-118.22584,34.19696],[-118.22622,34.19665],[-118.2271,34.19633],[-118.22736,34.19595],[-118.22746,34.19543],[-118.22737,34.19517],[-118.2272,34.19501],[-118.22676,34.19508],[-118.22659,34.1954],[-118.2265,34.19543],[-118.22606,34.19521],[-118.22576,34.19529],[-118.22557,34.19515],[-118.22526,34.19509],[-118.22506,34.19527],[-118.22506,34.19537],[-118.22491,34.19516],[-118.22486,34.19483],[-118.22455,34.19459],[-118.2249,34.19424],[-118.22557,34.19387],[-118.22533,34.19324],[-118.22575,34.19254],[-118.22535,34.19231],[-118.22597,34.19162],[-118.22636,34.19137],[-118.22672,34.191],[-118.22688,34.19062],[-118.22699,34.18985],[-118.22689,34.18949],[-118.22681,34.1894],[-118.22602,34.18922],[-118.22583,34.18894],[-118.22495,34.18873],[-118.22496,34.1883],[-118.2249,34.18822],[-118.22451,34.18817],[-118.22326,34.18829],[-118.22351,34.18815],[-118.22397,34.18742],[-118.22494,34.18776],[-118.22533,34.18774],[-118.22547,34.18767],[-118.22562,34.18726],[-118.22548,34.18664],[-118.22554,34.18646],[-118.22622,34.18632],[-118.22649,34.18613],[-118.22654,34.18556],[-118.22636,34.18538],[-118.22599,34.18521],[-118.2259,34.18509],[-118.22617,34.18462],[-118.22618,34.18437],[-118.2258,34.18391],[-118.22579,34.18343],[-118.22565,34.18285],[-118.22538,34.18268],[-118.22498,34.18276],[-118.22441,34.18258],[-118.22382,34.18286],[-118.22316,34.18295],[-118.22196,34.18343],[-118.22093,34.18359],[-118.22016,34.18386],[-118.21915,34.18392],[-118.21804,34.1841],[-118.21778,34.18411],[-118.21743,34.18399],[-118.21775,34.18383],[-118.21857,34.18377],[-118.21962,34.18356],[-118.22062,34.18304],[-118.2217,34.18313],[-118.22206,34.18301],[-118.22224,34.1828],[-118.22286,34.18255],[-118.22496,34.18226],[-118.22519,34.18213],[-118.22524,34.18196],[-118.22487,34.18161],[-118.22484,34.18141],[-118.22563,34.18086],[-118.22581,34.18052],[-118.22576,34.18037],[-118.22558,34.18023],[-118.22525,34.18023],[-118.22496,34.1801],[-118.22491,34.1798],[-118.22531,34.1794],[-118.22546,34.17897],[-118.22534,34.1787],[-118.22458,34.17863],[-118.22434,34.17873],[-118.22403,34.17847],[-118.2236,34.17831],[-118.22345,34.17813],[-118.22355,34.17791],[-118.2235,34.17773],[-118.22329,34.17765],[-118.22197,34.1775],[-118.22118,34.17758],[-118.22096,34.1774],[-118.22031,34.17734],[-118.21903,34.17767],[-118.21881,34.17765],[-118.21869,34.17745],[-118.21961,34.1771],[-118.22023,34.17675],[-118.22113,34.17673],[-118.2219,34.17635],[-118.22244,34.17618],[-118.22317,34.17611],[-118.22353,34.17629],[-118.22371,34.17629],[-118.22403,34.1761],[-118.2242,34.17558],[-118.2248,34.17502],[-118.22468,34.17456],[-118.2243,34.17445],[-118.22414,34.17432],[-118.22445,34.17424],[-118.22464,34.17394],[-118.22458,34.17371],[-118.22441,34.17356],[-118.22392,34.1736],[-118.22399,34.17332],[-118.22433,34.17298],[-118.22499,34.17279],[-118.22545,34.1723],[-118.22556,34.17199],[-118.22551,34.17176],[-118.22542,34.17161],[-118.22507,34.17142],[-118.22509,34.17123],[-118.22535,34.17099],[-118.22514,34.17062],[-118.22515,34.17047],[-118.22544,34.17035],[-118.22551,34.17003],[-118.22586,34.16958],[-118.2256,34.1694],[-118.22552,34.1692],[-118.22556,34.16893],[-118.22546,34.16868],[-118.22572,34.16857],[-118.22607,34.16866],[-118.22664,34.16829],[-118.22658,34.16791],[-118.22631,34.16776],[-118.2263,34.16747],[-118.22667,34.16733],[-118.22687,34.16704],[-118.2268,34.16679],[-118.22701,34.16654],[-118.22697,34.16637],[-118.22709,34.16625],[-118.2273,34.16624],[-118.22751,34.16591],[-118.22731,34.16534],[-118.22701,34.16515],[-118.22655,34.1649],[-118.22634,34.16489],[-118.22593,34.16451],[-118.22527,34.16471],[-118.22522,34.16454],[-118.225,34.1645],[-118.22488,34.16429],[-118.22509,34.1642],[-118.22537,34.16422],[-118.2256,34.16434],[-118.22611,34.16438],[-118.22644,34.16427],[-118.22728,34.16454],[-118.22764,34.16453],[-118.22825,34.16523],[-118.22845,34.16538],[-118.22889,34.1655],[-118.22912,34.16528],[-118.22919,34.16497],[-118.22944,34.1648],[-118.22982,34.1648],[-118.23011,34.16468],[-118.23021,34.1645],[-118.23037,34.16445],[-118.23054,34.16419],[-118.23044,34.16405],[-118.23069,34.16393],[-118.23141,34.16396],[-118.23262,34.16362],[-118.23301,34.16338],[-118.23291,34.16293],[-118.23308,34.1627],[-118.2334,34.16281],[-118.23376,34.1627],[-118.23393,34.16259],[-118.2341,34.16233],[-118.2347,34.16211],[-118.23495,34.16189],[-118.23507,34.16165],[-118.23579,34.16127],[-118.23607,34.16086],[-118.23609,34.16048],[-118.2364,34.16004],[-118.23656,34.15955],[-118.23663,34.15922],[-118.23659,34.15886],[-118.23642,34.15843],[-118.23562,34.15816],[-118.23521,34.15831],[-118.23481,34.15821],[-118.23423,34.1582],[-118.23384,34.15829],[-118.2334,34.15817],[-118.23293,34.15819],[-118.23269,34.15834],[-118.23256,34.1587],[-118.23243,34.15884],[-118.23236,34.15838],[-118.23269,34.15778],[-118.23307,34.15762],[-118.23313,34.15742],[-118.2333,34.15722],[-118.23372,34.15707],[-118.23426,34.15721],[-118.2346,34.15707],[-118.23501,34.15715],[-118.23543,34.15709],[-118.23585,34.15655],[-118.23629,34.15634],[-118.23677,34.15631],[-118.23702,34.15609],[-118.23733,34.15563],[-118.23743,34.15517],[-118.23723,34.1548],[-118.23685,34.15436],[-118.23678,34.1541],[-118.23709,34.15286],[-118.24192,34.15622],[-118.24435,34.15892],[-118.24227,34.15987],[-118.24083,34.16114],[-118.2405,34.16179],[-118.24031,34.16243],[-118.24041,34.16284],[-118.24027,34.16306],[-118.24,34.16328],[-118.23974,34.16335],[-118.23937,34.16361],[-118.23902,34.16442],[-118.23806,34.1651],[-118.23738,34.16533],[-118.23726,34.16571],[-118.23732,34.16603],[-118.23772,34.16673],[-118.23808,34.16705],[-118.23835,34.16742],[-118.23837,34.16769],[-118.23793,34.16752],[-118.23762,34.16715],[-118.23717,34.16722],[-118.2368,34.16709],[-118.23649,34.1667],[-118.23623,34.16652],[-118.23584,34.16653],[-118.23534,34.16674],[-118.23513,34.16672],[-118.2348,34.16682],[-118.23474,34.16711],[-118.23482,34.16729],[-118.23539,34.16791],[-118.23635,34.16868],[-118.23646,34.16922],[-118.23632,34.16952],[-118.23584,34.16861],[-118.23534,34.16825],[-118.23473,34.16801],[-118.23452,34.1678],[-118.23436,34.1673],[-118.23391,34.16718],[-118.23338,34.16716],[-118.23272,34.16729],[-118.2317,34.1678],[-118.23128,34.16824],[-118.23106,34.16883],[-118.23124,34.17029],[-118.23088,34.17098],[-118.23071,34.17147],[-118.23087,34.17199],[-118.23091,34.17298],[-118.23078,34.17337],[-118.23086,34.1736],[-118.23179,34.1742],[-118.23183,34.17441],[-118.23135,34.17487],[-118.23139,34.17524],[-118.23175,34.17571],[-118.23184,34.17598],[-118.23156,34.17622],[-118.2313,34.17632],[-118.23136,34.17649],[-118.23199,34.17684],[-118.23292,34.17709],[-118.23317,34.17732],[-118.23375,34.1775],[-118.23433,34.17732],[-118.23456,34.17741],[-118.23523,34.17722],[-118.23595,34.17729],[-118.23617,34.17742],[-118.23629,34.17785],[-118.23652,34.17812],[-118.2369,34.1783],[-118.2374,34.17839],[-118.23774,34.17857],[-118.23785,34.17877],[-118.23773,34.17886],[-118.23632,34.17841],[-118.2361,34.17825],[-118.23563,34.17807],[-118.23523,34.1781],[-118.23466,34.17832],[-118.23452,34.17865],[-118.23459,34.17879],[-118.23442,34.1789],[-118.23307,34.17846],[-118.23282,34.17853],[-118.23275,34.17868],[-118.23214,34.17868],[-118.23212,34.17892],[-118.23235,34.17953],[-118.23275,34.17989],[-118.2334,34.18012],[-118.23494,34.18001],[-118.2356,34.17975],[-118.23582,34.17959],[-118.23604,34.17974],[-118.2364,34.17983],[-118.23792,34.17992],[-118.23837,34.18011],[-118.23851,34.18029],[-118.23906,34.18044],[-118.23951,34.18071],[-118.2399,34.18083],[-118.24016,34.181],[-118.24033,34.18126],[-118.24057,34.18144],[-118.24065,34.18167],[-118.24044,34.18182],[-118.24021,34.1818],[-118.24004,34.18164],[-118.23978,34.18157],[-118.23937,34.18113],[-118.23875,34.18076],[-118.23826,34.1807],[-118.23732,34.18024],[-118.23684,34.18044],[-118.237,34.18068],[-118.23747,34.18101],[-118.23784,34.18117],[-118.23813,34.18148],[-118.23909,34.18201],[-118.23968,34.18221],[-118.24015,34.18263],[-118.23887,34.1827],[-118.23806,34.18245],[-118.23781,34.1825],[-118.23743,34.18233],[-118.23739,34.18203],[-118.23702,34.18165],[-118.23524,34.18079],[-118.23497,34.18078],[-118.23462,34.18101],[-118.23459,34.18126],[-118.23473,34.18155],[-118.23529,34.18187],[-118.23629,34.18208],[-118.23649,34.18219],[-118.23681,34.18262],[-118.23679,34.18288],[-118.23661,34.18303],[-118.23629,34.18315],[-118.23546,34.18315],[-118.23493,34.18311],[-118.23414,34.18277],[-118.23382,34.18274],[-118.23351,34.18286],[-118.23331,34.18326],[-118.2333,34.18349],[-118.23313,34.18377],[-118.23269,34.18413],[-118.23258,34.18435],[-118.23259,34.18464],[-118.23241,34.18538],[-118.23242,34.1859],[-118.23252,34.18613],[-118.23252,34.18643],[-118.23277,34.18671],[-118.23239,34.18698],[-118.23237,34.18717],[-118.23248,34.18774],[-118.23257,34.18784],[-118.23328,34.18812],[-118.23304,34.18852],[-118.23267,34.18882],[-118.23267,34.18906],[-118.23287,34.18983],[-118.23342,34.18982],[-118.23326,34.1901],[-118.23327,34.19027],[-118.23337,34.19037],[-118.23327,34.19045],[-118.23324,34.19063],[-118.23336,34.19087],[-118.23297,34.19071],[-118.23274,34.19073],[-118.23265,34.19102],[-118.23269,34.19136],[-118.23279,34.19168],[-118.23296,34.1918],[-118.23509,34.19279],[-118.2355,34.19291],[-118.23628,34.1927],[-118.23664,34.1927],[-118.2367,34.1926],[-118.23679,34.19265],[-118.23681,34.19284],[-118.23697,34.19296],[-118.23739,34.1928],[-118.23755,34.19287],[-118.23763,34.19305],[-118.23774,34.1931],[-118.23874,34.19344],[-118.2391,34.19336],[-118.23934,34.19317],[-118.23944,34.19292],[-118.23942,34.19266],[-118.2397,34.19307],[-118.24021,34.1932],[-118.24117,34.19311],[-118.24136,34.19306],[-118.2415,34.19292],[-118.24177,34.19294],[-118.24189,34.19269],[-118.24214,34.1925],[-118.24234,34.19213],[-118.24279,34.1919],[-118.24336,34.19147],[-118.24382,34.19136],[-118.24399,34.19125],[-118.24478,34.19155],[-118.24502,34.19171],[-118.24386,34.19153],[-118.24347,34.19159],[-118.24301,34.192],[-118.24222,34.19305],[-118.24202,34.19317],[-118.24187,34.19313],[-118.24186,34.19326],[-118.2417,34.19341],[-118.24147,34.1934],[-118.2411,34.19354],[-118.2407,34.1935],[-118.24017,34.19367],[-118.23995,34.19365],[-118.23967,34.19388],[-118.23884,34.19413],[-118.23788,34.19415],[-118.23765,34.19393],[-118.23636,34.19362],[-118.23593,34.19357],[-118.23556,34.19363],[-118.23555,34.19378],[-118.23606,34.19421],[-118.23593,34.19444],[-118.23571,34.19526],[-118.23573,34.19552],[-118.23597,34.19569],[-118.23627,34.19564],[-118.23662,34.19535],[-118.23745,34.19496],[-118.23799,34.19493],[-118.2384,34.19503],[-118.23844,34.1951],[-118.2374,34.19523],[-118.23713,34.1955],[-118.23658,34.19577],[-118.2363,34.19602],[-118.23636,34.19647],[-118.2365,34.19668],[-118.2373,34.19686],[-118.2374,34.19706],[-118.23785,34.19721],[-118.23811,34.19739],[-118.23811,34.19753],[-118.23759,34.19748],[-118.23713,34.1973],[-118.2369,34.19736],[-118.23656,34.19731],[-118.23663,34.19792],[-118.23706,34.19787],[-118.23786,34.19803],[-118.23796,34.19817],[-118.23677,34.19844],[-118.23672,34.19858],[-118.2364,34.19882],[-118.23611,34.19953],[-118.23645,34.20009],[-118.23677,34.20083],[-118.23679,34.20125],[-118.23691,34.20153],[-118.23751,34.20204],[-118.23788,34.20292],[-118.23815,34.20327],[-118.23881,34.20357],[-118.23936,34.20454],[-118.23973,34.20477],[-118.23991,34.20468],[-118.23997,34.20473],[-118.24016,34.20534],[-118.24065,34.20635],[-118.24114,34.20603],[-118.24142,34.20569],[-118.24192,34.20544],[-118.24216,34.20495],[-118.24229,34.20508],[-118.24272,34.2052],[-118.2425,34.20547],[-118.24223,34.20563],[-118.24233,34.20588],[-118.24253,34.20591],[-118.24327,34.20569],[-118.24362,34.20577],[-118.24336,34.20611],[-118.24343,34.20617],[-118.24389,34.20618],[-118.24418,34.20607],[-118.24447,34.20583],[-118.24448,34.20595],[-118.24466,34.20615],[-118.24429,34.20633],[-118.24386,34.20642],[-118.24333,34.20632],[-118.24238,34.20655],[-118.2423,34.20662],[-118.24236,34.20687],[-118.24256,34.20711],[-118.24318,34.20727],[-118.24403,34.20712],[-118.24436,34.20719],[-118.24472,34.20712],[-118.2452,34.2063],[-118.24544,34.20678],[-118.24594,34.20698],[-118.24611,34.20679],[-118.24687,34.20645],[-118.24702,34.20645],[-118.24728,34.20661],[-118.2478,34.2065],[-118.24805,34.20621],[-118.24809,34.20575],[-118.24837,34.2056],[-118.24885,34.20512],[-118.24824,34.20589],[-118.24811,34.20646],[-118.24755,34.20671],[-118.24657,34.20691],[-118.24639,34.2071],[-118.24633,34.20734],[-118.24671,34.20742],[-118.24726,34.20726],[-118.24792,34.20726],[-118.24814,34.20734],[-118.24857,34.2078],[-118.24821,34.20786],[-118.24789,34.20762],[-118.24657,34.20779],[-118.24644,34.20787],[-118.24547,34.20769],[-118.24495,34.2077],[-118.24469,34.20787],[-118.24452,34.20779],[-118.24411,34.20785],[-118.24427,34.20808],[-118.24422,34.20846],[-118.24382,34.20804],[-118.24301,34.20802],[-118.24284,34.20819],[-118.24295,34.20883],[-118.24296,34.20906],[-118.24289,34.2091],[-118.24295,34.20941],[-118.24346,34.2102],[-118.24398,34.21032],[-118.24428,34.21058],[-118.24483,34.21081],[-118.24483,34.21103],[-118.24495,34.21124],[-118.24547,34.2117],[-118.24557,34.21195],[-118.24601,34.21233],[-118.24673,34.21315],[-118.24687,34.21349],[-118.24681,34.21387],[-118.24701,34.21414],[-118.24806,34.21432],[-118.24794,34.21446],[-118.24795,34.21464],[-118.24834,34.21462],[-118.2494,34.2141],[-118.24964,34.21408],[-118.25092,34.21361]]],[[[-118.21729,34.20567],[-118.21663,34.20543],[-118.21604,34.20535],[-118.2151,34.20508],[-118.21502,34.20512],[-118.21498,34.20546],[-118.21499,34.20456],[-118.21511,34.20481],[-118.21761,34.20531],[-118.21784,34.20562],[-118.21729,34.20567]]],[[[-118.21856,34.2055],[-118.21877,34.20539],[-118.2199,34.20512],[-118.21856,34.2055]]]]}},{"type":"Feature","properties":{"level":"zone","label":"Seismic hazard zone: liquefaction"},"geometry":{"type":"Polygon","coordinates":[[[-118.2493,34.2479],[-118.24858,34.24828],[-118.24831,34.24873],[-118.24783,34.24904],[-118.24668,34.24946],[-118.24691,34.24926],[-118.24735,34.24915],[-118.24796,34.24882],[-118.24827,34.24831],[-118.24897,34.24802],[-118.24918,34.24774],[-118.2493,34.2479]]]}},{"type":"Feature","properties":{"level":"zone","label":"Seismic hazard zone: liquefaction"},"geometry":{"type":"Polygon","coordinates":[[[-118.24638,34.24537],[-118.24594,34.24605],[-118.24601,34.2463],[-118.24583,34.24661],[-118.24586,34.2469],[-118.24558,34.24717],[-118.24571,34.24692],[-118.24565,34.24675],[-118.24585,34.24596],[-118.24611,34.24548],[-118.24604,34.24525],[-118.24638,34.24537]]]}},{"type":"Feature","properties":{"level":"zone","label":"Seismic hazard zone: liquefaction"},"geometry":{"type":"Polygon","coordinates":[[[-118.24581,34.12557],[-118.24561,34.12579],[-118.24479,34.1258],[-118.24463,34.12591],[-118.24437,34.12655],[-118.24405,34.12552],[-118.24585,34.12527],[-118.24581,34.12557]]]}},{"type":"Feature","properties":{"level":"zone","label":"Seismic hazard zone: liquefaction"},"geometry":{"type":"MultiPolygon","coordinates":[[[[-118.23523,34.13516],[-118.23455,34.13508],[-118.23372,34.13528],[-118.23372,34.13451],[-118.23516,34.1345],[-118.23534,34.13476],[-118.23537,34.13502],[-118.23569,34.13552],[-118.23523,34.13516]]],[[[-118.23317,34.13561],[-118.23216,34.13624],[-118.23137,34.13659],[-118.23179,34.13606],[-118.23192,34.13561],[-118.23317,34.13561]]]]}}]}