{"type":"FeatureCollection","features":[{"type":"Feature","properties":{"level":"zone","label":"Crescenta Highlands"},"geometry":{"type":"Polygon","coordinates":[[[-118.25651,34.25227],[-118.24537,34.24638],[-118.24598,34.24535],[-118.24604,34.24511],[-118.24607,34.24518],[-118.24634,34.24523],[-118.24665,34.24449],[-118.24698,34.24435],[-118.24704,34.24402],[-118.24751,34.24419],[-118.24772,34.24378],[-118.24848,34.24405],[-118.24858,34.24398],[-118.24886,34.21873],[-118.24979,34.21964],[-118.25038,34.2178],[-118.25058,34.21766],[-118.25183,34.21908],[-118.25299,34.21731],[-118.25346,34.21708],[-118.25386,34.21699],[-118.25467,34.21704],[-118.25633,34.21621],[-118.25861,34.2155],[-118.26178,34.21896],[-118.26677,34.22182],[-118.26685,34.2238],[-118.26689,34.22944],[-118.26673,34.2408],[-118.26604,34.24036],[-118.26609,34.24777],[-118.2667,34.24777],[-118.26667,34.25077],[-118.2653,34.25026],[-118.26527,34.25238],[-118.25651,34.25227]]]}},{"type":"Feature","properties":{"level":"zone","label":"Montrose"},"geometry":{"type":"Polygon","coordinates":[[[-118.24405,34.21849],[-118.24374,34.21878],[-118.2435,34.21863],[-118.2435,34.21909],[-118.24042,34.21718],[-118.24046,34.21695],[-118.23997,34.21669],[-118.23994,34.21775],[-118.23946,34.21746],[-118.23956,34.2166],[-118.23769,34.21543],[-118.23769,34.21457],[-118.2353,34.21303],[-118.23531,34.20912],[-118.23322,34.20788],[-118.23316,34.20796],[-118.2326,34.20811],[-118.2326,34.20828],[-118.23232,34.20833],[-118.23188,34.20748],[-118.23102,34.20713],[-118.23074,34.20768],[-118.23058,34.2076],[-118.23088,34.20708],[-118.22968,34.20665],[-118.22948,34.20712],[-118.22916,34.20704],[-118.2294,34.20659],[-118.2289,34.20639],[-118.2287,34.20689],[-118.22838,34.20677],[-118.22866,34.20627],[-118.22769,34.20596],[-118.22748,34.20661],[-118.22683,34.20649],[-118.22563,34.20643],[-118.22581,34.2057],[-118.22511,34.20567],[-118.22475,34.20578],[-118.22421,34.2057],[-118.22423,34.20555],[-118.22341,34.20542],[-118.22349,34.206],[-118.22219,34.20565],[-118.22211,34.20617],[-118.22119,34.20609],[-118.22079,34.20634],[-118.22029,34.20634],[-118.22033,34.20501],[-118.21955,34.20524],[-118.2197,34.20408],[-118.21954,34.20243],[-118.21962,34.20084],[-118.22194,34.20171],[-118.22296,34.20141],[-118.22432,34.20156],[-118.22417,34.20201],[-118.22605,34.20272],[-118.22563,34.20345],[-118.22673,34.20384],[-118.22769,34.20453],[-118.23827,34.20833],[-118.23973,34.20733],[-118.23998,34.20633],[-118.24091,34.20715],[-118.24183,34.20751],[-118.24229,34.20806],[-118.24271,34.20941],[-118.24261,34.20951],[-118.24413,34.21099],[-118.25044,34.21773],[-118.24979,34.21956],[-118.24881,34.21866],[-118.24872,34.22229],[-118.2444,34.22029],[-118.24436,34.21877],[-118.24405,34.21849]]]}},{"type":"Feature","properties":{"level":"zone","label":"Verdugo Mountains"},"geometry":{"type":"Polygon","coordinates":[[[-118.26178,34.21896],[-118.25772,34.21454],[-118.25773,34.21439],[-118.25727,34.21301],[-118.25214,34.20775],[-118.24631,34.20878],[-118.24617,34.20555],[-118.24499,34.20196],[-118.2458,34.19626],[-118.24442,34.19217],[-118.24339,34.19137],[-118.24065,34.19189],[-118.23416,34.19152],[-118.23442,34.19092],[-118.23541,34.18443],[-118.24401,34.18438],[-118.24401,34.18076],[-118.24876,34.18014],[-118.25876,34.1795],[-118.26314,34.18088],[-118.26531,34.18037],[-118.27036,34.18054],[-118.27456,34.1803],[-118.27695,34.18034],[-118.27623,34.1828],[-118.27805,34.18543],[-118.27646,34.18735],[-118.28089,34.18953],[-118.27998,34.19093],[-118.28013,34.20713],[-118.29279,34.22166],[-118.26677,34.22182],[-118.26178,34.21896]]]}},{"type":"Feature","properties":{"level":"zone","label":"Oakmont"},"geometry":{"type":"Polygon","coordinates":[[[-118.24229,34.20806],[-118.24183,34.20751],[-118.24091,34.20715],[-118.23998,34.20637],[-118.23938,34.20517],[-118.23904,34.20397],[-118.23367,34.19857],[-118.23085,34.19555],[-118.23119,34.19339],[-118.23249,34.19213],[-118.2342,34.1915],[-118.24065,34.19189],[-118.24339,34.19137],[-118.24442,34.19217],[-118.2458,34.19626],[-118.24499,34.20196],[-118.24617,34.20555],[-118.24631,34.20878],[-118.24271,34.20941],[-118.24229,34.20806]]]}},{"type":"Feature","properties":{"level":"zone","label":"Sparr Heights"},"geometry":{"type":"Polygon","coordinates":[[[-118.23973,34.20733],[-118.23827,34.20833],[-118.22769,34.20453],[-118.22673,34.20384],[-118.22563,34.20345],[-118.22736,34.20062],[-118.22794,34.20066],[-118.22832,34.20045],[-118.22889,34.1996],[-118.22949,34.19756],[-118.22964,34.19644],[-118.23086,34.19553],[-118.23367,34.19857],[-118.23904,34.20397],[-118.23938,34.20517],[-118.23998,34.20633],[-118.23973,34.20733]]]}},{"type":"Feature","properties":{"level":"zone","label":"San Rafael"},"geometry":{"type":"Polygon","coordinates":[[[-118.21954,34.20243],[-118.2197,34.20408],[-118.21955,34.20524],[-118.21865,34.20544],[-118.21669,34.20563],[-118.21665,34.20589],[-118.215,34.2066],[-118.215,34.20356],[-118.2154,34.20367],[-118.21571,34.2033],[-118.21767,34.20296],[-118.21771,34.20111],[-118.21722,34.20085],[-118.21681,34.19775],[-118.21542,34.1973],[-118.21457,34.19612],[-118.21283,34.19542],[-118.2127,34.19505],[-118.21345,34.19409],[-118.21225,34.19275],[-118.21113,34.19283],[-118.20801,34.1905],[-118.20792,34.18991],[-118.20792,34.18865],[-118.20814,34.18803],[-118.20981,34.18644],[-118.20985,34.18545],[-118.21023,34.18414],[-118.21028,34.18362],[-118.20994,34.18243],[-118.21032,34.18148],[-118.2108,34.18092],[-118.21185,34.1806],[-118.2129,34.18052],[-118.21342,34.17874],[-118.21523,34.1775],[-118.21566,34.17627],[-118.21761,34.17567],[-118.22148,34.17584],[-118.22026,34.17933],[-118.21944,34.18107],[-118.21839,34.18287],[-118.21782,34.18444],[-118.21762,34.18574],[-118.2177,34.1869],[-118.21804,34.18803],[-118.21932,34.19093],[-118.21989,34.19197],[-118.22023,34.19307],[-118.22044,34.19439],[-118.22049,34.19537],[-118.22039,34.19652],[-118.21975,34.19953],[-118.21954,34.20243]]]}},{"type":"Feature","properties":{"level":"zone","label":"Montecito Park"},"geometry":{"type":"Polygon","coordinates":[[[-118.22605,34.20272],[-118.22417,34.20201],[-118.22432,34.20156],[-118.22296,34.20141],[-118.22194,34.20171],[-118.21962,34.20084],[-118.21975,34.19953],[-118.22039,34.19652],[-118.22049,34.19537],[-118.22044,34.19439],[-118.22023,34.19307],[-118.21989,34.19197],[-118.21948,34.1912],[-118.22143,34.19086],[-118.22294,34.19077],[-118.22384,34.19121],[-118.22555,34.1917],[-118.22591,34.19161],[-118.22645,34.19174],[-118.22717,34.19127],[-118.22804,34.19295],[-118.22964,34.19646],[-118.22949,34.19756],[-118.22889,34.1996],[-118.22832,34.20045],[-118.22794,34.20066],[-118.22736,34.20062],[-118.22605,34.20272]]]}},{"type":"Feature","properties":{"level":"zone","label":"Verdugo Woodlands"},"geometry":{"type":"Polygon","coordinates":[[[-118.22964,34.19644],[-118.22804,34.19295],[-118.22717,34.19127],[-118.22645,34.19174],[-118.22591,34.19161],[-118.22555,34.1917],[-118.22384,34.19121],[-118.22294,34.19077],[-118.22143,34.19086],[-118.21948,34.1912],[-118.21804,34.18803],[-118.2177,34.1869],[-118.21762,34.18574],[-118.21782,34.18444],[-118.21839,34.18287],[-118.21944,34.18107],[-118.22026,34.17933],[-118.22148,34.17584],[-118.21761,34.17567],[-118.21566,34.17627],[-118.21498,34.17409],[-118.21545,34.17328],[-118.218,34.17107],[-118.21925,34.17028],[-118.22316,34.1692],[-118.22378,34.16916],[-118.22774,34.16946],[-118.22995,34.16737],[-118.23074,34.16836],[-118.23112,34.16903],[-118.23112,34.16917],[-118.23162,34.17028],[-118.23163,34.17379],[-118.23314,34.17376],[-118.23415,34.17533],[-118.23612,34.1763],[-118.23743,34.17663],[-118.23887,34.17809],[-118.24207,34.17942],[-118.24401,34.18076],[-118.24401,34.18438],[-118.23541,34.18443],[-118.23442,34.19092],[-118.23416,34.19152],[-118.23249,34.19213],[-118.23119,34.19339],[-118.23086,34.19553],[-118.22964,34.19644]]]}},{"type":"Feature","properties":{"level":"zone","label":"El Miradero"},"geometry":{"type":"Polygon","coordinates":[[[-118.27646,34.18735],[-118.27805,34.18543],[-118.27623,34.1828],[-118.27671,34.181],[-118.2794,34.17206],[-118.28113,34.1726],[-118.29332,34.18138],[-118.28994,34.18456],[-118.28784,34.18781],[-118.28355,34.18585],[-118.28089,34.18953],[-118.27646,34.18735]]]}},{"type":"Feature","properties":{"level":"zone","label":"Chevy Chase"},"geometry":{"type":"Polygon","coordinates":[[[-118.21288,34.1777],[-118.21071,34.17608],[-118.20854,34.17547],[-118.20659,34.17533],[-118.20481,34.17569],[-118.20273,34.17642],[-118.20113,34.17739],[-118.19879,34.17862],[-118.1981,34.17891],[-118.19784,34.17927],[-118.1978,34.18035],[-118.1974,34.18067],[-118.19647,34.17992],[-118.1925,34.18044],[-118.19231,34.1802],[-118.19092,34.18012],[-118.19006,34.17929],[-118.18978,34.17925],[-118.18901,34.17854],[-118.18935,34.1783],[-118.18891,34.17782],[-118.19006,34.17536],[-118.19096,34.1731],[-118.19052,34.17028],[-118.18985,34.16909],[-118.18904,34.16905],[-118.18789,34.16663],[-118.18865,34.16569],[-118.18973,34.16508],[-118.19085,34.16623],[-118.19525,34.16944],[-118.19687,34.17011],[-118.19745,34.16995],[-118.20055,34.16796],[-118.20312,34.1653],[-118.20278,34.1622],[-118.2016,34.16082],[-118.20206,34.15971],[-118.20247,34.15936],[-118.20317,34.15936],[-118.20571,34.15897],[-118.21237,34.15692],[-118.21828,34.15449],[-118.21961,34.15418],[-118.22174,34.15399],[-118.22231,34.15363],[-118.22283,34.15343],[-118.22464,34.15366],[-118.22406,34.15553],[-118.22435,34.1568],[-118.22507,34.15895],[-118.22536,34.1601],[-118.22536,34.16073],[-118.22508,34.16176],[-118.22494,34.16272],[-118.22456,34.16371],[-118.22308,34.16375],[-118.22222,34.16344],[-118.22083,34.16276],[-118.21968,34.16277],[-118.21863,34.16328],[-118.21701,34.16352],[-118.21586,34.16389],[-118.21386,34.16373],[-118.21328,34.16309],[-118.21228,34.16302],[-118.21166,34.16326],[-118.21133,34.16397],[-118.21119,34.16473],[-118.21033,34.16552],[-118.20928,34.166],[-118.2099,34.16687],[-118.21096,34.1677],[-118.21206,34.16921],[-118.21345,34.1708],[-118.21546,34.17329],[-118.21498,34.17409],[-118.21566,34.17627],[-118.21523,34.1775],[-118.21402,34.17831],[-118.21288,34.1777]]]}},{"type":"Feature","properties":{"level":"zone","label":"Grandview"},"geometry":{"type":"Polygon","coordinates":[[[-118.28113,34.1726],[-118.2794,34.17206],[-118.28235,34.16185],[-118.2828,34.16147],[-118.28418,34.16271],[-118.29118,34.1678],[-118.29329,34.16875],[-118.29476,34.16971],[-118.29695,34.17155],[-118.29705,34.17144],[-118.29942,34.1733],[-118.29626,34.17594],[-118.29788,34.17713],[-118.29332,34.18138],[-118.28113,34.1726]]]}},{"type":"Feature","properties":{"level":"zone","label":"Brockmont"},"geometry":{"type":"Polygon","coordinates":[[[-118.24727,34.17821],[-118.2487,34.17601],[-118.2483,34.1743],[-118.24843,34.17299],[-118.24987,34.17262],[-118.25103,34.17187],[-118.25167,34.17168],[-118.25231,34.17219],[-118.25283,34.17214],[-118.2536,34.17056],[-118.2543,34.16965],[-118.25475,34.16938],[-118.25513,34.16807],[-118.25593,34.16822],[-118.25618,34.16856],[-118.25775,34.16992],[-118.25944,34.17028],[-118.26115,34.17051],[-118.26305,34.17113],[-118.26484,34.17188],[-118.26772,34.17376],[-118.26963,34.17468],[-118.27022,34.17487],[-118.27019,34.17796],[-118.26936,34.18054],[-118.26531,34.18037],[-118.26314,34.18088],[-118.25876,34.1795],[-118.24876,34.18014],[-118.24417,34.18075],[-118.2445,34.1802],[-118.24727,34.17821]]]}},{"type":"Feature","properties":{"level":"zone","label":"Greenbriar"},"geometry":{"type":"Polygon","coordinates":[[[-118.24401,34.18076],[-118.24207,34.17942],[-118.23887,34.17809],[-118.23743,34.17663],[-118.23612,34.1763],[-118.23415,34.17533],[-118.23314,34.17376],[-118.23163,34.17379],[-118.23162,34.17028],[-118.23112,34.16917],[-118.23112,34.16903],[-118.23074,34.16836],[-118.22995,34.16737],[-118.23208,34.16503],[-118.23373,34.16611],[-118.23394,34.16668],[-118.23544,34.16663],[-118.23725,34.16633],[-118.23831,34.16725],[-118.23941,34.16765],[-118.24024,34.16743],[-118.24111,34.16797],[-118.24173,34.16844],[-118.24243,34.16844],[-118.24301,34.16817],[-118.24472,34.16943],[-118.24511,34.17039],[-118.24607,34.17065],[-118.24697,34.17113],[-118.24842,34.17124],[-118.24987,34.17262],[-118.24843,34.17299],[-118.2483,34.1743],[-118.2487,34.17601],[-118.24727,34.17821],[-118.2445,34.1802],[-118.24417,34.18075],[-118.24401,34.18076]]]}},{"type":"Feature","properties":{"level":"zone","label":"Rancho San Rafael"},"geometry":{"type":"Polygon","coordinates":[[[-118.21545,34.17328],[-118.21345,34.1708],[-118.21206,34.16921],[-118.21096,34.1677],[-118.2099,34.16687],[-118.20928,34.166],[-118.21033,34.16552],[-118.21119,34.16473],[-118.21133,34.16397],[-118.21166,34.16326],[-118.21228,34.16302],[-118.21328,34.16309],[-118.21386,34.16373],[-118.21586,34.16389],[-118.21701,34.16352],[-118.21863,34.16328],[-118.21968,34.16277],[-118.22083,34.16276],[-118.22222,34.16344],[-118.22308,34.16375],[-118.22456,34.16371],[-118.22421,34.16477],[-118.22379,34.16748],[-118.22315,34.16923],[-118.21925,34.17028],[-118.218,34.17107],[-118.21545,34.17328]]]}},{"type":"Feature","properties":{"level":"zone","label":"Verdugo Viejo"},"geometry":{"type":"Polygon","coordinates":[[[-118.26484,34.17188],[-118.26305,34.17113],[-118.26115,34.17051],[-118.25944,34.17028],[-118.25775,34.16992],[-118.25618,34.16856],[-118.25593,34.16822],[-118.25513,34.16807],[-118.2551,34.15928],[-118.2582,34.15933],[-118.26234,34.15924],[-118.26496,34.15938],[-118.26515,34.1615],[-118.26621,34.16702],[-118.2665,34.16806],[-118.26674,34.16968],[-118.26627,34.17278],[-118.26484,34.17188]]]}},{"type":"Feature","properties":{"level":"zone","label":"Rossmoyne"},"geometry":{"type":"Polygon","coordinates":[[[-118.24987,34.17262],[-118.24842,34.17124],[-118.24697,34.17113],[-118.24607,34.17065],[-118.24511,34.17039],[-118.24472,34.16943],[-118.24301,34.16817],[-118.24243,34.16844],[-118.24173,34.16844],[-118.24111,34.16797],[-118.24024,34.16743],[-118.23941,34.16765],[-118.23831,34.16725],[-118.23725,34.16633],[-118.23544,34.16663],[-118.23394,34.16668],[-118.23373,34.16611],[-118.23293,34.16557],[-118.23522,34.16324],[-118.23723,34.16148],[-118.24066,34.1595],[-118.24194,34.15622],[-118.24165,34.15575],[-118.24242,34.15494],[-118.24388,34.15566],[-118.24492,34.15608],[-118.24519,34.15611],[-118.24755,34.15627],[-118.25026,34.1563],[-118.25266,34.15615],[-118.25268,34.15836],[-118.2551,34.15928],[-118.25513,34.16807],[-118.25475,34.16938],[-118.2543,34.16965],[-118.2536,34.17056],[-118.25283,34.17214],[-118.25231,34.17219],[-118.25167,34.17168],[-118.25103,34.17187],[-118.24987,34.17262]]]}},{"type":"Feature","properties":{"level":"zone","label":"Scholl Canyon"},"geometry":{"type":"Polygon","coordinates":[[[-118.18745,34.16526],[-118.18703,34.16503],[-118.18625,34.16386],[-118.18576,34.1627],[-118.18484,34.15979],[-118.18413,34.15978],[-118.18351,34.15648],[-118.1816,34.1499],[-118.18188,34.14908],[-118.19833,34.14906],[-118.1982,34.1516],[-118.1983,34.15333],[-118.19969,34.15786],[-118.2016,34.16082],[-118.20278,34.1622],[-118.20312,34.1653],[-118.20055,34.16796],[-118.19745,34.16995],[-118.19687,34.17011],[-118.19525,34.16944],[-118.19085,34.16623],[-118.18973,34.16508],[-118.18865,34.16569],[-118.18745,34.16526]]]}},{"type":"Feature","properties":{"level":"zone","label":"College Hills"},"geometry":{"type":"Polygon","coordinates":[[[-118.22774,34.16946],[-118.22378,34.16916],[-118.22316,34.1692],[-118.22379,34.16748],[-118.22421,34.16477],[-118.22494,34.16272],[-118.22508,34.16176],[-118.22536,34.16073],[-118.22536,34.16046],[-118.22677,34.16068],[-118.2286,34.16056],[-118.23022,34.16026],[-118.23139,34.15917],[-118.2323,34.15794],[-118.23355,34.15782],[-118.23365,34.15834],[-118.2343,34.15888],[-118.23546,34.15959],[-118.23766,34.16125],[-118.23723,34.16148],[-118.23522,34.16324],[-118.23293,34.16557],[-118.23208,34.16503],[-118.23029,34.16705],[-118.22774,34.16946]]]}},{"type":"Feature","properties":{"level":"zone","label":"Riverside Rancho"},"geometry":{"type":"Polygon","coordinates":[[[-118.29875,34.16633],[-118.29788,34.16601],[-118.29467,34.1634],[-118.2939,34.16255],[-118.29282,34.16078],[-118.29198,34.1592],[-118.29071,34.15716],[-118.28938,34.15564],[-118.29154,34.15567],[-118.2955,34.15884],[-118.29755,34.15889],[-118.29893,34.15756],[-118.30445,34.15882],[-118.30729,34.16099],[-118.30792,34.16112],[-118.30078,34.16788],[-118.29875,34.16633]]]}},{"type":"Feature","properties":{"level":"zone","label":"Woodbury"},"geometry":{"type":"Polygon","coordinates":[[[-118.23546,34.15959],[-118.2343,34.15888],[-118.23365,34.15834],[-118.23355,34.15782],[-118.2323,34.15794],[-118.23139,34.15917],[-118.23022,34.16026],[-118.2286,34.16056],[-118.22677,34.16068],[-118.22536,34.16046],[-118.22536,34.1601],[-118.22507,34.15895],[-118.22468,34.15795],[-118.22406,34.15553],[-118.22464,34.15366],[-118.22512,34.15257],[-118.22583,34.15121],[-118.22751,34.14757],[-118.22836,34.14627],[-118.23293,34.14929],[-118.23475,34.15082],[-118.23515,34.15146],[-118.23996,34.15496],[-118.24165,34.15575],[-118.24194,34.15622],[-118.24066,34.1595],[-118.23766,34.16125],[-118.23546,34.15959]]]}},{"type":"Feature","properties":{"level":"zone","label":"Glenoaks Canyon"},"geometry":{"type":"Polygon","coordinates":[[[-118.22464,34.15366],[-118.22283,34.15343],[-118.22231,34.15363],[-118.22174,34.15399],[-118.21961,34.15418],[-118.21828,34.15449],[-118.21237,34.15692],[-118.20571,34.15897],[-118.20317,34.15936],[-118.20247,34.15936],[-118.20206,34.15971],[-118.2016,34.16082],[-118.19969,34.15786],[-118.1983,34.15333],[-118.1982,34.1516],[-118.19889,34.15113],[-118.20264,34.15067],[-118.20328,34.15013],[-118.20388,34.14947],[-118.20439,34.14924],[-118.2055,34.14747],[-118.20776,34.14724],[-118.20873,34.14654],[-118.21095,34.14615],[-118.2116,34.14708],[-118.21618,34.14726],[-118.21683,34.14757],[-118.21923,34.14745],[-118.21942,34.14822],[-118.22039,34.14852],[-118.22201,34.14883],[-118.22243,34.14929],[-118.22363,34.14925],[-118.2247,34.14932],[-118.22534,34.1494],[-118.22627,34.1497],[-118.22625,34.1503],[-118.22464,34.15366]]]}},{"type":"Feature","properties":{"level":"zone","label":"Fremont Park"},"geometry":{"type":"Polygon","coordinates":[[[-118.26406,34.15931],[-118.2612,34.15924],[-118.25881,34.15931],[-118.25877,34.15601],[-118.26173,34.15609],[-118.26748,34.15557],[-118.27003,34.15498],[-118.27115,34.15462],[-118.27116,34.15738],[-118.27084,34.15981],[-118.26406,34.15931]]]}},{"type":"Feature","properties":{"level":"zone","label":"City Center"},"geometry":{"type":"Polygon","coordinates":[[[-118.26119,34.1474],[-118.25904,34.14742],[-118.25904,34.14796],[-118.25848,34.14796],[-118.25848,34.14996],[-118.25914,34.14996],[-118.25914,34.15033],[-118.25881,34.15033],[-118.25885,34.15071],[-118.25848,34.15072],[-118.25849,34.15162],[-118.25857,34.15179],[-118.25859,34.15386],[-118.25913,34.15385],[-118.25916,34.15517],[-118.25877,34.15517],[-118.25881,34.15931],[-118.25509,34.15928],[-118.25268,34.15836],[-118.25266,34.15615],[-118.25026,34.1563],[-118.24755,34.15627],[-118.24519,34.15611],[-118.24492,34.15608],[-118.24388,34.15566],[-118.24267,34.15507],[-118.24532,34.15093],[-118.24778,34.14485],[-118.2493,34.14265],[-118.2609,34.14251],[-118.26091,34.14603],[-118.26124,34.14651],[-118.26133,34.14684],[-118.26134,34.14733],[-118.26119,34.1474]]]}},{"type":"Feature","properties":{"level":"zone","label":"Mariposa"},"geometry":{"type":"Polygon","coordinates":[[[-118.23964,34.13492],[-118.24084,34.13412],[-118.24143,34.13389],[-118.24203,34.13381],[-118.24384,34.13381],[-118.24387,34.13266],[-118.25212,34.13266],[-118.25197,34.13352],[-118.25494,34.13351],[-118.255,34.14258],[-118.23959,34.14266],[-118.23957,34.13531],[-118.23964,34.13492]]]}},{"type":"Feature","properties":{"level":"zone","label":"Pacific-Edison"},"geometry":{"type":"Polygon","coordinates":[[[-118.255,34.14258],[-118.25494,34.13351],[-118.26528,34.13343],[-118.26995,34.14247],[-118.255,34.14258]]]}},{"type":"Feature","properties":{"level":"zone","label":"Tropico"},"geometry":{"type":"Polygon","coordinates":[[[-118.26528,34.13343],[-118.25197,34.13352],[-118.25268,34.12944],[-118.25319,34.1258],[-118.25336,34.12518],[-118.25339,34.1245],[-118.25376,34.1233],[-118.25365,34.12331],[-118.25115,34.12094],[-118.25417,34.11886],[-118.25755,34.12188],[-118.26004,34.12453],[-118.26136,34.12635],[-118.26285,34.12871],[-118.26528,34.13343]]]}},{"type":"Feature","properties":{"level":"zone","label":"Glenwood"},"geometry":{"type":"Polygon","coordinates":[[[-118.27692,34.18032],[-118.27456,34.1803],[-118.27036,34.18054],[-118.26937,34.1805],[-118.27019,34.17796],[-118.27022,34.17487],[-118.26963,34.17468],[-118.26772,34.17376],[-118.26627,34.17278],[-118.26674,34.16968],[-118.2665,34.16806],[-118.26621,34.16702],[-118.26515,34.1615],[-118.26496,34.15938],[-118.27084,34.15981],[-118.27305,34.16013],[-118.27464,34.16062],[-118.27532,34.16085],[-118.27715,34.16183],[-118.28144,34.16492],[-118.27692,34.18032]]]}},{"type":"Feature","properties":{"level":"zone","label":"Grand Central"},"geometry":{"type":"Polygon","coordinates":[[[-118.29476,34.16971],[-118.29329,34.16875],[-118.29118,34.1678],[-118.28418,34.16271],[-118.2828,34.16147],[-118.28285,34.16143],[-118.28079,34.15983],[-118.27856,34.15764],[-118.27786,34.15685],[-118.27719,34.15592],[-118.27637,34.15476],[-118.27564,34.15353],[-118.27824,34.15328],[-118.27908,34.15341],[-118.2793,34.15504],[-118.28038,34.15626],[-118.2828,34.15681],[-118.28787,34.15574],[-118.28938,34.15564],[-118.29071,34.15716],[-118.29198,34.1592],[-118.29282,34.16078],[-118.2939,34.16255],[-118.29467,34.1634],[-118.29788,34.16601],[-118.29875,34.16633],[-118.30078,34.16788],[-118.29695,34.17155],[-118.29476,34.16971]]]}},{"type":"Feature","properties":{"level":"zone","label":"Pelanconi"},"geometry":{"type":"Polygon","coordinates":[[[-118.28144,34.16492],[-118.27715,34.16183],[-118.27532,34.16085],[-118.27305,34.16013],[-118.27084,34.15981],[-118.27116,34.15738],[-118.27115,34.15462],[-118.27328,34.15394],[-118.27564,34.15353],[-118.27637,34.15476],[-118.27719,34.15592],[-118.27786,34.15685],[-118.27856,34.15764],[-118.28079,34.15983],[-118.28285,34.16143],[-118.28235,34.16185],[-118.28144,34.16492]]]}},{"type":"Feature","properties":{"level":"zone","label":"Emerald Isle"},"geometry":{"type":"Polygon","coordinates":[[[-118.1978,34.18035],[-118.19784,34.17927],[-118.1981,34.17891],[-118.19879,34.17862],[-118.20113,34.17739],[-118.20273,34.17642],[-118.20481,34.17569],[-118.20659,34.17533],[-118.20854,34.17547],[-118.21071,34.17608],[-118.21288,34.1777],[-118.21402,34.17831],[-118.21342,34.17874],[-118.2129,34.18052],[-118.21185,34.1806],[-118.2108,34.18092],[-118.21032,34.18148],[-118.20994,34.18243],[-118.21028,34.18362],[-118.21023,34.18414],[-118.20985,34.18545],[-118.20981,34.18644],[-118.20814,34.18803],[-118.20819,34.1876],[-118.20589,34.18697],[-118.20474,34.18562],[-118.2024,34.18404],[-118.19876,34.18178],[-118.1974,34.18067],[-118.1978,34.18035]]]}},{"type":"Feature","properties":{"level":"zone","label":"Somerset"},"geometry":{"type":"Polygon","coordinates":[[[-118.23373,34.13506],[-118.23523,34.13512],[-118.23567,34.1356],[-118.23702,34.13558],[-118.23796,34.13545],[-118.23896,34.13506],[-118.23967,34.13491],[-118.23957,34.13531],[-118.23955,34.14258],[-118.23412,34.1427],[-118.22881,34.14271],[-118.22882,34.13909],[-118.22916,34.13902],[-118.22918,34.13809],[-118.22786,34.13807],[-118.22792,34.1356],[-118.23373,34.13561],[-118.23373,34.13506]]]}},{"type":"Feature","properties":{"level":"zone","label":"Whiting Woods"},"geometry":{"type":"Polygon","coordinates":[[[-118.25044,34.21773],[-118.24261,34.20951],[-118.24271,34.20941],[-118.25214,34.20775],[-118.25727,34.21301],[-118.25772,34.21454],[-118.25861,34.2155],[-118.25633,34.21621],[-118.25467,34.21704],[-118.25386,34.21699],[-118.25346,34.21708],[-118.25299,34.21731],[-118.25183,34.21908],[-118.25058,34.21766],[-118.25044,34.21773]]]}},{"type":"Feature","properties":{"level":"zone","label":"San Gabriel Mountains"},"geometry":{"type":"Polygon","coordinates":[[[-118.25651,34.2523],[-118.25645,34.2523],[-118.25646,34.25437],[-118.25669,34.26723],[-118.2385,34.26706],[-118.23875,34.25226],[-118.24344,34.25232],[-118.24348,34.24665],[-118.2438,34.24667],[-118.24378,34.2465],[-118.24417,34.24592],[-118.24455,34.24596],[-118.24537,34.24638],[-118.25651,34.2523]]]}},{"type":"Feature","properties":{"level":"zone","label":"Citrus Grove"},"geometry":{"type":"Polygon","coordinates":[[[-118.2493,34.14265],[-118.24778,34.14485],[-118.24518,34.15119],[-118.24267,34.15507],[-118.24242,34.15494],[-118.24165,34.15575],[-118.23996,34.15496],[-118.23913,34.15441],[-118.23515,34.15146],[-118.23475,34.15082],[-118.23293,34.14929],[-118.22836,34.14627],[-118.22876,34.14611],[-118.22886,34.1449],[-118.22881,34.14271],[-118.23412,34.1427],[-118.23955,34.14258],[-118.23959,34.14266],[-118.2493,34.14265]]]}},{"type":"Feature","properties":{"level":"zone","label":"Moorpark"},"geometry":{"type":"Polygon","coordinates":[[[-118.26134,34.14743],[-118.26124,34.14651],[-118.26091,34.14603],[-118.2609,34.14251],[-118.26995,34.14247],[-118.27245,34.14739],[-118.26134,34.14743]]]}},{"type":"Feature","properties":{"level":"zone","label":"Adams Hill"},"geometry":{"type":"Polygon","coordinates":[[[-118.25212,34.13266],[-118.24387,34.13266],[-118.24384,34.13381],[-118.24203,34.13381],[-118.24132,34.13392],[-118.24007,34.13456],[-118.23964,34.13492],[-118.23896,34.13506],[-118.23769,34.13552],[-118.23567,34.1356],[-118.23523,34.13512],[-118.23373,34.13506],[-118.23374,34.13451],[-118.23628,34.13448],[-118.23653,34.13338],[-118.23662,34.13285],[-118.23603,34.12883],[-118.23532,34.1276],[-118.23524,34.12671],[-118.25285,34.12428],[-118.25339,34.1245],[-118.25341,34.12479],[-118.25319,34.1258],[-118.25268,34.12944],[-118.25212,34.13266]]]}},{"type":"Feature","properties":{"level":"zone","label":"Vineyard"},"geometry":{"type":"Polygon","coordinates":[[[-118.26134,34.14743],[-118.27245,34.14739],[-118.27563,34.15354],[-118.27328,34.15394],[-118.27003,34.15498],[-118.26748,34.15557],[-118.26173,34.15609],[-118.25877,34.15601],[-118.25877,34.15624],[-118.25877,34.15517],[-118.25916,34.15517],[-118.25913,34.15385],[-118.25859,34.15386],[-118.25857,34.15179],[-118.25849,34.15162],[-118.25848,34.15072],[-118.25885,34.15071],[-118.25881,34.15033],[-118.25914,34.15033],[-118.25914,34.14996],[-118.25848,34.14996],[-118.25848,34.14796],[-118.25904,34.14796],[-118.25904,34.14742],[-118.26119,34.1474],[-118.26134,34.14733],[-118.26134,34.14743]]]}}]}