{"type":"FeatureCollection","features":[{"type":"Feature","properties":{"level":"zone","label":"Fremont Park"},"geometry":{"type":"Polygon","coordinates":[[[-118.26682,34.15653],[-118.26937,34.15646],[-118.26942,34.15733],[-118.2669,34.15829],[-118.26682,34.15653]]]}},{"type":"Feature","properties":{"level":"zone","label":"Griffith Manor Park"},"geometry":{"type":"Polygon","coordinates":[[[-118.29257,34.16392],[-118.29332,34.16446],[-118.29239,34.16531],[-118.29168,34.16479],[-118.29257,34.16392]]]}},{"type":"Feature","properties":{"level":"zone","label":"Wilson Mini Park"},"geometry":{"type":"Polygon","coordinates":[[[-118.24173,34.14816],[-118.24173,34.14855],[-118.24139,34.14855],[-118.24139,34.14817],[-118.24173,34.14816]]]}},{"type":"Feature","properties":{"level":"zone","label":"Piedmont Park"},"geometry":{"type":"MultiPolygon","coordinates":[[[[-118.24062,34.15306],[-118.24056,34.15299],[-118.24059,34.15258],[-118.24078,34.15248],[-118.2409,34.1526],[-118.24092,34.153],[-118.24062,34.15306]]],[[[-118.24074,34.15186],[-118.24081,34.15192],[-118.24073,34.15232],[-118.24067,34.15191],[-118.24074,34.15186]]]]}},{"type":"Feature","properties":{"level":"zone","label":"Elk Mini Park"},"geometry":{"type":"Polygon","coordinates":[[[-118.24551,34.14131],[-118.2455,34.1417],[-118.24515,34.14172],[-118.24515,34.14131],[-118.24551,34.14131]]]}},{"type":"Feature","properties":{"level":"zone","label":"Pelanconi Park"},"geometry":{"type":"Polygon","coordinates":[[[-118.282,34.1623],[-118.28209,34.16235],[-118.28146,34.16436],[-118.28049,34.16365],[-118.282,34.1623]]]}},{"type":"Feature","properties":{"level":"zone","label":"Palmer Park"},"geometry":{"type":"Polygon","coordinates":[[[-118.24738,34.13147],[-118.24769,34.13136],[-118.24877,34.13133],[-118.24877,34.13151],[-118.24798,34.1315],[-118.248,34.1326],[-118.24705,34.1326],[-118.247,34.13224],[-118.2465,34.13214],[-118.24646,34.13207],[-118.24712,34.13181],[-118.24738,34.13147]]]}},{"type":"Feature","properties":{"level":"zone","label":"Glendale Sports Complex"},"geometry":{"type":"Polygon","coordinates":[[[-118.2149,34.18577],[-118.21435,34.18578],[-118.21333,34.18542],[-118.21303,34.18514],[-118.21298,34.18498],[-118.21302,34.1846],[-118.21317,34.18425],[-118.21343,34.18414],[-118.21374,34.18417],[-118.21401,34.18405],[-118.21439,34.18404],[-118.21453,34.18384],[-118.21447,34.18362],[-118.21456,34.1835],[-118.21433,34.1832],[-118.2143,34.18299],[-118.21443,34.18277],[-118.21483,34.1827],[-118.21502,34.18241],[-118.21579,34.1825],[-118.21709,34.1829],[-118.21733,34.18334],[-118.21675,34.18532],[-118.21671,34.18558],[-118.21676,34.18596],[-118.21601,34.18603],[-118.21569,34.18581],[-118.21527,34.18609],[-118.2149,34.18577]]]}},{"type":"Feature","properties":{"level":"zone","label":"Montrose Park"},"geometry":{"type":"Polygon","coordinates":[[[-118.22604,34.2027],[-118.22577,34.20258],[-118.22568,34.20269],[-118.22553,34.20255],[-118.2253,34.20257],[-118.22425,34.20207],[-118.22438,34.2009],[-118.22561,34.20021],[-118.2266,34.20066],[-118.22713,34.20048],[-118.22742,34.2006],[-118.227,34.20117],[-118.2271,34.20121],[-118.22628,34.20243],[-118.22604,34.2027]]]}},{"type":"Feature","properties":{"level":"zone","label":"Mayors Bicentennial Park"},"geometry":{"type":"Polygon","coordinates":[[[-118.22145,34.17404],[-118.22102,34.17541],[-118.21796,34.17498],[-118.21799,34.17413],[-118.22145,34.17404]]]}},{"type":"Feature","properties":{"level":"zone","label":"Brand Park"},"geometry":{"type":"Polygon","coordinates":[[[-118.26646,34.20351],[-118.2666,34.17883],[-118.26984,34.17878],[-118.26958,34.17974],[-118.26941,34.18007],[-118.26891,34.18064],[-118.26828,34.18114],[-118.26843,34.18203],[-118.26872,34.18232],[-118.26888,34.18275],[-118.26894,34.1834],[-118.26918,34.18353],[-118.26962,34.18348],[-118.27108,34.1825],[-118.27121,34.18192],[-118.27222,34.18069],[-118.27304,34.17998],[-118.2743,34.17909],[-118.27488,34.17946],[-118.27487,34.17954],[-118.275,34.17963],[-118.27494,34.17969],[-118.27505,34.17977],[-118.27507,34.18036],[-118.27681,34.18036],[-118.27689,34.18023],[-118.27895,34.18177],[-118.2774,34.18463],[-118.2774,34.18481],[-118.27724,34.18493],[-118.27585,34.18753],[-118.28038,34.19068],[-118.2803,34.19256],[-118.27554,34.1925],[-118.27513,34.21114],[-118.27333,34.20918],[-118.27377,34.20736],[-118.27212,34.20359],[-118.26646,34.20351]]]}},{"type":"Feature","properties":{"level":"zone","label":"Dunsmore Park"},"geometry":{"type":"Polygon","coordinates":[[[-118.25496,34.23711],[-118.25731,34.23855],[-118.2573,34.24034],[-118.25487,34.23884],[-118.25496,34.23711]]]}},{"type":"Feature","properties":{"level":"zone","label":"Clark Community Center"},"geometry":{"type":"Polygon","coordinates":[[[-118.25308,34.23541],[-118.25372,34.2354],[-118.25497,34.23615],[-118.25485,34.23847],[-118.25431,34.23845],[-118.25307,34.2377],[-118.25308,34.23541]]]}},{"type":"Feature","properties":{"level":"zone","label":"New York Park"},"geometry":{"type":"Polygon","coordinates":[[[-118.2531,34.23301],[-118.25415,34.2336],[-118.25405,34.2343],[-118.25309,34.23375],[-118.2531,34.23301]]]}},{"type":"Feature","properties":{"level":"zone","label":"Carr Park"},"geometry":{"type":"Polygon","coordinates":[[[-118.2288,34.14439],[-118.22879,34.14286],[-118.22961,34.14284],[-118.22962,34.14431],[-118.22945,34.14438],[-118.2288,34.14439]]]}},{"type":"Feature","properties":{"level":"zone","label":"Casa Adobe De San Rafael & Park"},"geometry":{"type":"Polygon","coordinates":[[[-118.26388,34.16552],[-118.26408,34.16643],[-118.26342,34.16653],[-118.26322,34.16563],[-118.26388,34.16552]]]}},{"type":"Feature","properties":{"level":"zone","label":"Catalina Verdugo Adobe"},"geometry":{"type":"Polygon","coordinates":[[[-118.23191,34.17972],[-118.23242,34.17952],[-118.23276,34.17973],[-118.23294,34.1797],[-118.23296,34.17998],[-118.23286,34.18],[-118.23292,34.18034],[-118.23245,34.18034],[-118.23245,34.18013],[-118.2319,34.18013],[-118.23191,34.17972]]]}},{"type":"Feature","properties":{"level":"zone","label":"Harvard Mini Park"},"geometry":{"type":"Polygon","coordinates":[[[-118.26183,34.14427],[-118.26216,34.14427],[-118.26216,34.14462],[-118.26183,34.14462],[-118.26183,34.14427]]]}},{"type":"Feature","properties":{"level":"zone","label":"Crescenta Valley Park"},"geometry":{"type":"MultiPolygon","coordinates":[[[[-118.25322,34.22085],[-118.25544,34.22321],[-118.2559,34.22348],[-118.25701,34.22381],[-118.25744,34.22407],[-118.25736,34.22563],[-118.25722,34.22564],[-118.25321,34.22316],[-118.25322,34.22085]]],[[[-118.25758,34.22427],[-118.25776,34.22422],[-118.25823,34.22433],[-118.25856,34.22414],[-118.25888,34.22407],[-118.26006,34.22399],[-118.25962,34.22731],[-118.25755,34.22584],[-118.25758,34.22427]]]]}},{"type":"Feature","properties":{"level":"zone","label":"Deukmejian Wilderness Park"},"geometry":{"type":"Polygon","coordinates":[[[-118.24778,34.24866],[-118.25163,34.24866],[-118.25172,34.24909],[-118.25132,34.24974],[-118.25165,34.25012],[-118.25251,34.24973],[-118.2537,34.24846],[-118.2539,34.2484],[-118.25372,34.24784],[-118.25353,34.24766],[-118.25319,34.24753],[-118.25313,34.24718],[-118.2541,34.24739],[-118.2539,34.24702],[-118.25392,34.24685],[-118.2543,34.24621],[-118.25734,34.24735],[-118.25717,34.24784],[-118.25646,34.24882],[-118.25573,34.2492],[-118.25481,34.24948],[-118.25512,34.24964],[-118.25514,34.2498],[-118.25577,34.24995],[-118.25581,34.25068],[-118.25651,34.25226],[-118.24779,34.25229],[-118.24778,34.24866]]]}},{"type":"Feature","properties":{"level":"zone","label":"Glorietta Park"},"geometry":{"type":"Polygon","coordinates":[[[-118.22586,34.18748],[-118.22775,34.18734],[-118.22815,34.18707],[-118.22769,34.18949],[-118.22738,34.18994],[-118.22579,34.18787],[-118.22578,34.18758],[-118.22586,34.18748]]]}},{"type":"Feature","properties":{"level":"zone","label":"Stengel Ballfield"},"geometry":{"type":"Polygon","coordinates":[[[-118.23115,34.1676],[-118.23199,34.16836],[-118.23192,34.16866],[-118.23208,34.169],[-118.23171,34.16951],[-118.23151,34.16993],[-118.22987,34.16913],[-118.23045,34.16832],[-118.23115,34.1676]]]}},{"type":"Feature","properties":{"level":"zone","label":"Lower Scholl Canyon Park"},"geometry":{"type":"Polygon","coordinates":[[[-118.20062,34.15486],[-118.19901,34.15505],[-118.19855,34.15525],[-118.19835,34.15364],[-118.19956,34.15384],[-118.19991,34.15369],[-118.20122,34.1534],[-118.20174,34.15293],[-118.20201,34.1528],[-118.2027,34.15273],[-118.20293,34.15282],[-118.20264,34.15296],[-118.20244,34.15323],[-118.20233,34.15382],[-118.20237,34.15416],[-118.20229,34.15441],[-118.20216,34.15444],[-118.20203,34.15497],[-118.20136,34.15494],[-118.20118,34.15531],[-118.20058,34.15517],[-118.20062,34.15486]]]}},{"type":"Feature","properties":{"level":"zone","label":"Glenoaks Park"},"geometry":{"type":"Polygon","coordinates":[[[-118.20968,34.15146],[-118.20976,34.15149],[-118.2103,34.15243],[-118.20972,34.15275],[-118.20964,34.15272],[-118.2091,34.15178],[-118.20968,34.15146]]]}},{"type":"Feature","properties":{"level":"zone","label":"Glendale Heritage Garden"},"geometry":{"type":"Polygon","coordinates":[[[-118.24438,34.14499],[-118.24438,34.14454],[-118.24491,34.14453],[-118.24492,34.14499],[-118.24438,34.14499]]]}},{"type":"Feature","properties":{"level":"zone","label":"Windsor Mini Park"},"geometry":{"type":"Polygon","coordinates":[[[-118.23733,34.13682],[-118.23775,34.13672],[-118.23773,34.13709],[-118.23733,34.13722],[-118.23733,34.13682]],[[-118.23744,34.13715],[-118.23748,34.13711],[-118.23744,34.13715],[-118.23744,34.13715]]]}},{"type":"Feature","properties":{"level":"zone","label":"Rockhaven Sanitarium"},"geometry":{"type":"Polygon","coordinates":[[[-118.23936,34.21115],[-118.23875,34.21186],[-118.23755,34.21111],[-118.23816,34.21042],[-118.23936,34.21115]]]}},{"type":"Feature","properties":{"level":"zone","label":"Scholl Canyon"},"geometry":{"type":"Polygon","coordinates":[[[-118.19353,34.16057],[-118.19365,34.16038],[-118.19415,34.1604],[-118.19561,34.15988],[-118.19587,34.15951],[-118.19594,34.15917],[-118.19661,34.15894],[-118.19735,34.15858],[-118.1976,34.15811],[-118.19985,34.15727],[-118.20007,34.15707],[-118.20281,34.15759],[-118.20282,34.15724],[-118.20353,34.15752],[-118.20377,34.15748],[-118.2039,34.15732],[-118.20423,34.15732],[-118.20598,34.15799],[-118.20581,34.15858],[-118.20539,34.15888],[-118.2038,34.15917],[-118.20233,34.1591],[-118.20198,34.1593],[-118.20167,34.16031],[-118.2013,34.1608],[-118.20037,34.16135],[-118.1997,34.16159],[-118.19795,34.16175],[-118.19499,34.16158],[-118.19377,34.16185],[-118.19356,34.16196],[-118.19353,34.16057]]]}},{"type":"Feature","properties":{"level":"zone","label":"City Hall"},"geometry":{"type":"Polygon","coordinates":[[[-118.2488,34.14809],[-118.24669,34.14807],[-118.24663,34.14802],[-118.24726,34.14645],[-118.24877,34.14646],[-118.2488,34.14809]]]}},{"type":"Feature","properties":{"level":"zone","label":"Civic Auditorium"},"geometry":{"type":"Polygon","coordinates":[[[-118.22984,34.16776],[-118.23222,34.16522],[-118.23305,34.16571],[-118.23264,34.16617],[-118.23083,34.16756],[-118.23033,34.16807],[-118.22922,34.16969],[-118.22917,34.16954],[-118.22984,34.16776]]]}},{"type":"Feature","properties":{"level":"zone","label":"Emerald Isle Park"},"geometry":{"type":"Polygon","coordinates":[[[-118.20095,34.18069],[-118.20054,34.18064],[-118.20027,34.18044],[-118.20076,34.18027],[-118.20078,34.17999],[-118.20114,34.1796],[-118.20129,34.17954],[-118.20186,34.17983],[-118.20191,34.18004],[-118.2018,34.18028],[-118.20224,34.18027],[-118.20224,34.18053],[-118.20177,34.18055],[-118.20173,34.18133],[-118.20095,34.18069]]]}},{"type":"Feature","properties":{"level":"zone","label":"Nibley Park"},"geometry":{"type":"Polygon","coordinates":[[[-118.23776,34.16436],[-118.23809,34.16393],[-118.23837,34.16372],[-118.23882,34.16355],[-118.23913,34.16352],[-118.23912,34.16411],[-118.23861,34.16459],[-118.23835,34.16472],[-118.23776,34.16436]]]}},{"type":"Feature","properties":{"level":"zone","label":"Chess Park"},"geometry":{"type":"Polygon","coordinates":[[[-118.25573,34.14905],[-118.25574,34.14913],[-118.25524,34.14914],[-118.25523,34.14905],[-118.25573,34.14905]]]}},{"type":"Feature","properties":{"level":"zone","label":"Sparr Heights Community Center"},"geometry":{"type":"Polygon","coordinates":[[[-118.2304,34.19869],[-118.23096,34.19915],[-118.23097,34.19924],[-118.23025,34.19921],[-118.23032,34.19874],[-118.2304,34.19869]]]}},{"type":"Feature","properties":{"level":"zone","label":"Verdugo Park"},"geometry":{"type":"Polygon","coordinates":[[[-118.23079,34.17436],[-118.22909,34.17431],[-118.22914,34.172],[-118.22934,34.17063],[-118.22927,34.17004],[-118.22987,34.16913],[-118.23151,34.16993],[-118.23169,34.16956],[-118.23226,34.16984],[-118.23208,34.17168],[-118.23187,34.17164],[-118.23197,34.17208],[-118.23214,34.17233],[-118.2323,34.1723],[-118.23281,34.17325],[-118.23055,34.17378],[-118.23079,34.17436]]]}},{"type":"Feature","properties":{"level":"zone","label":"Cerritos Park"},"geometry":{"type":"Polygon","coordinates":[[[-118.25461,34.12408],[-118.25358,34.12419],[-118.25354,34.12421],[-118.25368,34.12375],[-118.25411,34.12384],[-118.25421,34.12359],[-118.25405,34.12343],[-118.25429,34.12328],[-118.2548,34.12383],[-118.25478,34.12422],[-118.25461,34.12408]]]}},{"type":"Feature","properties":{"level":"zone","label":"Babe Herman Little League Field"},"geometry":{"type":"Polygon","coordinates":[[[-118.22789,34.17311],[-118.22858,34.17132],[-118.22898,34.17044],[-118.22911,34.17063],[-118.22895,34.17164],[-118.22886,34.17314],[-118.22854,34.1731],[-118.22853,34.17322],[-118.22845,34.17322],[-118.22789,34.17311]]]}},{"type":"Feature","properties":{"level":"zone","label":"Pacific Park & Community Center"},"geometry":{"type":"MultiPolygon","coordinates":[[[[-118.26453,34.14079],[-118.26451,34.13879],[-118.26659,34.1388],[-118.2666,34.14076],[-118.26453,34.14079]],[[-118.26592,34.13988],[-118.26584,34.13991],[-118.26573,34.13972],[-118.26537,34.13985],[-118.2651,34.13983],[-118.26496,34.14001],[-118.26504,34.14012],[-118.26474,34.14014],[-118.2647,34.14025],[-118.2646,34.14024],[-118.26462,34.14071],[-118.26524,34.14076],[-118.26534,34.14068],[-118.26593,34.14068],[-118.26592,34.13988]]],[[[-118.26703,34.14089],[-118.26703,34.14124],[-118.2667,34.14124],[-118.26669,34.14089],[-118.26703,34.14089]]]]}},{"type":"Feature","properties":{"level":"zone","label":"Oakmont View Park"},"geometry":{"type":"Polygon","coordinates":[[[-118.24298,34.20029],[-118.24321,34.19966],[-118.24337,34.19978],[-118.24358,34.19979],[-118.24357,34.20016],[-118.24348,34.2002],[-118.24345,34.20059],[-118.24299,34.20065],[-118.24298,34.20029]]]}},{"type":"Feature","properties":{"level":"zone","label":"Adams Square Mini Park"},"geometry":{"type":"Polygon","coordinates":[[[-118.24187,34.1326],[-118.2418,34.13231],[-118.24219,34.13225],[-118.24228,34.13242],[-118.24227,34.13257],[-118.24187,34.1326]]]}},{"type":"Feature","properties":{"level":"zone","label":"Maple Park And Community Center"},"geometry":{"type":"Polygon","coordinates":[[[-118.24396,34.13895],[-118.24396,34.1382],[-118.24404,34.13815],[-118.24546,34.13814],[-118.24546,34.13856],[-118.24616,34.13856],[-118.24615,34.13894],[-118.24396,34.13895]]]}},{"type":"Feature","properties":{"level":"zone","label":"Milford Mini Park"},"geometry":{"type":"Polygon","coordinates":[[[-118.26714,34.15243],[-118.26714,34.15278],[-118.26678,34.15278],[-118.2668,34.15244],[-118.26714,34.15243]]]}},{"type":"Feature","properties":{"level":"zone","label":"Adult Recreation Center & Central Park"},"geometry":{"type":"Polygon","coordinates":[[[-118.25436,34.14266],[-118.25437,34.14437],[-118.25268,34.14437],[-118.25266,34.1427],[-118.25436,34.14266]]]}}]}