{"type":"FeatureCollection","features":[{"type":"Feature","properties":{"name":"Glendale Community College","kind":"School"},"geometry":{"type":"Point","coordinates":[-118.22934,34.16655]}},{"type":"Feature","properties":{"name":"R.D. White Elementary","kind":"School"},"geometry":{"type":"Point","coordinates":[-118.24599,34.15405]}},{"type":"Feature","properties":{"name":"John Marshall Elementary","kind":"School"},"geometry":{"type":"Point","coordinates":[-118.23936,34.14705]}},{"type":"Feature","properties":{"name":"John Muir Elementary","kind":"School"},"geometry":{"type":"Point","coordinates":[-118.23899,34.13545]}},{"type":"Feature","properties":{"name":"Horace Mann Elementary","kind":"School"},"geometry":{"type":"Point","coordinates":[-118.24895,34.13533]}},{"type":"Feature","properties":{"name":"Thomas Edison Elementary","kind":"School"},"geometry":{"type":"Point","coordinates":[-118.265,34.14038]}},{"type":"Feature","properties":{"name":"Columbus Elementary","kind":"School"},"geometry":{"type":"Point","coordinates":[-118.26213,34.15299]}},{"type":"Feature","properties":{"name":"Mark Keppel Elementary","kind":"School"},"geometry":{"type":"Point","coordinates":[-118.27252,34.16514]}},{"type":"Feature","properties":{"name":"Thomas Jefferson Elementary","kind":"School"},"geometry":{"type":"Point","coordinates":[-118.28697,34.16962]}},{"type":"Feature","properties":{"name":"Balboa Elementary","kind":"School"},"geometry":{"type":"Point","coordinates":[-118.28622,34.18019]}},{"type":"Feature","properties":{"name":"Herbert Hoover High School","kind":"School"},"geometry":{"type":"Point","coordinates":[-118.26963,34.16653]}},{"type":"Feature","properties":{"name":"Eleanor J. Toll Middle School","kind":"School"},"geometry":{"type":"Point","coordinates":[-118.27087,34.16485]}},{"type":"Feature","properties":{"name":"Benjamin Franklin Elementary","kind":"School"},"geometry":{"type":"Point","coordinates":[-118.29708,34.1615]}},{"type":"Feature","properties":{"name":"Allan F. Daily High School","kind":"School"},"geometry":{"type":"Point","coordinates":[-118.2511,34.14915]}},{"type":"Feature","properties":{"name":"Theodore Roosevelt Middle School","kind":"School"},"geometry":{"type":"Point","coordinates":[-118.25326,34.1341]}},{"type":"Feature","properties":{"name":"Glendale High School","kind":"School"},"geometry":{"type":"Point","coordinates":[-118.23342,34.14536]}},{"type":"Feature","properties":{"name":"Woodrow Wilson Middle School","kind":"School"},"geometry":{"type":"Point","coordinates":[-118.23874,34.15582]}},{"type":"Feature","properties":{"name":"Glenoaks Elementary","kind":"School"},"geometry":{"type":"Point","coordinates":[-118.22153,34.15165]}},{"type":"Feature","properties":{"name":"Verdugo Woodlands Elementary","kind":"School"},"geometry":{"type":"Point","coordinates":[-118.22698,34.1737]}},{"type":"Feature","properties":{"name":"Fremont Elementary","kind":"School"},"geometry":{"type":"Point","coordinates":[-118.23194,34.19976]}},{"type":"Feature","properties":{"name":"Lincoln Elementary","kind":"School"},"geometry":{"type":"Point","coordinates":[-118.25275,34.22794]}},{"type":"Feature","properties":{"name":"Dunsmore Elementary","kind":"School"},"geometry":{"type":"Point","coordinates":[-118.2578,34.23999]}},{"type":"Feature","properties":{"name":"Anderson W. Clark Magnet High School","kind":"School"},"geometry":{"type":"Point","coordinates":[-118.25392,34.23724]}},{"type":"Feature","properties":{"name":"Cerritos Elementary","kind":"School"},"geometry":{"type":"Point","coordinates":[-118.25433,34.12506]}},{"type":"Feature","properties":{"name":"Valley View Elementary","kind":"School"},"geometry":{"type":"Point","coordinates":[-118.2503,34.23921]}},{"type":"Feature","properties":{"name":"College View School","kind":"School"},"geometry":{"type":"Point","coordinates":[-118.22774,34.16416]}},{"type":"Feature","properties":{"name":"Pacific Ave Education Center","kind":"School"},"geometry":{"type":"Point","coordinates":[-118.26336,34.14021]}}]}