{"type":"FeatureCollection","features":[{"type":"Feature","properties":{"level":"zone","label":"Within 500 ft of Glendale Community College"},"geometry":{"type":"Polygon","coordinates":[[[-118.22769,34.16655],[-118.22772,34.16628],[-118.22782,34.16602],[-118.22797,34.16578],[-118.22817,34.16557],[-118.22842,34.1654],[-118.22871,34.16527],[-118.22902,34.16519],[-118.22934,34.16517],[-118.22967,34.16519],[-118.22998,34.16527],[-118.23026,34.1654],[-118.23051,34.16557],[-118.23072,34.16578],[-118.23087,34.16602],[-118.23097,34.16628],[-118.231,34.16655],[-118.23097,34.16682],[-118.23087,34.16707],[-118.23072,34.16731],[-118.23051,34.16752],[-118.23026,34.16769],[-118.22998,34.16782],[-118.22967,34.1679],[-118.22934,34.16793],[-118.22902,34.1679],[-118.22871,34.16782],[-118.22842,34.16769],[-118.22817,34.16752],[-118.22797,34.16731],[-118.22782,34.16707],[-118.22772,34.16682],[-118.22769,34.16655]]]}},{"type":"Feature","properties":{"level":"zone","label":"Within 500 ft of R.D. White Elementary"},"geometry":{"type":"Polygon","coordinates":[[[-118.24433,34.15405],[-118.24437,34.15378],[-118.24446,34.15352],[-118.24461,34.15328],[-118.24482,34.15307],[-118.24507,34.1529],[-118.24536,34.15277],[-118.24567,34.15269],[-118.24599,34.15267],[-118.24631,34.15269],[-118.24662,34.15277],[-118.24691,34.1529],[-118.24716,34.15307],[-118.24736,34.15328],[-118.24752,34.15352],[-118.24761,34.15378],[-118.24764,34.15405],[-118.24761,34.15432],[-118.24752,34.15457],[-118.24736,34.15481],[-118.24716,34.15502],[-118.24691,34.15519],[-118.24662,34.15532],[-118.24631,34.1554],[-118.24599,34.15543],[-118.24567,34.1554],[-118.24536,34.15532],[-118.24507,34.15519],[-118.24482,34.15502],[-118.24461,34.15481],[-118.24446,34.15457],[-118.24437,34.15432],[-118.24433,34.15405]]]}},{"type":"Feature","properties":{"level":"zone","label":"Within 500 ft of John Marshall Elementary"},"geometry":{"type":"Polygon","coordinates":[[[-118.2377,34.14705],[-118.23773,34.14678],[-118.23783,34.14652],[-118.23798,34.14628],[-118.23819,34.14607],[-118.23844,34.1459],[-118.23872,34.14577],[-118.23903,34.14569],[-118.23936,34.14567],[-118.23968,34.14569],[-118.23999,34.14577],[-118.24028,34.1459],[-118.24053,34.14607],[-118.24073,34.14628],[-118.24088,34.14652],[-118.24098,34.14678],[-118.24101,34.14705],[-118.24098,34.14732],[-118.24088,34.14757],[-118.24073,34.14781],[-118.24053,34.14802],[-118.24028,34.14819],[-118.23999,34.14832],[-118.23968,34.1484],[-118.23936,34.14843],[-118.23903,34.1484],[-118.23872,34.14832],[-118.23844,34.14819],[-118.23819,34.14802],[-118.23798,34.14781],[-118.23783,34.14757],[-118.23773,34.14732],[-118.2377,34.14705]]]}},{"type":"Feature","properties":{"level":"zone","label":"Within 500 ft of John Muir Elementary"},"geometry":{"type":"Polygon","coordinates":[[[-118.23734,34.13545],[-118.23737,34.13518],[-118.23746,34.13492],[-118.23762,34.13469],[-118.23782,34.13448],[-118.23807,34.13431],[-118.23836,34.13418],[-118.23867,34.1341],[-118.23899,34.13407],[-118.23931,34.1341],[-118.23963,34.13418],[-118.23991,34.13431],[-118.24016,34.13448],[-118.24037,34.13469],[-118.24052,34.13492],[-118.24062,34.13518],[-118.24065,34.13545],[-118.24062,34.13572],[-118.24052,34.13598],[-118.24037,34.13622],[-118.24016,34.13643],[-118.23991,34.1366],[-118.23963,34.13673],[-118.23931,34.1368],[-118.23899,34.13683],[-118.23867,34.1368],[-118.23836,34.13673],[-118.23807,34.1366],[-118.23782,34.13643],[-118.23762,34.13622],[-118.23746,34.13598],[-118.23737,34.13572],[-118.23734,34.13545]]]}},{"type":"Feature","properties":{"level":"zone","label":"Within 500 ft of Horace Mann Elementary"},"geometry":{"type":"Polygon","coordinates":[[[-118.2473,34.13533],[-118.24733,34.13506],[-118.24743,34.1348],[-118.24758,34.13456],[-118.24778,34.13436],[-118.24804,34.13418],[-118.24832,34.13406],[-118.24863,34.13398],[-118.24895,34.13395],[-118.24928,34.13398],[-118.24959,34.13406],[-118.24987,34.13418],[-118.25013,34.13436],[-118.25033,34.13456],[-118.25048,34.1348],[-118.25058,34.13506],[-118.25061,34.13533],[-118.25058,34.1356],[-118.25048,34.13586],[-118.25033,34.1361],[-118.25013,34.1363],[-118.24987,34.13648],[-118.24959,34.1366],[-118.24928,34.13668],[-118.24895,34.13671],[-118.24863,34.13668],[-118.24832,34.1366],[-118.24804,34.13648],[-118.24778,34.1363],[-118.24758,34.1361],[-118.24743,34.13586],[-118.24733,34.1356],[-118.2473,34.13533]]]}},{"type":"Feature","properties":{"level":"zone","label":"Within 500 ft of Thomas Edison Elementary"},"geometry":{"type":"Polygon","coordinates":[[[-118.26335,34.14038],[-118.26338,34.14011],[-118.26347,34.13985],[-118.26362,34.13961],[-118.26383,34.1394],[-118.26408,34.13923],[-118.26437,34.1391],[-118.26468,34.13903],[-118.265,34.139],[-118.26532,34.13903],[-118.26563,34.1391],[-118.26592,34.13923],[-118.26617,34.1394],[-118.26638,34.13961],[-118.26653,34.13985],[-118.26662,34.14011],[-118.26665,34.14038],[-118.26662,34.14065],[-118.26653,34.14091],[-118.26638,34.14114],[-118.26617,34.14135],[-118.26592,34.14152],[-118.26563,34.14165],[-118.26532,34.14173],[-118.265,34.14176],[-118.26468,34.14173],[-118.26437,34.14165],[-118.26408,34.14152],[-118.26383,34.14135],[-118.26362,34.14114],[-118.26347,34.14091],[-118.26338,34.14065],[-118.26335,34.14038]]]}},{"type":"Feature","properties":{"level":"zone","label":"Within 500 ft of Columbus Elementary"},"geometry":{"type":"Polygon","coordinates":[[[-118.26047,34.15299],[-118.2605,34.15272],[-118.2606,34.15246],[-118.26075,34.15222],[-118.26096,34.15201],[-118.26121,34.15184],[-118.26149,34.15171],[-118.26181,34.15163],[-118.26213,34.15161],[-118.26245,34.15163],[-118.26276,34.15171],[-118.26305,34.15184],[-118.2633,34.15201],[-118.2635,34.15222],[-118.26366,34.15246],[-118.26375,34.15272],[-118.26378,34.15299],[-118.26375,34.15325],[-118.26366,34.15351],[-118.2635,34.15375],[-118.2633,34.15396],[-118.26305,34.15413],[-118.26276,34.15426],[-118.26245,34.15434],[-118.26213,34.15436],[-118.26181,34.15434],[-118.26149,34.15426],[-118.26121,34.15413],[-118.26096,34.15396],[-118.26075,34.15375],[-118.2606,34.15351],[-118.2605,34.15325],[-118.26047,34.15299]]]}},{"type":"Feature","properties":{"level":"zone","label":"Within 500 ft of Mark Keppel Elementary"},"geometry":{"type":"Polygon","coordinates":[[[-118.27086,34.16514],[-118.27089,34.16487],[-118.27099,34.16461],[-118.27114,34.16437],[-118.27135,34.16416],[-118.2716,34.16399],[-118.27188,34.16387],[-118.27219,34.16379],[-118.27252,34.16376],[-118.27284,34.16379],[-118.27315,34.16387],[-118.27344,34.16399],[-118.27369,34.16416],[-118.27389,34.16437],[-118.27405,34.16461],[-118.27414,34.16487],[-118.27417,34.16514],[-118.27414,34.16541],[-118.27405,34.16567],[-118.27389,34.1659],[-118.27369,34.16611],[-118.27344,34.16629],[-118.27315,34.16641],[-118.27284,34.16649],[-118.27252,34.16652],[-118.27219,34.16649],[-118.27188,34.16641],[-118.2716,34.16629],[-118.27135,34.16611],[-118.27114,34.1659],[-118.27099,34.16567],[-118.27089,34.16541],[-118.27086,34.16514]]]}},{"type":"Feature","properties":{"level":"zone","label":"Within 500 ft of Thomas Jefferson Elementary"},"geometry":{"type":"Polygon","coordinates":[[[-118.28532,34.16962],[-118.28535,34.16935],[-118.28545,34.16909],[-118.2856,34.16885],[-118.2858,34.16864],[-118.28606,34.16847],[-118.28634,34.16834],[-118.28665,34.16826],[-118.28697,34.16824],[-118.2873,34.16826],[-118.28761,34.16834],[-118.28789,34.16847],[-118.28815,34.16864],[-118.28835,34.16885],[-118.2885,34.16909],[-118.2886,34.16935],[-118.28863,34.16962],[-118.2886,34.16988],[-118.2885,34.17014],[-118.28835,34.17038],[-118.28815,34.17059],[-118.28789,34.17076],[-118.28761,34.17089],[-118.2873,34.17097],[-118.28697,34.17099],[-118.28665,34.17097],[-118.28634,34.17089],[-118.28606,34.17076],[-118.2858,34.17059],[-118.2856,34.17038],[-118.28545,34.17014],[-118.28535,34.16988],[-118.28532,34.16962]]]}},{"type":"Feature","properties":{"level":"zone","label":"Within 500 ft of Balboa Elementary"},"geometry":{"type":"Polygon","coordinates":[[[-118.28457,34.18019],[-118.2846,34.17992],[-118.28469,34.17966],[-118.28485,34.17943],[-118.28505,34.17922],[-118.2853,34.17905],[-118.28559,34.17892],[-118.2859,34.17884],[-118.28622,34.17881],[-118.28654,34.17884],[-118.28685,34.17892],[-118.28714,34.17905],[-118.28739,34.17922],[-118.2876,34.17943],[-118.28775,34.17966],[-118.28784,34.17992],[-118.28788,34.18019],[-118.28784,34.18046],[-118.28775,34.18072],[-118.2876,34.18096],[-118.28739,34.18117],[-118.28714,34.18134],[-118.28685,34.18147],[-118.28654,34.18154],[-118.28622,34.18157],[-118.2859,34.18154],[-118.28559,34.18147],[-118.2853,34.18134],[-118.28505,34.18117],[-118.28485,34.18096],[-118.28469,34.18072],[-118.2846,34.18046],[-118.28457,34.18019]]]}},{"type":"Feature","properties":{"level":"zone","label":"Within 500 ft of Herbert Hoover High School"},"geometry":{"type":"Polygon","coordinates":[[[-118.26797,34.16653],[-118.268,34.16626],[-118.2681,34.166],[-118.26825,34.16576],[-118.26845,34.16555],[-118.26871,34.16538],[-118.26899,34.16525],[-118.2693,34.16517],[-118.26962,34.16515],[-118.26995,34.16517],[-118.27026,34.16525],[-118.27054,34.16538],[-118.2708,34.16555],[-118.271,34.16576],[-118.27115,34.166],[-118.27125,34.16626],[-118.27128,34.16653],[-118.27125,34.16679],[-118.27115,34.16705],[-118.271,34.16729],[-118.2708,34.1675],[-118.27054,34.16767],[-118.27026,34.1678],[-118.26995,34.16788],[-118.26962,34.1679],[-118.2693,34.16788],[-118.26899,34.1678],[-118.26871,34.16767],[-118.26845,34.1675],[-118.26825,34.16729],[-118.2681,34.16705],[-118.268,34.16679],[-118.26797,34.16653]]]}},{"type":"Feature","properties":{"level":"zone","label":"Within 500 ft of Eleanor J. Toll Middle School"},"geometry":{"type":"Polygon","coordinates":[[[-118.26921,34.16485],[-118.26924,34.16458],[-118.26934,34.16433],[-118.26949,34.16409],[-118.2697,34.16388],[-118.26995,34.16371],[-118.27023,34.16358],[-118.27054,34.1635],[-118.27087,34.16347],[-118.27119,34.1635],[-118.2715,34.16358],[-118.27179,34.16371],[-118.27204,34.16388],[-118.27224,34.16409],[-118.27239,34.16433],[-118.27249,34.16458],[-118.27252,34.16485],[-118.27249,34.16512],[-118.27239,34.16538],[-118.27224,34.16562],[-118.27204,34.16583],[-118.27179,34.166],[-118.2715,34.16613],[-118.27119,34.16621],[-118.27087,34.16623],[-118.27054,34.16621],[-118.27023,34.16613],[-118.26995,34.166],[-118.2697,34.16583],[-118.26949,34.16562],[-118.26934,34.16538],[-118.26924,34.16512],[-118.26921,34.16485]]]}},{"type":"Feature","properties":{"level":"zone","label":"Within 500 ft of Benjamin Franklin Elementary"},"geometry":{"type":"Polygon","coordinates":[[[-118.29543,34.1615],[-118.29546,34.16123],[-118.29555,34.16097],[-118.2957,34.16073],[-118.29591,34.16052],[-118.29616,34.16035],[-118.29645,34.16022],[-118.29676,34.16014],[-118.29708,34.16012],[-118.2974,34.16014],[-118.29771,34.16022],[-118.298,34.16035],[-118.29825,34.16052],[-118.29846,34.16073],[-118.29861,34.16097],[-118.2987,34.16123],[-118.29873,34.1615],[-118.2987,34.16177],[-118.29861,34.16202],[-118.29846,34.16226],[-118.29825,34.16247],[-118.298,34.16264],[-118.29771,34.16277],[-118.2974,34.16285],[-118.29708,34.16288],[-118.29676,34.16285],[-118.29645,34.16277],[-118.29616,34.16264],[-118.29591,34.16247],[-118.2957,34.16226],[-118.29555,34.16202],[-118.29546,34.16177],[-118.29543,34.1615]]]}},{"type":"Feature","properties":{"level":"zone","label":"Within 500 ft of Allan F. Daily High School"},"geometry":{"type":"Polygon","coordinates":[[[-118.24945,34.14915],[-118.24948,34.14888],[-118.24957,34.14862],[-118.24973,34.14838],[-118.24993,34.14817],[-118.25018,34.148],[-118.25047,34.14787],[-118.25078,34.1478],[-118.2511,34.14777],[-118.25142,34.1478],[-118.25173,34.14787],[-118.25202,34.148],[-118.25227,34.14817],[-118.25248,34.14838],[-118.25263,34.14862],[-118.25272,34.14888],[-118.25276,34.14915],[-118.25272,34.14942],[-118.25263,34.14968],[-118.25248,34.14991],[-118.25227,34.15012],[-118.25202,34.15029],[-118.25173,34.15042],[-118.25142,34.1505],[-118.2511,34.15053],[-118.25078,34.1505],[-118.25047,34.15042],[-118.25018,34.15029],[-118.24993,34.15012],[-118.24973,34.14991],[-118.24957,34.14968],[-118.24948,34.14942],[-118.24945,34.14915]]]}},{"type":"Feature","properties":{"level":"zone","label":"Within 500 ft of Theodore Roosevelt Middle School"},"geometry":{"type":"Polygon","coordinates":[[[-118.25161,34.1341],[-118.25164,34.13383],[-118.25173,34.13358],[-118.25189,34.13334],[-118.25209,34.13313],[-118.25234,34.13296],[-118.25263,34.13283],[-118.25294,34.13275],[-118.25326,34.13272],[-118.25359,34.13275],[-118.2539,34.13283],[-118.25418,34.13296],[-118.25443,34.13313],[-118.25464,34.13334],[-118.25479,34.13358],[-118.25489,34.13383],[-118.25492,34.1341],[-118.25489,34.13437],[-118.25479,34.13463],[-118.25464,34.13487],[-118.25443,34.13508],[-118.25418,34.13525],[-118.2539,34.13538],[-118.25359,34.13546],[-118.25326,34.13548],[-118.25294,34.13546],[-118.25263,34.13538],[-118.25234,34.13525],[-118.25209,34.13508],[-118.25189,34.13487],[-118.25173,34.13463],[-118.25164,34.13437],[-118.25161,34.1341]]]}},{"type":"Feature","properties":{"level":"zone","label":"Within 500 ft of Glendale High School"},"geometry":{"type":"Polygon","coordinates":[[[-118.23177,34.14536],[-118.2318,34.14509],[-118.2319,34.14483],[-118.23205,34.14459],[-118.23225,34.14438],[-118.23251,34.14421],[-118.23279,34.14408],[-118.2331,34.14401],[-118.23342,34.14398],[-118.23375,34.14401],[-118.23406,34.14408],[-118.23434,34.14421],[-118.2346,34.14438],[-118.2348,34.14459],[-118.23495,34.14483],[-118.23505,34.14509],[-118.23508,34.14536],[-118.23505,34.14563],[-118.23495,34.14589],[-118.2348,34.14612],[-118.2346,34.14633],[-118.23434,34.1465],[-118.23406,34.14663],[-118.23375,34.14671],[-118.23342,34.14674],[-118.2331,34.14671],[-118.23279,34.14663],[-118.23251,34.1465],[-118.23225,34.14633],[-118.23205,34.14612],[-118.2319,34.14589],[-118.2318,34.14563],[-118.23177,34.14536]]]}},{"type":"Feature","properties":{"level":"zone","label":"Within 500 ft of Woodrow Wilson Middle School"},"geometry":{"type":"Polygon","coordinates":[[[-118.23708,34.15582],[-118.23711,34.15555],[-118.23721,34.15529],[-118.23736,34.15505],[-118.23757,34.15485],[-118.23782,34.15467],[-118.2381,34.15455],[-118.23841,34.15447],[-118.23874,34.15444],[-118.23906,34.15447],[-118.23937,34.15455],[-118.23966,34.15467],[-118.23991,34.15485],[-118.24011,34.15505],[-118.24027,34.15529],[-118.24036,34.15555],[-118.24039,34.15582],[-118.24036,34.15609],[-118.24027,34.15635],[-118.24011,34.15659],[-118.23991,34.15679],[-118.23966,34.15697],[-118.23937,34.15709],[-118.23906,34.15717],[-118.23874,34.1572],[-118.23841,34.15717],[-118.2381,34.15709],[-118.23782,34.15697],[-118.23757,34.15679],[-118.23736,34.15659],[-118.23721,34.15635],[-118.23711,34.15609],[-118.23708,34.15582]]]}},{"type":"Feature","properties":{"level":"zone","label":"Within 500 ft of Glenoaks Elementary"},"geometry":{"type":"Polygon","coordinates":[[[-118.21988,34.15165],[-118.21991,34.15138],[-118.22,34.15112],[-118.22015,34.15088],[-118.22036,34.15067],[-118.22061,34.1505],[-118.2209,34.15037],[-118.22121,34.15029],[-118.22153,34.15027],[-118.22185,34.15029],[-118.22216,34.15037],[-118.22245,34.1505],[-118.2227,34.15067],[-118.22291,34.15088],[-118.22306,34.15112],[-118.22315,34.15138],[-118.22318,34.15165],[-118.22315,34.15191],[-118.22306,34.15217],[-118.22291,34.15241],[-118.2227,34.15262],[-118.22245,34.15279],[-118.22216,34.15292],[-118.22185,34.153],[-118.22153,34.15302],[-118.22121,34.153],[-118.2209,34.15292],[-118.22061,34.15279],[-118.22036,34.15262],[-118.22015,34.15241],[-118.22,34.15217],[-118.21991,34.15191],[-118.21988,34.15165]]]}},{"type":"Feature","properties":{"level":"zone","label":"Within 500 ft of Verdugo Woodlands Elementary"},"geometry":{"type":"Polygon","coordinates":[[[-118.22533,34.1737],[-118.22536,34.17343],[-118.22546,34.17317],[-118.22561,34.17294],[-118.22581,34.17273],[-118.22606,34.17256],[-118.22635,34.17243],[-118.22666,34.17235],[-118.22698,34.17232],[-118.22731,34.17235],[-118.22762,34.17243],[-118.2279,34.17256],[-118.22815,34.17273],[-118.22836,34.17294],[-118.22851,34.17317],[-118.22861,34.17343],[-118.22864,34.1737],[-118.22861,34.17397],[-118.22851,34.17423],[-118.22836,34.17447],[-118.22815,34.17468],[-118.2279,34.17485],[-118.22762,34.17498],[-118.22731,34.17505],[-118.22698,34.17508],[-118.22666,34.17505],[-118.22635,34.17498],[-118.22606,34.17485],[-118.22581,34.17468],[-118.22561,34.17447],[-118.22546,34.17423],[-118.22536,34.17397],[-118.22533,34.1737]]]}},{"type":"Feature","properties":{"level":"zone","label":"Within 500 ft of Fremont Elementary"},"geometry":{"type":"Polygon","coordinates":[[[-118.23029,34.19976],[-118.23032,34.19949],[-118.23041,34.19923],[-118.23057,34.19899],[-118.23077,34.19878],[-118.23102,34.19861],[-118.23131,34.19848],[-118.23162,34.1984],[-118.23194,34.19838],[-118.23226,34.1984],[-118.23257,34.19848],[-118.23286,34.19861],[-118.23311,34.19878],[-118.23332,34.19899],[-118.23347,34.19923],[-118.23356,34.19949],[-118.2336,34.19976],[-118.23356,34.20003],[-118.23347,34.20028],[-118.23332,34.20052],[-118.23311,34.20073],[-118.23286,34.2009],[-118.23257,34.20103],[-118.23226,34.20111],[-118.23194,34.20114],[-118.23162,34.20111],[-118.23131,34.20103],[-118.23102,34.2009],[-118.23077,34.20073],[-118.23057,34.20052],[-118.23041,34.20028],[-118.23032,34.20003],[-118.23029,34.19976]]]}},{"type":"Feature","properties":{"level":"zone","label":"Within 500 ft of Lincoln Elementary"},"geometry":{"type":"Polygon","coordinates":[[[-118.2511,34.22794],[-118.25113,34.22767],[-118.25123,34.22741],[-118.25138,34.22717],[-118.25158,34.22696],[-118.25183,34.22679],[-118.25212,34.22666],[-118.25243,34.22659],[-118.25275,34.22656],[-118.25308,34.22659],[-118.25339,34.22666],[-118.25367,34.22679],[-118.25392,34.22696],[-118.25413,34.22717],[-118.25428,34.22741],[-118.25438,34.22767],[-118.25441,34.22794],[-118.25438,34.22821],[-118.25428,34.22847],[-118.25413,34.2287],[-118.25392,34.22891],[-118.25367,34.22908],[-118.25339,34.22921],[-118.25308,34.22929],[-118.25275,34.22932],[-118.25243,34.22929],[-118.25212,34.22921],[-118.25183,34.22908],[-118.25158,34.22891],[-118.25138,34.2287],[-118.25123,34.22847],[-118.25113,34.22821],[-118.2511,34.22794]]]}},{"type":"Feature","properties":{"level":"zone","label":"Within 500 ft of Dunsmore Elementary"},"geometry":{"type":"Polygon","coordinates":[[[-118.25614,34.23999],[-118.25617,34.23972],[-118.25627,34.23946],[-118.25642,34.23923],[-118.25663,34.23902],[-118.25688,34.23885],[-118.25716,34.23872],[-118.25747,34.23864],[-118.2578,34.23861],[-118.25812,34.23864],[-118.25843,34.23872],[-118.25872,34.23885],[-118.25897,34.23902],[-118.25917,34.23923],[-118.25932,34.23946],[-118.25942,34.23972],[-118.25945,34.23999],[-118.25942,34.24026],[-118.25932,34.24052],[-118.25917,34.24076],[-118.25897,34.24097],[-118.25872,34.24114],[-118.25843,34.24127],[-118.25812,34.24134],[-118.2578,34.24137],[-118.25747,34.24134],[-118.25716,34.24127],[-118.25688,34.24114],[-118.25663,34.24097],[-118.25642,34.24076],[-118.25627,34.24052],[-118.25617,34.24026],[-118.25614,34.23999]]]}},{"type":"Feature","properties":{"level":"zone","label":"Within 500 ft of Anderson W. Clark Magnet High School"},"geometry":{"type":"Polygon","coordinates":[[[-118.25227,34.23724],[-118.2523,34.23697],[-118.25239,34.23671],[-118.25255,34.23647],[-118.25275,34.23626],[-118.253,34.23609],[-118.25329,34.23597],[-118.2536,34.23589],[-118.25392,34.23586],[-118.25425,34.23589],[-118.25456,34.23597],[-118.25484,34.23609],[-118.25509,34.23626],[-118.2553,34.23647],[-118.25545,34.23671],[-118.25555,34.23697],[-118.25558,34.23724],[-118.25555,34.23751],[-118.25545,34.23777],[-118.2553,34.238],[-118.25509,34.23821],[-118.25484,34.23839],[-118.25456,34.23851],[-118.25425,34.23859],[-118.25392,34.23862],[-118.2536,34.23859],[-118.25329,34.23851],[-118.253,34.23839],[-118.25275,34.23821],[-118.25255,34.238],[-118.25239,34.23777],[-118.2523,34.23751],[-118.25227,34.23724]]]}},{"type":"Feature","properties":{"level":"zone","label":"Within 500 ft of Cerritos Elementary"},"geometry":{"type":"Polygon","coordinates":[[[-118.25267,34.12506],[-118.2527,34.12479],[-118.2528,34.12453],[-118.25295,34.12429],[-118.25316,34.12409],[-118.25341,34.12391],[-118.25369,34.12379],[-118.25401,34.12371],[-118.25433,34.12368],[-118.25465,34.12371],[-118.25496,34.12379],[-118.25525,34.12391],[-118.2555,34.12409],[-118.2557,34.12429],[-118.25586,34.12453],[-118.25595,34.12479],[-118.25598,34.12506],[-118.25595,34.12533],[-118.25586,34.12559],[-118.2557,34.12583],[-118.2555,34.12603],[-118.25525,34.12621],[-118.25496,34.12633],[-118.25465,34.12641],[-118.25433,34.12644],[-118.25401,34.12641],[-118.25369,34.12633],[-118.25341,34.12621],[-118.25316,34.12603],[-118.25295,34.12583],[-118.2528,34.12559],[-118.2527,34.12533],[-118.25267,34.12506]]]}},{"type":"Feature","properties":{"level":"zone","label":"Within 500 ft of Valley View Elementary"},"geometry":{"type":"Polygon","coordinates":[[[-118.24865,34.23921],[-118.24868,34.23894],[-118.24877,34.23868],[-118.24893,34.23845],[-118.24913,34.23824],[-118.24938,34.23806],[-118.24967,34.23794],[-118.24998,34.23786],[-118.2503,34.23783],[-118.25063,34.23786],[-118.25094,34.23794],[-118.25122,34.23806],[-118.25147,34.23824],[-118.25168,34.23845],[-118.25183,34.23868],[-118.25193,34.23894],[-118.25196,34.23921],[-118.25193,34.23948],[-118.25183,34.23974],[-118.25168,34.23998],[-118.25147,34.24019],[-118.25122,34.24036],[-118.25094,34.24048],[-118.25063,34.24056],[-118.2503,34.24059],[-118.24998,34.24056],[-118.24967,34.24048],[-118.24938,34.24036],[-118.24913,34.24019],[-118.24893,34.23998],[-118.24877,34.23974],[-118.24868,34.23948],[-118.24865,34.23921]]]}},{"type":"Feature","properties":{"level":"zone","label":"Within 500 ft of College View School"},"geometry":{"type":"Polygon","coordinates":[[[-118.22608,34.16416],[-118.22611,34.1639],[-118.22621,34.16364],[-118.22636,34.1634],[-118.22657,34.16319],[-118.22682,34.16302],[-118.2271,34.16289],[-118.22741,34.16281],[-118.22774,34.16279],[-118.22806,34.16281],[-118.22837,34.16289],[-118.22866,34.16302],[-118.22891,34.16319],[-118.22911,34.1634],[-118.22927,34.16364],[-118.22936,34.1639],[-118.22939,34.16416],[-118.22936,34.16443],[-118.22927,34.16469],[-118.22911,34.16493],[-118.22891,34.16514],[-118.22866,34.16531],[-118.22837,34.16544],[-118.22806,34.16552],[-118.22774,34.16554],[-118.22741,34.16552],[-118.2271,34.16544],[-118.22682,34.16531],[-118.22657,34.16514],[-118.22636,34.16493],[-118.22621,34.16469],[-118.22611,34.16443],[-118.22608,34.16416]]]}},{"type":"Feature","properties":{"level":"zone","label":"Within 500 ft of Pacific Ave Education Center"},"geometry":{"type":"Polygon","coordinates":[[[-118.2617,34.14021],[-118.26173,34.13994],[-118.26183,34.13968],[-118.26198,34.13944],[-118.26218,34.13924],[-118.26244,34.13906],[-118.26272,34.13894],[-118.26303,34.13886],[-118.26336,34.13883],[-118.26368,34.13886],[-118.26399,34.13894],[-118.26427,34.13906],[-118.26453,34.13924],[-118.26473,34.13944],[-118.26488,34.13968],[-118.26498,34.13994],[-118.26501,34.14021],[-118.26498,34.14048],[-118.26488,34.14074],[-118.26473,34.14098],[-118.26453,34.14118],[-118.26427,34.14136],[-118.26399,34.14148],[-118.26368,34.14156],[-118.26336,34.14159],[-118.26303,34.14156],[-118.26272,34.14148],[-118.26244,34.14136],[-118.26218,34.14118],[-118.26198,34.14098],[-118.26183,34.14074],[-118.26173,34.14048],[-118.2617,34.14021]]]}}]}