{"type":"FeatureCollection","features":[{"type":"Feature","properties":{"level":1,"label":"Moderate fire hazard severity zone"},"geometry":{"type":"MultiPolygon","coordinates":[[[[-118.26535,34.24488],[-118.26536,34.24461],[-118.26308,34.24457],[-118.26309,34.2443],[-118.26244,34.24429],[-118.26244,34.24402],[-118.26147,34.24401],[-118.26147,34.24374],[-118.26114,34.24373],[-118.26114,34.244],[-118.26081,34.244],[-118.26082,34.24373],[-118.26017,34.24372],[-118.26017,34.24345],[-118.25952,34.24344],[-118.25953,34.24317],[-118.2592,34.24316],[-118.25921,34.24289],[-118.25888,34.24289],[-118.25889,34.24235],[-118.25824,34.24234],[-118.25825,34.24206],[-118.25792,34.24206],[-118.25793,34.24179],[-118.2576,34.24179],[-118.25761,34.24151],[-118.25728,34.24151],[-118.25729,34.24124],[-118.25696,34.24123],[-118.25697,34.24096],[-118.25665,34.24096],[-118.25665,34.24069],[-118.25567,34.24067],[-118.25568,34.2404],[-118.25503,34.24039],[-118.25504,34.24012],[-118.25471,34.24012],[-118.25472,34.23958],[-118.2544,34.23957],[-118.2544,34.2393],[-118.25408,34.2393],[-118.25408,34.23903],[-118.25441,34.23903],[-118.25441,34.23876],[-118.25409,34.23876],[-118.25409,34.23849],[-118.25411,34.23795],[-118.25443,34.23795],[-118.25444,34.23768],[-118.25411,34.23768],[-118.25412,34.23741],[-118.25379,34.2374],[-118.25381,34.23659],[-118.25348,34.23658],[-118.25349,34.23631],[-118.25316,34.23631],[-118.25319,34.23523],[-118.25286,34.23522],[-118.25287,34.23495],[-118.25222,34.23494],[-118.25222,34.23467],[-118.25125,34.23466],[-118.25125,34.23439],[-118.25028,34.23437],[-118.25028,34.2341],[-118.24996,34.2341],[-118.24997,34.23356],[-118.24899,34.23354],[-118.249,34.23327],[-118.24865,34.23326],[-118.24866,34.23191],[-118.24869,34.23245],[-118.24999,34.23247],[-118.24999,34.23274],[-118.25064,34.23275],[-118.25063,34.23302],[-118.25096,34.23303],[-118.25095,34.2333],[-118.2516,34.23331],[-118.2516,34.23358],[-118.25355,34.23361],[-118.25355,34.23388],[-118.25387,34.23389],[-118.25386,34.23443],[-118.25418,34.23443],[-118.25418,34.2347],[-118.2545,34.23471],[-118.25449,34.23525],[-118.25482,34.23525],[-118.25481,34.23579],[-118.25513,34.2358],[-118.25512,34.23634],[-118.25544,34.23634],[-118.25544,34.23661],[-118.25576,34.23662],[-118.25576,34.23689],[-118.25608,34.23689],[-118.25607,34.23743],[-118.2564,34.23744],[-118.25638,34.23798],[-118.25606,34.23797],[-118.25605,34.23852],[-118.25637,34.23852],[-118.25636,34.23906],[-118.25734,34.23908],[-118.25733,34.23935],[-118.25766,34.23935],[-118.25765,34.23962],[-118.25798,34.23963],[-118.25797,34.2399],[-118.2583,34.2399],[-118.25829,34.24017],[-118.25894,34.24018],[-118.25894,34.24045],[-118.25959,34.24046],[-118.25958,34.241],[-118.26023,34.24101],[-118.26021,34.24182],[-118.26054,34.24183],[-118.26053,34.2421],[-118.26118,34.24211],[-118.26117,34.24238],[-118.2628,34.2424],[-118.2628,34.24268],[-118.26345,34.24269],[-118.26344,34.24296],[-118.26442,34.24297],[-118.26443,34.2427],[-118.26475,34.24271],[-118.26475,34.24298],[-118.2654,34.24298],[-118.26539,34.24326],[-118.26601,34.24327],[-118.26603,34.24489],[-118.26535,34.24488]]],[[[-118.22746,34.20616],[-118.22713,34.20616],[-118.22716,34.20508],[-118.22748,34.20508],[-118.22749,34.20481],[-118.22781,34.20482],[-118.22782,34.20455],[-118.22814,34.20455],[-118.22815,34.20428],[-118.22848,34.20429],[-118.22848,34.20402],[-118.22881,34.20402],[-118.22881,34.20375],[-118.22914,34.20376],[-118.22915,34.20349],[-118.2298,34.2035],[-118.2298,34.20323],[-118.23013,34.20323],[-118.23013,34.20296],[-118.23046,34.20296],[-118.23047,34.20242],[-118.2308,34.20243],[-118.2308,34.20216],[-118.23113,34.20216],[-118.23113,34.20189],[-118.23081,34.20189],[-118.23082,34.20162],[-118.23114,34.20162],[-118.23116,34.20081],[-118.23083,34.20081],[-118.23084,34.20054],[-118.23117,34.20054],[-118.23118,34.2],[-118.23085,34.2],[-118.23086,34.19946],[-118.23119,34.19946],[-118.23122,34.19811],[-118.23155,34.19811],[-118.23155,34.19784],[-118.23188,34.19785],[-118.23187,34.19812],[-118.2322,34.19812],[-118.23219,34.19839],[-118.23252,34.1984],[-118.2325,34.19921],[-118.23282,34.19922],[-118.23282,34.19949],[-118.23314,34.19949],[-118.23314,34.19976],[-118.23379,34.19977],[-118.23378,34.20004],[-118.23476,34.20006],[-118.23475,34.2006],[-118.23507,34.2006],[-118.23507,34.20087],[-118.23474,34.20087],[-118.23471,34.20222],[-118.23503,34.20222],[-118.23503,34.20249],[-118.23535,34.2025],[-118.23534,34.20331],[-118.23566,34.20332],[-118.23565,34.20386],[-118.23532,34.20385],[-118.2353,34.20493],[-118.23498,34.20493],[-118.23496,34.20574],[-118.23528,34.20574],[-118.23528,34.20601],[-118.23495,34.20601],[-118.23494,34.20628],[-118.23527,34.20629],[-118.23526,34.20683],[-118.23591,34.20684],[-118.23588,34.20792],[-118.23654,34.20793],[-118.23652,34.20847],[-118.23685,34.20847],[-118.23684,34.20874],[-118.23717,34.20875],[-118.23716,34.20929],[-118.23748,34.20929],[-118.23746,34.21037],[-118.23778,34.21038],[-118.23777,34.21092],[-118.2381,34.21093],[-118.23808,34.21147],[-118.23841,34.21147],[-118.2384,34.21201],[-118.23905,34.21202],[-118.23904,34.21229],[-118.23969,34.2123],[-118.23968,34.21284],[-118.24033,34.21285],[-118.24033,34.21312],[-118.24065,34.21313],[-118.24065,34.2134],[-118.24097,34.2134],[-118.24097,34.21368],[-118.24129,34.21368],[-118.24128,34.21422],[-118.24161,34.21422],[-118.2416,34.2145],[-118.24192,34.2145],[-118.24191,34.21504],[-118.24289,34.21506],[-118.24287,34.21587],[-118.2432,34.21587],[-118.24319,34.21614],[-118.24352,34.21615],[-118.24351,34.21642],[-118.24416,34.21643],[-118.24415,34.21697],[-118.24447,34.21697],[-118.24447,34.21724],[-118.24577,34.21726],[-118.24577,34.21753],[-118.24609,34.21754],[-118.24606,34.21889],[-118.24639,34.2189],[-118.24637,34.21944],[-118.2467,34.21944],[-118.24669,34.21971],[-118.24702,34.21972],[-118.24701,34.22026],[-118.24733,34.22026],[-118.24732,34.22107],[-118.24764,34.22108],[-118.24763,34.22135],[-118.24829,34.22136],[-118.24828,34.22163],[-118.2486,34.22163],[-118.24859,34.22218],[-118.24892,34.22218],[-118.24891,34.22272],[-118.24923,34.22273],[-118.24923,34.223],[-118.24988,34.22301],[-118.24986,34.22355],[-118.25019,34.22355],[-118.25018,34.22409],[-118.25051,34.2241],[-118.2505,34.22437],[-118.25082,34.22437],[-118.25082,34.22464],[-118.25114,34.22465],[-118.25113,34.22519],[-118.25146,34.22519],[-118.25145,34.22546],[-118.25275,34.22548],[-118.25274,34.22602],[-118.25307,34.22603],[-118.25306,34.2263],[-118.25339,34.22631],[-118.25338,34.22658],[-118.25371,34.22658],[-118.2537,34.22685],[-118.25468,34.22687],[-118.25467,34.22714],[-118.255,34.22714],[-118.25499,34.22741],[-118.25597,34.22743],[-118.25596,34.2277],[-118.25629,34.2277],[-118.25628,34.22797],[-118.25661,34.22798],[-118.2566,34.22825],[-118.25725,34.22826],[-118.25725,34.22853],[-118.25757,34.22853],[-118.25757,34.2288],[-118.25822,34.22881],[-118.25821,34.22908],[-118.25854,34.22909],[-118.25853,34.22936],[-118.25886,34.22936],[-118.25884,34.23018],[-118.25916,34.23018],[-118.25915,34.23072],[-118.25948,34.23073],[-118.25947,34.231],[-118.26012,34.23101],[-118.26012,34.23128],[-118.26077,34.23129],[-118.26076,34.23156],[-118.26141,34.23157],[-118.26141,34.23184],[-118.26238,34.23185],[-118.26238,34.23212],[-118.26303,34.23213],[-118.26302,34.2324],[-118.26335,34.23241],[-118.26333,34.23322],[-118.26366,34.23322],[-118.26364,34.23376],[-118.26397,34.23377],[-118.26396,34.23404],[-118.26429,34.23404],[-118.26429,34.23432],[-118.26494,34.23432],[-118.26493,34.23459],[-118.26526,34.2346],[-118.26524,34.23514],[-118.26557,34.23515],[-118.26556,34.23542],[-118.26622,34.23543],[-118.26621,34.2357],[-118.26679,34.2357],[-118.26675,34.23922],[-118.26646,34.23922],[-118.26647,34.2384],[-118.26615,34.2384],[-118.26615,34.23813],[-118.26583,34.23812],[-118.26585,34.23731],[-118.26552,34.23731],[-118.26553,34.23677],[-118.26521,34.23676],[-118.26521,34.23649],[-118.26456,34.23648],[-118.26457,34.23594],[-118.26392,34.23593],[-118.26393,34.23566],[-118.2636,34.23566],[-118.26361,34.23539],[-118.26328,34.23538],[-118.26329,34.23511],[-118.26296,34.23511],[-118.26297,34.23484],[-118.26265,34.23483],[-118.26265,34.23456],[-118.26233,34.23456],[-118.26234,34.23401],[-118.26201,34.23401],[-118.26202,34.23347],[-118.2617,34.23346],[-118.2617,34.23319],[-118.26138,34.23319],[-118.26138,34.23292],[-118.26041,34.2329],[-118.26041,34.23263],[-118.25944,34.23262],[-118.25944,34.23235],[-118.25912,34.23234],[-118.25913,34.2318],[-118.25848,34.23179],[-118.25849,34.23125],[-118.25784,34.23124],[-118.25784,34.23097],[-118.25752,34.23097],[-118.25752,34.2307],[-118.2572,34.23069],[-118.25722,34.22988],[-118.25689,34.22987],[-118.2569,34.2296],[-118.25657,34.2296],[-118.25658,34.22933],[-118.25593,34.22932],[-118.25593,34.22905],[-118.25561,34.22904],[-118.25561,34.22877],[-118.25463,34.22876],[-118.25464,34.22849],[-118.25399,34.22848],[-118.254,34.22821],[-118.25367,34.2282],[-118.25368,34.22793],[-118.25335,34.22793],[-118.25336,34.22766],[-118.25238,34.22764],[-118.25239,34.2271],[-118.25207,34.2271],[-118.25207,34.22683],[-118.25175,34.22682],[-118.25175,34.22655],[-118.25143,34.22655],[-118.25143,34.22628],[-118.25046,34.22626],[-118.25046,34.22599],[-118.24981,34.22598],[-118.24984,34.22463],[-118.24952,34.22462],[-118.24952,34.22435],[-118.2492,34.22435],[-118.24921,34.22381],[-118.24872,34.2238],[-118.24873,34.22224],[-118.24845,34.22225],[-118.24601,34.22122],[-118.24602,34.22051],[-118.2457,34.22051],[-118.24571,34.22024],[-118.24538,34.22023],[-118.2454,34.21915],[-118.24508,34.21915],[-118.2451,34.21834],[-118.24477,34.21833],[-118.24478,34.21806],[-118.24445,34.21805],[-118.24444,34.21833],[-118.24412,34.21832],[-118.24412,34.21805],[-118.24347,34.21804],[-118.24348,34.21777],[-118.24316,34.21776],[-118.24317,34.21722],[-118.24284,34.21722],[-118.24285,34.21695],[-118.24252,34.21694],[-118.24253,34.21667],[-118.2422,34.21667],[-118.24221,34.2164],[-118.24156,34.21639],[-118.24156,34.21612],[-118.24124,34.21611],[-118.24124,34.21584],[-118.24092,34.21584],[-118.24092,34.21557],[-118.2406,34.21556],[-118.2406,34.21529],[-118.24093,34.2153],[-118.24094,34.21503],[-118.24029,34.21502],[-118.2403,34.21448],[-118.23997,34.21447],[-118.23998,34.2142],[-118.23965,34.21419],[-118.23966,34.21393],[-118.23933,34.21392],[-118.23934,34.21338],[-118.23837,34.21336],[-118.23837,34.21309],[-118.23772,34.21308],[-118.23773,34.21281],[-118.2374,34.21281],[-118.23741,34.21254],[-118.23708,34.21253],[-118.2371,34.21199],[-118.23677,34.21199],[-118.23678,34.21172],[-118.23645,34.21171],[-118.23646,34.21117],[-118.23614,34.21117],[-118.23616,34.21035],[-118.23648,34.21036],[-118.23649,34.21009],[-118.23616,34.21008],[-118.23618,34.20927],[-118.23585,34.20927],[-118.23587,34.20873],[-118.23489,34.20871],[-118.2349,34.20844],[-118.23457,34.20844],[-118.23458,34.2079],[-118.23426,34.20789],[-118.23427,34.20735],[-118.23394,34.20735],[-118.23396,34.20681],[-118.23363,34.2068],[-118.23365,34.20572],[-118.23333,34.20571],[-118.23333,34.20544],[-118.23366,34.20545],[-118.23368,34.20464],[-118.234,34.20464],[-118.23402,34.20383],[-118.23435,34.20384],[-118.23435,34.20357],[-118.23403,34.20356],[-118.23404,34.20302],[-118.23372,34.20302],[-118.23372,34.20275],[-118.2334,34.20274],[-118.23341,34.2022],[-118.23308,34.20219],[-118.2331,34.20138],[-118.23343,34.20139],[-118.23343,34.20112],[-118.23311,34.20111],[-118.23311,34.20084],[-118.23279,34.20084],[-118.23279,34.20057],[-118.23247,34.20056],[-118.23243,34.20218],[-118.23211,34.20218],[-118.23209,34.20272],[-118.23242,34.20273],[-118.23241,34.203],[-118.23209,34.20299],[-118.23208,34.20326],[-118.23176,34.20326],[-118.23175,34.20353],[-118.23142,34.20352],[-118.23142,34.20379],[-118.23077,34.20378],[-118.23076,34.20432],[-118.2301,34.20431],[-118.23009,34.20512],[-118.22878,34.2051],[-118.22878,34.20537],[-118.22845,34.20537],[-118.22843,34.20618],[-118.22876,34.20618],[-118.22875,34.20645],[-118.22889,34.20646],[-118.22867,34.20688],[-118.22836,34.20678],[-118.22861,34.20629],[-118.22765,34.20597],[-118.22748,34.20657],[-118.22746,34.20616]]],[[[-118.22939,34.20701],[-118.22939,34.20712],[-118.22913,34.20703],[-118.22915,34.207],[-118.22939,34.20701]]]]}},{"type":"Feature","properties":{"level":1,"label":"Moderate fire hazard severity zone"},"geometry":{"type":"MultiPolygon","coordinates":[[[[-118.28946,34.1852],[-118.28946,34.18493],[-118.28914,34.18493],[-118.28913,34.1852],[-118.28881,34.18519],[-118.28881,34.18492],[-118.28849,34.18492],[-118.28848,34.18519],[-118.28783,34.18518],[-118.28782,34.18545],[-118.2875,34.18545],[-118.2875,34.18517],[-118.28653,34.18516],[-118.28653,34.18489],[-118.28621,34.18488],[-118.28621,34.18461],[-118.28556,34.1846],[-118.28557,34.18433],[-118.28589,34.18434],[-118.28591,34.18353],[-118.28559,34.18352],[-118.28559,34.18325],[-118.28527,34.18325],[-118.28527,34.18298],[-118.28495,34.18297],[-118.28496,34.18243],[-118.28463,34.18243],[-118.28464,34.18216],[-118.28432,34.18215],[-118.28432,34.18188],[-118.284,34.18188],[-118.28401,34.18133],[-118.28303,34.18132],[-118.28307,34.1797],[-118.28274,34.17969],[-118.28275,34.17915],[-118.28243,34.17915],[-118.28244,34.17834],[-118.28212,34.17833],[-118.28213,34.17806],[-118.2818,34.17806],[-118.28182,34.17725],[-118.28149,34.17724],[-118.2815,34.17697],[-118.28117,34.17697],[-118.28118,34.17643],[-118.28086,34.17642],[-118.28087,34.17588],[-118.28055,34.17587],[-118.28055,34.1756],[-118.28023,34.1756],[-118.28023,34.17533],[-118.27926,34.17531],[-118.27926,34.17504],[-118.27894,34.17504],[-118.27894,34.17477],[-118.27829,34.17476],[-118.2783,34.17449],[-118.27765,34.17448],[-118.27765,34.17421],[-118.27733,34.1742],[-118.27733,34.17393],[-118.27701,34.17393],[-118.27701,34.17366],[-118.27636,34.17365],[-118.27638,34.17311],[-118.27572,34.1731],[-118.27573,34.17283],[-118.27443,34.17281],[-118.27443,34.17254],[-118.27378,34.17253],[-118.27379,34.17226],[-118.27346,34.17225],[-118.27347,34.17198],[-118.27282,34.17197],[-118.27281,34.17224],[-118.27119,34.17222],[-118.27119,34.17195],[-118.26892,34.17191],[-118.26891,34.17218],[-118.26858,34.17218],[-118.26859,34.17191],[-118.26761,34.17189],[-118.26761,34.17216],[-118.26696,34.17215],[-118.26697,34.17134],[-118.26665,34.17134],[-118.26666,34.17107],[-118.26633,34.17106],[-118.26633,34.17079],[-118.26601,34.17079],[-118.26603,34.16998],[-118.2657,34.16997],[-118.26571,34.1697],[-118.26603,34.16971],[-118.26604,34.16943],[-118.26571,34.16943],[-118.26573,34.16889],[-118.2654,34.16888],[-118.26541,34.16861],[-118.26508,34.16861],[-118.2651,34.1678],[-118.26477,34.16779],[-118.26478,34.16752],[-118.26445,34.16752],[-118.26447,34.16698],[-118.26414,34.16697],[-118.26415,34.1667],[-118.2635,34.16669],[-118.2635,34.16642],[-118.26285,34.16641],[-118.26286,34.16614],[-118.26253,34.16614],[-118.26254,34.16586],[-118.26221,34.16586],[-118.26221,34.16613],[-118.26188,34.16613],[-118.26189,34.16586],[-118.26124,34.16584],[-118.26124,34.16557],[-118.26027,34.16556],[-118.26026,34.16583],[-118.25993,34.16583],[-118.25995,34.16528],[-118.25962,34.16528],[-118.25963,34.16501],[-118.2593,34.165],[-118.25931,34.16473],[-118.25963,34.16474],[-118.25964,34.16447],[-118.25932,34.16446],[-118.25932,34.16419],[-118.25899,34.16419],[-118.259,34.16392],[-118.25835,34.16391],[-118.25836,34.16364],[-118.25705,34.16362],[-118.25705,34.16389],[-118.25607,34.16387],[-118.25607,34.16414],[-118.25542,34.16413],[-118.25542,34.16386],[-118.25445,34.16385],[-118.25445,34.16358],[-118.25413,34.16357],[-118.25413,34.1633],[-118.25283,34.16328],[-118.25284,34.16301],[-118.25251,34.16301],[-118.25251,34.16328],[-118.25186,34.16327],[-118.25185,34.16354],[-118.25152,34.16353],[-118.25153,34.16326],[-118.2512,34.16326],[-118.25121,34.16299],[-118.25088,34.16298],[-118.25088,34.16325],[-118.25055,34.16325],[-118.25057,34.16271],[-118.24992,34.1627],[-118.24992,34.16243],[-118.2496,34.16242],[-118.24959,34.16269],[-118.24926,34.16269],[-118.24927,34.16242],[-118.24895,34.16241],[-118.24895,34.16214],[-118.24863,34.16214],[-118.24863,34.16187],[-118.24798,34.16186],[-118.24799,34.16159],[-118.24734,34.16158],[-118.24735,34.16103],[-118.24572,34.16101],[-118.24572,34.16128],[-118.24539,34.16128],[-118.2454,34.16101],[-118.24507,34.161],[-118.24508,34.16073],[-118.2441,34.16072],[-118.2441,34.16098],[-118.24279,34.16096],[-118.24279,34.16123],[-118.24084,34.16121],[-118.24083,34.16148],[-118.2405,34.16147],[-118.24051,34.1612],[-118.24018,34.16119],[-118.24021,34.16011],[-118.24053,34.16012],[-118.24058,34.15823],[-118.2409,34.15823],[-118.24091,34.15796],[-118.24058,34.15796],[-118.2406,34.15714],[-118.24028,34.15714],[-118.24029,34.1566],[-118.23996,34.15659],[-118.23998,34.15605],[-118.23965,34.15605],[-118.23965,34.15578],[-118.23901,34.15577],[-118.23902,34.15523],[-118.23934,34.15523],[-118.23935,34.15469],[-118.2387,34.15468],[-118.23872,34.15414],[-118.23807,34.15413],[-118.23808,34.15359],[-118.2371,34.15357],[-118.23709,34.15384],[-118.23677,34.15384],[-118.23678,34.15357],[-118.23645,34.15357],[-118.23646,34.15329],[-118.23613,34.15329],[-118.23613,34.15356],[-118.2358,34.15355],[-118.23581,34.15328],[-118.23516,34.15327],[-118.23516,34.153],[-118.23484,34.153],[-118.23484,34.15273],[-118.23452,34.15272],[-118.23452,34.15245],[-118.2342,34.15245],[-118.2342,34.15218],[-118.23388,34.15217],[-118.23389,34.1519],[-118.23356,34.1519],[-118.23356,34.15163],[-118.23292,34.15162],[-118.23292,34.15135],[-118.23194,34.15133],[-118.23195,34.15106],[-118.23163,34.15106],[-118.23163,34.15078],[-118.23098,34.15078],[-118.23099,34.15051],[-118.23131,34.15051],[-118.23132,34.14997],[-118.23165,34.14997],[-118.23167,34.14889],[-118.23135,34.14889],[-118.23135,34.14862],[-118.23103,34.14861],[-118.23104,34.14807],[-118.23137,34.14808],[-118.23139,34.14699],[-118.23172,34.147],[-118.23174,34.14619],[-118.23206,34.14619],[-118.23207,34.14592],[-118.23239,34.14593],[-118.2324,34.14566],[-118.23272,34.14566],[-118.23274,34.14512],[-118.23241,34.14512],[-118.23242,34.14485],[-118.23274,34.14485],[-118.23276,34.14404],[-118.23243,34.14404],[-118.23244,34.14377],[-118.23277,34.14377],[-118.23277,34.1435],[-118.23245,34.1435],[-118.23246,34.14296],[-118.23278,34.14296],[-118.23279,34.14269],[-118.23246,34.14268],[-118.23248,34.14214],[-118.23215,34.14214],[-118.23216,34.14187],[-118.23248,34.14187],[-118.2325,34.14133],[-118.23282,34.14134],[-118.23283,34.14107],[-118.23348,34.14108],[-118.23348,34.14081],[-118.23381,34.14081],[-118.23383,34.14],[-118.2335,34.14],[-118.23351,34.13972],[-118.23318,34.13972],[-118.23319,34.13918],[-118.23352,34.13918],[-118.23353,34.13891],[-118.23483,34.13893],[-118.23484,34.13839],[-118.23581,34.13841],[-118.23582,34.13814],[-118.23614,34.13814],[-118.23615,34.13787],[-118.2368,34.13788],[-118.23681,34.13761],[-118.23778,34.13763],[-118.23779,34.13736],[-118.23844,34.13737],[-118.23845,34.1371],[-118.23812,34.13709],[-118.23813,34.13682],[-118.23878,34.13683],[-118.23878,34.13656],[-118.23911,34.13657],[-118.23911,34.1363],[-118.24009,34.13631],[-118.2401,34.13604],[-118.24042,34.13605],[-118.24044,34.13524],[-118.24076,34.13524],[-118.2408,34.13389],[-118.24112,34.13389],[-118.24113,34.13362],[-118.24145,34.13363],[-118.24146,34.13309],[-118.24114,34.13308],[-118.24116,34.13227],[-118.24083,34.13227],[-118.24084,34.132],[-118.24116,34.132],[-118.24117,34.13173],[-118.24149,34.13173],[-118.2415,34.13146],[-118.24117,34.13146],[-118.24118,34.13119],[-118.24085,34.13118],[-118.24086,34.13091],[-118.24119,34.13092],[-118.2412,34.13038],[-118.2425,34.1304],[-118.24249,34.13067],[-118.24444,34.1307],[-118.24445,34.13043],[-118.24478,34.13043],[-118.24478,34.13016],[-118.24511,34.13017],[-118.24512,34.12963],[-118.24479,34.12962],[-118.24481,34.12908],[-118.24578,34.1291],[-118.24576,34.12991],[-118.24837,34.12995],[-118.24837,34.12968],[-118.24967,34.1297],[-118.24968,34.12943],[-118.25,34.12943],[-118.25002,34.12889],[-118.25034,34.1289],[-118.25035,34.12863],[-118.25165,34.12864],[-118.25165,34.12837],[-118.25198,34.12838],[-118.25199,34.12811],[-118.25231,34.12812],[-118.25232,34.12784],[-118.25297,34.12785],[-118.25297,34.12758],[-118.2533,34.12759],[-118.2533,34.12732],[-118.25363,34.12732],[-118.25364,34.12678],[-118.25397,34.12679],[-118.25399,34.12571],[-118.25432,34.12571],[-118.25435,34.12409],[-118.25468,34.12409],[-118.25468,34.12382],[-118.25436,34.12382],[-118.25437,34.12328],[-118.25404,34.12327],[-118.25405,34.123],[-118.25373,34.123],[-118.25374,34.12246],[-118.25341,34.12245],[-118.25342,34.12218],[-118.25309,34.12218],[-118.2531,34.12191],[-118.25277,34.1219],[-118.25279,34.12109],[-118.25247,34.12109],[-118.25247,34.12082],[-118.25182,34.1208],[-118.25183,34.12053],[-118.25172,34.12053],[-118.2525,34.12],[-118.25314,34.12001],[-118.25313,34.12028],[-118.25346,34.12029],[-118.25345,34.12056],[-118.25378,34.12056],[-118.25377,34.12111],[-118.25442,34.12112],[-118.25439,34.12247],[-118.25471,34.12247],[-118.25471,34.12274],[-118.25536,34.12275],[-118.25534,34.12356],[-118.25566,34.12357],[-118.25565,34.12411],[-118.25533,34.1241],[-118.25531,34.12465],[-118.25564,34.12465],[-118.25563,34.12492],[-118.25531,34.12492],[-118.25529,34.12573],[-118.25496,34.12572],[-118.25496,34.12599],[-118.25529,34.126],[-118.25527,34.12654],[-118.2556,34.12654],[-118.25559,34.12681],[-118.25527,34.12681],[-118.25526,34.12735],[-118.2546,34.12734],[-118.25459,34.12788],[-118.25427,34.12787],[-118.25426,34.12815],[-118.25394,34.12814],[-118.25393,34.12841],[-118.2536,34.12841],[-118.2536,34.12868],[-118.25295,34.12866],[-118.25293,34.12948],[-118.25261,34.12947],[-118.25261,34.1292],[-118.25229,34.1292],[-118.25228,34.12947],[-118.2513,34.12945],[-118.25129,34.13026],[-118.25031,34.13025],[-118.2503,34.13052],[-118.24998,34.13051],[-118.24997,34.13078],[-118.24965,34.13078],[-118.24965,34.13051],[-118.24933,34.1305],[-118.24932,34.13077],[-118.24802,34.13075],[-118.24802,34.13102],[-118.24737,34.13101],[-118.24736,34.13128],[-118.24703,34.13128],[-118.24703,34.13155],[-118.24443,34.13151],[-118.24442,34.13178],[-118.2428,34.13175],[-118.24279,34.13202],[-118.24246,34.13202],[-118.24243,34.13364],[-118.24275,34.13365],[-118.24275,34.13392],[-118.24242,34.13391],[-118.24241,34.13418],[-118.24209,34.13418],[-118.24208,34.13445],[-118.24176,34.13444],[-118.24175,34.13471],[-118.24208,34.13472],[-118.24207,34.13526],[-118.24174,34.13526],[-118.24174,34.13553],[-118.24141,34.13552],[-118.2414,34.13579],[-118.24173,34.1358],[-118.24172,34.13634],[-118.24139,34.13633],[-118.24138,34.1366],[-118.24106,34.1366],[-118.24105,34.13714],[-118.24007,34.13712],[-118.24007,34.13739],[-118.23974,34.13739],[-118.23973,34.13766],[-118.23908,34.13765],[-118.23907,34.13819],[-118.23875,34.13818],[-118.23874,34.13845],[-118.23776,34.13844],[-118.23776,34.13871],[-118.23711,34.1387],[-118.2371,34.13897],[-118.23678,34.13896],[-118.23677,34.13923],[-118.23612,34.13923],[-118.23611,34.13949],[-118.23546,34.13949],[-118.23546,34.13976],[-118.23448,34.13974],[-118.23448,34.14001],[-118.2348,34.14002],[-118.23478,34.1411],[-118.23445,34.14109],[-118.23443,34.1419],[-118.23411,34.1419],[-118.2341,34.14217],[-118.23378,34.14216],[-118.23377,34.14243],[-118.2341,34.14244],[-118.23409,34.14271],[-118.23377,34.1427],[-118.23375,34.14325],[-118.23343,34.14324],[-118.23342,34.14351],[-118.23375,34.14352],[-118.23374,34.14379],[-118.23342,34.14378],[-118.23341,34.14405],[-118.23373,34.14406],[-118.2337,34.14568],[-118.23337,34.14567],[-118.23337,34.14594],[-118.23369,34.14595],[-118.23369,34.14622],[-118.23336,34.14621],[-118.23336,34.14648],[-118.23303,34.14648],[-118.23301,34.14729],[-118.23269,34.14729],[-118.23267,34.1481],[-118.23234,34.14809],[-118.23234,34.14836],[-118.23266,34.14837],[-118.23263,34.14972],[-118.23296,34.14972],[-118.23294,34.15053],[-118.23391,34.15055],[-118.23391,34.15082],[-118.23456,34.15083],[-118.23455,34.1511],[-118.23488,34.15111],[-118.23487,34.15165],[-118.23552,34.15166],[-118.23551,34.15193],[-118.23584,34.15193],[-118.23582,34.15247],[-118.23615,34.15248],[-118.23616,34.15221],[-118.23713,34.15222],[-118.23713,34.15249],[-118.2381,34.15251],[-118.2381,34.15278],[-118.23875,34.15279],[-118.23874,34.15306],[-118.23906,34.15306],[-118.23906,34.15333],[-118.23938,34.15334],[-118.23938,34.15361],[-118.2397,34.15362],[-118.2397,34.15389],[-118.24035,34.15389],[-118.24032,34.15525],[-118.24064,34.15525],[-118.24064,34.15552],[-118.24096,34.15553],[-118.24096,34.1558],[-118.24128,34.1558],[-118.24127,34.15634],[-118.2416,34.15635],[-118.24158,34.15689],[-118.24191,34.15689],[-118.24188,34.15798],[-118.24221,34.15798],[-118.24217,34.1596],[-118.24185,34.1596],[-118.24184,34.15987],[-118.24347,34.15989],[-118.24348,34.15962],[-118.24478,34.15964],[-118.24478,34.15937],[-118.24511,34.15938],[-118.2451,34.15965],[-118.24543,34.15965],[-118.24542,34.15992],[-118.24672,34.15994],[-118.24673,34.15967],[-118.24738,34.15968],[-118.24737,34.15995],[-118.2477,34.15996],[-118.24769,34.16023],[-118.24834,34.16024],[-118.24834,34.16051],[-118.24899,34.16052],[-118.24898,34.16106],[-118.2493,34.16107],[-118.2493,34.16134],[-118.25027,34.16135],[-118.25026,34.16162],[-118.25092,34.16163],[-118.25091,34.1619],[-118.25156,34.16191],[-118.25155,34.16218],[-118.25188,34.16219],[-118.25187,34.16246],[-118.2522,34.16246],[-118.25221,34.16219],[-118.25253,34.1622],[-118.25254,34.16193],[-118.25286,34.16193],[-118.25286,34.1622],[-118.25351,34.16221],[-118.2535,34.16248],[-118.25415,34.16249],[-118.25414,34.16276],[-118.2548,34.16277],[-118.25479,34.16304],[-118.25642,34.16307],[-118.25642,34.1628],[-118.25675,34.1628],[-118.25675,34.16253],[-118.25805,34.16255],[-118.25805,34.16282],[-118.2587,34.16283],[-118.25871,34.16256],[-118.25903,34.16257],[-118.25902,34.16284],[-118.25968,34.16285],[-118.25966,34.16339],[-118.25999,34.16339],[-118.25998,34.16366],[-118.26063,34.16367],[-118.26063,34.16394],[-118.26095,34.16395],[-118.26094,34.16476],[-118.26289,34.16479],[-118.26288,34.16506],[-118.26386,34.16507],[-118.26385,34.16534],[-118.2645,34.16535],[-118.2645,34.16562],[-118.26482,34.16563],[-118.26482,34.1659],[-118.26514,34.16591],[-118.26513,34.16645],[-118.26546,34.16645],[-118.26545,34.16672],[-118.26577,34.16673],[-118.26576,34.16727],[-118.26609,34.16727],[-118.26608,34.16754],[-118.26641,34.16755],[-118.2664,34.16809],[-118.26672,34.16809],[-118.26671,34.16863],[-118.26703,34.16864],[-118.26702,34.16945],[-118.26734,34.16945],[-118.26734,34.16972],[-118.26766,34.16973],[-118.26765,34.17027],[-118.26797,34.17027],[-118.26797,34.17054],[-118.26927,34.17057],[-118.26928,34.1703],[-118.27025,34.17031],[-118.27025,34.17058],[-118.2709,34.17059],[-118.2709,34.17032],[-118.27123,34.17032],[-118.27122,34.17059],[-118.27155,34.1706],[-118.27154,34.17087],[-118.27252,34.17088],[-118.27252,34.17061],[-118.27415,34.17064],[-118.27415,34.17091],[-118.27447,34.17091],[-118.27446,34.17119],[-118.27511,34.17119],[-118.27511,34.17146],[-118.27641,34.17148],[-118.2764,34.17175],[-118.27706,34.17177],[-118.27705,34.17204],[-118.27738,34.17204],[-118.27736,34.17258],[-118.27769,34.17259],[-118.27768,34.17286],[-118.27833,34.17287],[-118.27833,34.17314],[-118.2793,34.17315],[-118.2793,34.17342],[-118.27995,34.17343],[-118.27994,34.1737],[-118.28027,34.17371],[-118.28026,34.17398],[-118.28124,34.17399],[-118.28123,34.17426],[-118.28156,34.17427],[-118.28155,34.17454],[-118.28188,34.17454],[-118.28187,34.17481],[-118.28252,34.17482],[-118.2825,34.1759],[-118.28282,34.17591],[-118.28282,34.17618],[-118.28314,34.17618],[-118.28313,34.17672],[-118.28346,34.17673],[-118.28344,34.17754],[-118.28377,34.17755],[-118.28375,34.17809],[-118.28408,34.17809],[-118.28406,34.1789],[-118.28439,34.17891],[-118.28437,34.17972],[-118.28404,34.17971],[-118.28404,34.17998],[-118.28436,34.17999],[-118.28435,34.18053],[-118.285,34.18054],[-118.285,34.18081],[-118.28532,34.18081],[-118.28531,34.18109],[-118.28597,34.18109],[-118.28595,34.18163],[-118.28628,34.18164],[-118.28627,34.18218],[-118.28659,34.18219],[-118.28659,34.18246],[-118.28691,34.18246],[-118.28691,34.18273],[-118.28723,34.18274],[-118.28722,34.18355],[-118.28754,34.18355],[-118.28753,34.18382],[-118.28884,34.18384],[-118.28884,34.18357],[-118.28949,34.18358],[-118.2895,34.18331],[-118.28982,34.18332],[-118.28982,34.18359],[-118.29079,34.1836],[-118.29079,34.18379],[-118.28994,34.18461],[-118.29006,34.18468],[-118.28967,34.18521],[-118.28946,34.1852]]],[[[-118.27713,34.15364],[-118.2768,34.15364],[-118.27679,34.15418],[-118.27646,34.15418],[-118.27645,34.15472],[-118.27678,34.15472],[-118.27677,34.15499],[-118.27742,34.155],[-118.27742,34.15527],[-118.27774,34.15528],[-118.27773,34.15582],[-118.27805,34.15582],[-118.27804,34.15636],[-118.27837,34.15637],[-118.27836,34.15664],[-118.27869,34.15664],[-118.27868,34.15691],[-118.27901,34.15692],[-118.279,34.15719],[-118.27965,34.1572],[-118.27965,34.15747],[-118.28062,34.15749],[-118.28062,34.15776],[-118.28127,34.15776],[-118.28126,34.15803],[-118.28224,34.15805],[-118.28223,34.15832],[-118.28256,34.15832],[-118.28256,34.15805],[-118.28321,34.15807],[-118.28321,34.15834],[-118.28483,34.15836],[-118.28483,34.15863],[-118.2858,34.15864],[-118.28581,34.15837],[-118.28678,34.15839],[-118.28678,34.15866],[-118.2871,34.15866],[-118.2871,34.15893],[-118.28742,34.15894],[-118.28743,34.15867],[-118.28808,34.15868],[-118.28809,34.15841],[-118.29004,34.15844],[-118.29003,34.15898],[-118.29035,34.15898],[-118.29035,34.15925],[-118.29067,34.15926],[-118.29067,34.15953],[-118.29099,34.15953],[-118.29097,34.16034],[-118.29162,34.16035],[-118.29163,34.16008],[-118.29196,34.16009],[-118.29194,34.1609],[-118.29291,34.16092],[-118.29291,34.16119],[-118.29323,34.16119],[-118.29323,34.16146],[-118.29388,34.16147],[-118.29387,34.16201],[-118.29419,34.16202],[-118.29419,34.16229],[-118.29549,34.16231],[-118.29549,34.16204],[-118.29582,34.16204],[-118.29581,34.16231],[-118.29614,34.16231],[-118.29614,34.16204],[-118.29744,34.16206],[-118.29744,34.16233],[-118.29809,34.16234],[-118.2981,34.16207],[-118.29907,34.16209],[-118.29908,34.16182],[-118.2994,34.16182],[-118.29941,34.16155],[-118.29973,34.16156],[-118.29975,34.16102],[-118.30007,34.16102],[-118.30008,34.16075],[-118.3004,34.16076],[-118.3004,34.16103],[-118.30137,34.16104],[-118.30138,34.16077],[-118.303,34.1608],[-118.30301,34.16052],[-118.30366,34.16053],[-118.30367,34.16026],[-118.30399,34.16027],[-118.304,34.16],[-118.30432,34.16],[-118.30433,34.15973],[-118.30498,34.15974],[-118.30499,34.15931],[-118.30596,34.16003],[-118.30594,34.16057],[-118.30561,34.16056],[-118.30561,34.16083],[-118.30496,34.16082],[-118.30495,34.16109],[-118.30463,34.16109],[-118.30463,34.16082],[-118.30431,34.16081],[-118.30429,34.16136],[-118.30364,34.16134],[-118.30364,34.16162],[-118.30331,34.16161],[-118.30331,34.16188],[-118.30266,34.16187],[-118.30265,34.16214],[-118.30232,34.16214],[-118.30233,34.16187],[-118.30201,34.16186],[-118.302,34.16213],[-118.30168,34.16213],[-118.30168,34.16186],[-118.30136,34.16185],[-118.30135,34.16212],[-118.3007,34.16211],[-118.30069,34.16238],[-118.30004,34.16237],[-118.30004,34.16264],[-118.29939,34.16263],[-118.29938,34.1629],[-118.29873,34.16289],[-118.29872,34.16316],[-118.2984,34.16316],[-118.29839,34.16343],[-118.29774,34.16342],[-118.29775,34.16315],[-118.29645,34.16313],[-118.29644,34.1634],[-118.29612,34.1634],[-118.29612,34.16313],[-118.29579,34.16312],[-118.29579,34.16339],[-118.29481,34.16338],[-118.29482,34.16311],[-118.29384,34.16309],[-118.29385,34.16282],[-118.29352,34.16282],[-118.29353,34.16255],[-118.29288,34.16254],[-118.29289,34.162],[-118.29224,34.16199],[-118.29225,34.16172],[-118.29192,34.16171],[-118.29191,34.16198],[-118.29159,34.16198],[-118.2916,34.16171],[-118.29094,34.1617],[-118.29095,34.16143],[-118.29063,34.16142],[-118.29063,34.16115],[-118.28998,34.16114],[-118.28999,34.16087],[-118.28966,34.16087],[-118.28967,34.16033],[-118.28935,34.16032],[-118.28937,34.15924],[-118.28839,34.15922],[-118.28839,34.15949],[-118.28806,34.15949],[-118.28806,34.15976],[-118.28676,34.15974],[-118.28676,34.15947],[-118.28611,34.15946],[-118.28611,34.15973],[-118.28578,34.15973],[-118.28579,34.15946],[-118.28481,34.15944],[-118.28482,34.15917],[-118.28286,34.15914],[-118.28287,34.15887],[-118.28254,34.15887],[-118.28254,34.15914],[-118.28156,34.15912],[-118.28157,34.15885],[-118.28059,34.15884],[-118.2806,34.1583],[-118.27963,34.15828],[-118.27963,34.15801],[-118.27898,34.158],[-118.27899,34.15773],[-118.27834,34.15772],[-118.27835,34.15745],[-118.27802,34.15745],[-118.27802,34.15718],[-118.2777,34.15717],[-118.27771,34.1569],[-118.27738,34.15689],[-118.27739,34.15635],[-118.27707,34.15635],[-118.27708,34.15581],[-118.27675,34.1558],[-118.27676,34.15553],[-118.27578,34.15552],[-118.2758,34.15471],[-118.27548,34.1547],[-118.27549,34.15416],[-118.27581,34.15417],[-118.27583,34.15335],[-118.2755,34.15335],[-118.27551,34.15308],[-118.2756,34.15324],[-118.27714,34.15323],[-118.27713,34.15364]]]]}},{"type":"Feature","properties":{"level":2,"label":"High fire hazard severity zone"},"geometry":{"type":"MultiPolygon","coordinates":[[[[-118.26597,34.24651],[-118.26596,34.24678],[-118.26564,34.24677],[-118.26565,34.2465],[-118.26532,34.2465],[-118.26533,34.24623],[-118.265,34.24623],[-118.26499,34.2465],[-118.26402,34.24648],[-118.26402,34.24621],[-118.26337,34.2462],[-118.26336,34.24647],[-118.26304,34.24647],[-118.26305,34.2462],[-118.26272,34.24619],[-118.26273,34.24592],[-118.26175,34.24591],[-118.26175,34.24563],[-118.26143,34.24563],[-118.26144,34.24536],[-118.26013,34.24534],[-118.26014,34.24507],[-118.25916,34.24505],[-118.25917,34.24478],[-118.25754,34.24476],[-118.25755,34.24422],[-118.25723,34.24421],[-118.25724,34.2434],[-118.25692,34.2434],[-118.25692,34.24313],[-118.2566,34.24312],[-118.2566,34.24285],[-118.25628,34.24285],[-118.25629,34.24231],[-118.25596,34.2423],[-118.25597,34.24203],[-118.25467,34.24201],[-118.25467,34.24174],[-118.25402,34.24173],[-118.25403,34.24146],[-118.25305,34.24144],[-118.25306,34.24117],[-118.25241,34.24117],[-118.25241,34.24089],[-118.25274,34.2409],[-118.25277,34.23955],[-118.25212,34.23954],[-118.25215,34.23819],[-118.25247,34.23819],[-118.25248,34.23792],[-118.25215,34.23792],[-118.25216,34.23738],[-118.25184,34.23737],[-118.25184,34.2371],[-118.25152,34.23709],[-118.25154,34.23628],[-118.25121,34.23628],[-118.25122,34.23601],[-118.25057,34.236],[-118.25057,34.23573],[-118.24992,34.23572],[-118.24993,34.23545],[-118.24927,34.23544],[-118.24928,34.23517],[-118.24864,34.23516],[-118.24865,34.23326],[-118.249,34.23327],[-118.24899,34.23354],[-118.24997,34.23356],[-118.24996,34.2341],[-118.25028,34.2341],[-118.25028,34.23437],[-118.25125,34.23439],[-118.25125,34.23466],[-118.25222,34.23467],[-118.25222,34.23494],[-118.25287,34.23495],[-118.25286,34.23522],[-118.25319,34.23523],[-118.25316,34.23631],[-118.25349,34.23631],[-118.25348,34.23658],[-118.25381,34.23659],[-118.25379,34.2374],[-118.25412,34.23741],[-118.25411,34.23768],[-118.25444,34.23768],[-118.25443,34.23795],[-118.25411,34.23795],[-118.25409,34.23849],[-118.25409,34.23876],[-118.25441,34.23876],[-118.25441,34.23903],[-118.25408,34.23903],[-118.25408,34.2393],[-118.2544,34.2393],[-118.2544,34.23957],[-118.25472,34.23958],[-118.25471,34.24012],[-118.25504,34.24012],[-118.25503,34.24039],[-118.25568,34.2404],[-118.25567,34.24067],[-118.25665,34.24069],[-118.25665,34.24096],[-118.25697,34.24096],[-118.25696,34.24123],[-118.25729,34.24124],[-118.25728,34.24151],[-118.25761,34.24151],[-118.2576,34.24179],[-118.25793,34.24179],[-118.25792,34.24206],[-118.25825,34.24206],[-118.25824,34.24234],[-118.25889,34.24235],[-118.25888,34.24289],[-118.25921,34.24289],[-118.2592,34.24316],[-118.25953,34.24317],[-118.25952,34.24344],[-118.26017,34.24345],[-118.26017,34.24372],[-118.26082,34.24373],[-118.26081,34.244],[-118.26114,34.244],[-118.26114,34.24373],[-118.26147,34.24374],[-118.26147,34.24401],[-118.26244,34.24402],[-118.26244,34.24429],[-118.26309,34.2443],[-118.26308,34.24457],[-118.26536,34.24461],[-118.26535,34.24488],[-118.26603,34.24489],[-118.26607,34.24651],[-118.26597,34.24651]]],[[[-118.22584,34.20587],[-118.22569,34.20587],[-118.22572,34.20575],[-118.22551,34.20572],[-118.22553,34.20505],[-118.22585,34.20506],[-118.22586,34.20479],[-118.22619,34.20479],[-118.22619,34.20452],[-118.22652,34.20453],[-118.22652,34.20426],[-118.22685,34.20426],[-118.22686,34.20399],[-118.22718,34.204],[-118.22719,34.20373],[-118.22784,34.20374],[-118.22784,34.20347],[-118.22817,34.20347],[-118.22818,34.20293],[-118.22851,34.20293],[-118.22851,34.20266],[-118.22884,34.20267],[-118.22885,34.2024],[-118.22917,34.2024],[-118.22918,34.20186],[-118.22951,34.20187],[-118.22954,34.20025],[-118.22987,34.20025],[-118.22994,34.19728],[-118.23026,34.19728],[-118.23028,34.19647],[-118.23061,34.19648],[-118.23061,34.19621],[-118.23029,34.1962],[-118.23029,34.19593],[-118.23062,34.19594],[-118.23062,34.19566],[-118.2303,34.19566],[-118.23031,34.19512],[-118.23064,34.19512],[-118.23066,34.19404],[-118.23099,34.19405],[-118.23098,34.19432],[-118.23163,34.19433],[-118.23162,34.1946],[-118.23195,34.1946],[-118.23194,34.19488],[-118.23227,34.19488],[-118.23226,34.19515],[-118.23259,34.19515],[-118.23258,34.19543],[-118.23291,34.19543],[-118.23288,34.19651],[-118.23256,34.19651],[-118.23255,34.19678],[-118.23288,34.19678],[-118.23287,34.19705],[-118.2332,34.19706],[-118.23318,34.19787],[-118.2335,34.19787],[-118.23349,34.19841],[-118.23414,34.19842],[-118.23414,34.1987],[-118.23446,34.1987],[-118.23446,34.19897],[-118.23511,34.19898],[-118.2351,34.19925],[-118.23543,34.19926],[-118.23543,34.19899],[-118.23576,34.19899],[-118.23575,34.19926],[-118.23608,34.19927],[-118.23604,34.20116],[-118.23636,34.20116],[-118.23636,34.20143],[-118.23603,34.20143],[-118.23602,34.20197],[-118.23667,34.20198],[-118.23664,34.20306],[-118.23697,34.20307],[-118.23696,34.20361],[-118.23663,34.2036],[-118.23663,34.20387],[-118.23695,34.20388],[-118.23695,34.20415],[-118.23662,34.20414],[-118.23661,34.20441],[-118.23694,34.20442],[-118.23693,34.20469],[-118.23661,34.20468],[-118.2366,34.20495],[-118.23628,34.20495],[-118.23627,34.20522],[-118.2366,34.20522],[-118.23659,34.20549],[-118.23692,34.2055],[-118.2369,34.20604],[-118.23658,34.20603],[-118.23657,34.20631],[-118.2369,34.20631],[-118.23689,34.20658],[-118.23722,34.20658],[-118.23721,34.20713],[-118.23753,34.20713],[-118.23752,34.2074],[-118.23785,34.20741],[-118.23784,34.20768],[-118.23817,34.20768],[-118.23816,34.20795],[-118.23849,34.20796],[-118.23848,34.20823],[-118.23881,34.20823],[-118.23877,34.21012],[-118.23909,34.21013],[-118.23909,34.2104],[-118.23941,34.21041],[-118.23941,34.21068],[-118.23973,34.21068],[-118.23972,34.21122],[-118.24004,34.21123],[-118.24004,34.2115],[-118.24036,34.2115],[-118.24036,34.21177],[-118.24068,34.21178],[-118.24068,34.21205],[-118.241,34.21205],[-118.241,34.21232],[-118.24132,34.21233],[-118.24132,34.2126],[-118.24197,34.21261],[-118.24196,34.21288],[-118.24229,34.21288],[-118.24228,34.21315],[-118.24261,34.21316],[-118.2426,34.21343],[-118.24293,34.21343],[-118.24291,34.21397],[-118.24324,34.21398],[-118.24323,34.21452],[-118.24388,34.21453],[-118.24387,34.2148],[-118.2442,34.21481],[-118.24419,34.21508],[-118.24452,34.21508],[-118.24451,34.21562],[-118.24516,34.21563],[-118.24514,34.21617],[-118.24612,34.21619],[-118.24612,34.21646],[-118.24677,34.21647],[-118.24676,34.21674],[-118.24774,34.21675],[-118.24773,34.21702],[-118.24806,34.21703],[-118.24804,34.21757],[-118.24772,34.21757],[-118.24769,34.21892],[-118.24801,34.21892],[-118.24801,34.21919],[-118.24833,34.2192],[-118.24832,34.22001],[-118.24864,34.22001],[-118.24863,34.22055],[-118.24895,34.22056],[-118.24895,34.22083],[-118.24927,34.22083],[-118.24927,34.2211],[-118.24959,34.22111],[-118.24959,34.22138],[-118.24991,34.22138],[-118.2499,34.22192],[-118.25023,34.22193],[-118.25023,34.22166],[-118.25056,34.22167],[-118.25055,34.22221],[-118.2512,34.22222],[-118.25119,34.22249],[-118.25152,34.22249],[-118.25149,34.22357],[-118.25182,34.22358],[-118.25181,34.22412],[-118.25213,34.22412],[-118.25213,34.22439],[-118.25343,34.22441],[-118.25341,34.22522],[-118.25374,34.22523],[-118.25373,34.2255],[-118.25438,34.22551],[-118.25438,34.22578],[-118.25503,34.22579],[-118.25502,34.22606],[-118.25567,34.22607],[-118.25567,34.22634],[-118.25697,34.22636],[-118.25696,34.22663],[-118.25729,34.22664],[-118.25728,34.22691],[-118.25761,34.22691],[-118.2576,34.22718],[-118.25793,34.22719],[-118.25792,34.22746],[-118.25857,34.22747],[-118.25857,34.22774],[-118.25987,34.22776],[-118.25986,34.22803],[-118.26019,34.22803],[-118.26018,34.22857],[-118.25985,34.22857],[-118.25984,34.22884],[-118.26017,34.22884],[-118.26015,34.22965],[-118.26048,34.22966],[-118.26047,34.22993],[-118.26112,34.22994],[-118.26112,34.23021],[-118.26177,34.23022],[-118.26176,34.23049],[-118.26209,34.23049],[-118.26208,34.23076],[-118.26306,34.23078],[-118.26305,34.23105],[-118.26403,34.23107],[-118.26403,34.23134],[-118.26435,34.23134],[-118.26434,34.23161],[-118.26467,34.23162],[-118.26465,34.23243],[-118.26498,34.23243],[-118.26497,34.2327],[-118.2653,34.23271],[-118.26529,34.23298],[-118.26562,34.23298],[-118.2656,34.23352],[-118.26593,34.23353],[-118.26592,34.2338],[-118.26658,34.23381],[-118.26657,34.23408],[-118.26624,34.23407],[-118.26624,34.23434],[-118.26679,34.23435],[-118.26679,34.2357],[-118.26621,34.2357],[-118.26622,34.23543],[-118.26556,34.23542],[-118.26557,34.23515],[-118.26524,34.23514],[-118.26526,34.2346],[-118.26493,34.23459],[-118.26494,34.23432],[-118.26429,34.23432],[-118.26429,34.23404],[-118.26396,34.23404],[-118.26397,34.23377],[-118.26364,34.23376],[-118.26366,34.23322],[-118.26333,34.23322],[-118.26335,34.23241],[-118.26302,34.2324],[-118.26303,34.23213],[-118.26238,34.23212],[-118.26238,34.23185],[-118.26141,34.23184],[-118.26141,34.23157],[-118.26076,34.23156],[-118.26077,34.23129],[-118.26012,34.23128],[-118.26012,34.23101],[-118.25947,34.231],[-118.25948,34.23073],[-118.25915,34.23072],[-118.25916,34.23018],[-118.25884,34.23018],[-118.25886,34.22936],[-118.25853,34.22936],[-118.25854,34.22909],[-118.25821,34.22908],[-118.25822,34.22881],[-118.25757,34.2288],[-118.25757,34.22853],[-118.25725,34.22853],[-118.25725,34.22826],[-118.2566,34.22825],[-118.25661,34.22798],[-118.25628,34.22797],[-118.25629,34.2277],[-118.25596,34.2277],[-118.25597,34.22743],[-118.25499,34.22741],[-118.255,34.22714],[-118.25467,34.22714],[-118.25468,34.22687],[-118.2537,34.22685],[-118.25371,34.22658],[-118.25338,34.22658],[-118.25339,34.22631],[-118.25306,34.2263],[-118.25307,34.22603],[-118.25274,34.22602],[-118.25275,34.22548],[-118.25145,34.22546],[-118.25146,34.22519],[-118.25113,34.22519],[-118.25114,34.22465],[-118.25082,34.22464],[-118.25082,34.22437],[-118.2505,34.22437],[-118.25051,34.2241],[-118.25018,34.22409],[-118.25019,34.22355],[-118.24986,34.22355],[-118.24988,34.22301],[-118.24923,34.223],[-118.24923,34.22273],[-118.24891,34.22272],[-118.24892,34.22218],[-118.24859,34.22218],[-118.2486,34.22163],[-118.24828,34.22163],[-118.24829,34.22136],[-118.24763,34.22135],[-118.24764,34.22108],[-118.24732,34.22107],[-118.24733,34.22026],[-118.24701,34.22026],[-118.24702,34.21972],[-118.24669,34.21971],[-118.2467,34.21944],[-118.24637,34.21944],[-118.24639,34.2189],[-118.24606,34.21889],[-118.24609,34.21754],[-118.24577,34.21753],[-118.24577,34.21726],[-118.24447,34.21724],[-118.24447,34.21697],[-118.24415,34.21697],[-118.24416,34.21643],[-118.24351,34.21642],[-118.24352,34.21615],[-118.24319,34.21614],[-118.2432,34.21587],[-118.24287,34.21587],[-118.24289,34.21506],[-118.24191,34.21504],[-118.24192,34.2145],[-118.2416,34.2145],[-118.24161,34.21422],[-118.24128,34.21422],[-118.24129,34.21368],[-118.24097,34.21368],[-118.24097,34.2134],[-118.24065,34.2134],[-118.24065,34.21313],[-118.24033,34.21312],[-118.24033,34.21285],[-118.23968,34.21284],[-118.23969,34.2123],[-118.23904,34.21229],[-118.23905,34.21202],[-118.2384,34.21201],[-118.23841,34.21147],[-118.23808,34.21147],[-118.2381,34.21093],[-118.23777,34.21092],[-118.23778,34.21038],[-118.23746,34.21037],[-118.23748,34.20929],[-118.23716,34.20929],[-118.23717,34.20875],[-118.23684,34.20874],[-118.23685,34.20847],[-118.23652,34.20847],[-118.23654,34.20793],[-118.23588,34.20792],[-118.23591,34.20684],[-118.23526,34.20683],[-118.23527,34.20629],[-118.23494,34.20628],[-118.23495,34.20601],[-118.23528,34.20601],[-118.23528,34.20574],[-118.23496,34.20574],[-118.23498,34.20493],[-118.2353,34.20493],[-118.23532,34.20385],[-118.23565,34.20386],[-118.23566,34.20332],[-118.23534,34.20331],[-118.23535,34.2025],[-118.23503,34.20249],[-118.23503,34.20222],[-118.23471,34.20222],[-118.23474,34.20087],[-118.23507,34.20087],[-118.23507,34.2006],[-118.23475,34.2006],[-118.23476,34.20006],[-118.23378,34.20004],[-118.23379,34.19977],[-118.23314,34.19976],[-118.23314,34.19949],[-118.23282,34.19949],[-118.23282,34.19922],[-118.2325,34.19921],[-118.23252,34.1984],[-118.23219,34.19839],[-118.2322,34.19812],[-118.23187,34.19812],[-118.23188,34.19785],[-118.23155,34.19784],[-118.23155,34.19811],[-118.23122,34.19811],[-118.23119,34.19946],[-118.23086,34.19946],[-118.23085,34.2],[-118.23118,34.2],[-118.23117,34.20054],[-118.23084,34.20054],[-118.23083,34.20081],[-118.23116,34.20081],[-118.23114,34.20162],[-118.23082,34.20162],[-118.23081,34.20189],[-118.23113,34.20189],[-118.23113,34.20216],[-118.2308,34.20216],[-118.2308,34.20243],[-118.23047,34.20242],[-118.23046,34.20296],[-118.23013,34.20296],[-118.23013,34.20323],[-118.2298,34.20323],[-118.2298,34.2035],[-118.22915,34.20349],[-118.22914,34.20376],[-118.22881,34.20375],[-118.22881,34.20402],[-118.22848,34.20402],[-118.22848,34.20429],[-118.22815,34.20428],[-118.22814,34.20455],[-118.22782,34.20455],[-118.22781,34.20482],[-118.22749,34.20481],[-118.22748,34.20508],[-118.22716,34.20508],[-118.22713,34.20616],[-118.22746,34.20616],[-118.22745,34.20656],[-118.22582,34.20642],[-118.22584,34.20587]]],[[[-118.28845,34.18654],[-118.28845,34.18681],[-118.28649,34.18678],[-118.2865,34.18651],[-118.2852,34.18649],[-118.28521,34.18595],[-118.28488,34.18595],[-118.28489,34.18568],[-118.28424,34.18567],[-118.28425,34.18512],[-118.28392,34.18512],[-118.28394,34.18431],[-118.28362,34.18431],[-118.28364,34.18349],[-118.28298,34.18348],[-118.283,34.18294],[-118.28267,34.18294],[-118.28268,34.1824],[-118.28203,34.18239],[-118.28204,34.18212],[-118.28171,34.18211],[-118.28172,34.18184],[-118.28107,34.18183],[-118.28107,34.18156],[-118.2814,34.18157],[-118.28142,34.18048],[-118.2811,34.18048],[-118.28111,34.17967],[-118.28079,34.17966],[-118.28079,34.17939],[-118.28047,34.17939],[-118.28048,34.17885],[-118.28016,34.17884],[-118.28017,34.17803],[-118.27985,34.17803],[-118.27986,34.17749],[-118.27953,34.17748],[-118.27954,34.17721],[-118.27921,34.17721],[-118.27923,34.17667],[-118.27858,34.17666],[-118.27858,34.17639],[-118.27793,34.17638],[-118.27794,34.1761],[-118.27761,34.1761],[-118.27762,34.17583],[-118.27632,34.17581],[-118.27632,34.17554],[-118.276,34.17554],[-118.276,34.17527],[-118.27568,34.17526],[-118.27568,34.17499],[-118.27536,34.17498],[-118.27536,34.17471],[-118.27504,34.17471],[-118.27504,34.17444],[-118.27407,34.17442],[-118.27407,34.17415],[-118.2731,34.17414],[-118.2731,34.17387],[-118.27278,34.17386],[-118.27278,34.17359],[-118.27246,34.17359],[-118.27245,34.17386],[-118.27083,34.17383],[-118.27083,34.17356],[-118.2692,34.17354],[-118.2692,34.17381],[-118.26757,34.17379],[-118.26757,34.17406],[-118.26366,34.174],[-118.26367,34.17373],[-118.26432,34.17374],[-118.26433,34.17319],[-118.26466,34.1732],[-118.26467,34.17266],[-118.26499,34.17266],[-118.26502,34.17131],[-118.2647,34.17131],[-118.26472,34.17023],[-118.26407,34.17022],[-118.26408,34.16994],[-118.2644,34.16995],[-118.26441,34.16968],[-118.26408,34.16967],[-118.26409,34.1694],[-118.26376,34.1694],[-118.26377,34.16886],[-118.2641,34.16886],[-118.26411,34.16859],[-118.26378,34.16859],[-118.26379,34.16832],[-118.26346,34.16831],[-118.26347,34.16804],[-118.26314,34.16804],[-118.26315,34.16777],[-118.2625,34.16776],[-118.26251,34.16722],[-118.26153,34.1672],[-118.26154,34.16693],[-118.26121,34.16693],[-118.26122,34.16666],[-118.25959,34.16663],[-118.2596,34.16636],[-118.25895,34.16635],[-118.25895,34.16608],[-118.25863,34.16608],[-118.25864,34.16553],[-118.25831,34.16553],[-118.25833,34.16499],[-118.258,34.16499],[-118.25801,34.16471],[-118.25606,34.16468],[-118.25605,34.16495],[-118.2554,34.16495],[-118.2554,34.16467],[-118.25475,34.16466],[-118.25475,34.16493],[-118.25442,34.16493],[-118.25443,34.16466],[-118.25378,34.16465],[-118.25378,34.16438],[-118.25313,34.16437],[-118.25314,34.1641],[-118.25281,34.16409],[-118.25281,34.16436],[-118.25053,34.16433],[-118.25054,34.16406],[-118.24989,34.16405],[-118.24989,34.16378],[-118.24957,34.16377],[-118.24957,34.1635],[-118.24925,34.1635],[-118.24924,34.16377],[-118.24891,34.16376],[-118.24893,34.16322],[-118.24795,34.16321],[-118.24796,34.16267],[-118.24699,34.16265],[-118.24699,34.16238],[-118.24634,34.16237],[-118.24634,34.16264],[-118.24536,34.16263],[-118.24537,34.16236],[-118.24472,34.16235],[-118.24472,34.16208],[-118.2444,34.16207],[-118.2444,34.1618],[-118.24408,34.1618],[-118.24407,34.16207],[-118.24309,34.16205],[-118.24309,34.16232],[-118.24211,34.16231],[-118.24211,34.16258],[-118.24113,34.16256],[-118.24112,34.16283],[-118.24047,34.16282],[-118.24047,34.16309],[-118.24014,34.16309],[-118.24013,34.16363],[-118.23981,34.16362],[-118.23981,34.16335],[-118.23949,34.16335],[-118.23949,34.16308],[-118.23852,34.16306],[-118.23853,34.16252],[-118.23885,34.16253],[-118.23888,34.16118],[-118.23856,34.16117],[-118.23856,34.1609],[-118.23889,34.1609],[-118.2389,34.16036],[-118.23923,34.16037],[-118.23924,34.15983],[-118.23956,34.15983],[-118.23958,34.15929],[-118.23925,34.15929],[-118.23926,34.15902],[-118.23958,34.15902],[-118.23959,34.15875],[-118.23926,34.15875],[-118.23927,34.15848],[-118.23959,34.15848],[-118.23962,34.1574],[-118.23929,34.1574],[-118.2393,34.15713],[-118.23897,34.15712],[-118.23899,34.15658],[-118.23866,34.15657],[-118.23867,34.1563],[-118.23834,34.1563],[-118.23835,34.15603],[-118.23802,34.15602],[-118.23803,34.15575],[-118.2377,34.15575],[-118.23771,34.15548],[-118.23803,34.15548],[-118.23804,34.15521],[-118.23772,34.15521],[-118.23772,34.15494],[-118.23707,34.15493],[-118.23708,34.15466],[-118.23675,34.15465],[-118.23675,34.15492],[-118.2361,34.15491],[-118.23611,34.15437],[-118.23546,34.15436],[-118.23546,34.15409],[-118.23514,34.15409],[-118.23513,34.15436],[-118.23448,34.15435],[-118.23448,34.15462],[-118.23415,34.15461],[-118.23416,34.15434],[-118.23383,34.15434],[-118.23384,34.1538],[-118.23352,34.15379],[-118.23353,34.15325],[-118.2332,34.15324],[-118.23322,34.1527],[-118.23289,34.1527],[-118.2329,34.15243],[-118.23225,34.15242],[-118.23225,34.15215],[-118.23128,34.15213],[-118.23129,34.15159],[-118.22934,34.15156],[-118.22935,34.15102],[-118.23,34.15103],[-118.23002,34.15022],[-118.23034,34.15022],[-118.23036,34.14968],[-118.23068,34.14969],[-118.23069,34.14915],[-118.23037,34.14914],[-118.23037,34.14887],[-118.22972,34.14886],[-118.22974,34.14832],[-118.23006,34.14833],[-118.23007,34.14806],[-118.23039,34.14806],[-118.2304,34.14752],[-118.23008,34.14752],[-118.23008,34.14724],[-118.23041,34.14725],[-118.23042,34.14671],[-118.23075,34.14672],[-118.23076,34.14617],[-118.23108,34.14618],[-118.2311,34.14537],[-118.23143,34.14537],[-118.23144,34.14483],[-118.23176,34.14484],[-118.23178,34.14403],[-118.23146,34.14402],[-118.23146,34.14375],[-118.23179,34.14376],[-118.2318,34.14348],[-118.23147,34.14348],[-118.2315,34.14213],[-118.23118,34.14212],[-118.23119,34.14131],[-118.23152,34.14132],[-118.23153,34.14105],[-118.23185,34.14105],[-118.23186,34.14078],[-118.23218,34.14079],[-118.23219,34.14052],[-118.23251,34.14052],[-118.23252,34.14025],[-118.23219,34.14025],[-118.23224,34.13808],[-118.23289,34.13809],[-118.2329,34.13782],[-118.23322,34.13783],[-118.23322,34.1381],[-118.23354,34.1381],[-118.23355,34.13783],[-118.2342,34.13784],[-118.23421,34.13757],[-118.23453,34.13758],[-118.23454,34.13731],[-118.23519,34.13732],[-118.2352,34.13678],[-118.23552,34.13678],[-118.23552,34.13705],[-118.23584,34.13706],[-118.23585,34.13679],[-118.23683,34.1368],[-118.23683,34.13653],[-118.23748,34.13654],[-118.23749,34.13627],[-118.23781,34.13628],[-118.23782,34.13601],[-118.23815,34.13601],[-118.23815,34.13574],[-118.23848,34.13575],[-118.23848,34.13547],[-118.23913,34.13549],[-118.23914,34.13522],[-118.23946,34.13522],[-118.23948,34.13468],[-118.2398,34.13468],[-118.23982,34.1336],[-118.24015,34.13361],[-118.24016,34.13334],[-118.23983,34.13333],[-118.23987,34.13171],[-118.24019,34.13171],[-118.2402,34.13144],[-118.23987,34.13144],[-118.2399,34.13036],[-118.24022,34.13036],[-118.24024,34.12955],[-118.24057,34.12956],[-118.24057,34.12929],[-118.24025,34.12928],[-118.24025,34.12901],[-118.24155,34.12903],[-118.24155,34.1293],[-118.24285,34.12932],[-118.24286,34.12905],[-118.24318,34.12906],[-118.2432,34.12824],[-118.24352,34.12825],[-118.24353,34.12798],[-118.24515,34.12801],[-118.24515,34.12828],[-118.24743,34.12831],[-118.24742,34.12858],[-118.2484,34.1286],[-118.2484,34.12832],[-118.24873,34.12833],[-118.24873,34.12806],[-118.24938,34.12807],[-118.24939,34.1278],[-118.24971,34.1278],[-118.24973,34.12726],[-118.25005,34.12727],[-118.25005,34.12754],[-118.25102,34.12755],[-118.25103,34.12728],[-118.25168,34.12729],[-118.25168,34.12702],[-118.25233,34.12703],[-118.25234,34.12676],[-118.25266,34.12677],[-118.25269,34.12569],[-118.25236,34.12568],[-118.25237,34.12541],[-118.2527,34.12542],[-118.2527,34.12515],[-118.25335,34.12516],[-118.25337,34.12412],[-118.25365,34.1233],[-118.2518,34.12157],[-118.25181,34.12134],[-118.25157,34.12134],[-118.25114,34.12094],[-118.25172,34.12053],[-118.25183,34.12053],[-118.25182,34.1208],[-118.25247,34.12082],[-118.25247,34.12109],[-118.25279,34.12109],[-118.25277,34.1219],[-118.2531,34.12191],[-118.25309,34.12218],[-118.25342,34.12218],[-118.25341,34.12245],[-118.25374,34.12246],[-118.25373,34.123],[-118.25405,34.123],[-118.25404,34.12327],[-118.25437,34.12328],[-118.25436,34.12382],[-118.25468,34.12382],[-118.25468,34.12409],[-118.25435,34.12409],[-118.25432,34.12571],[-118.25399,34.12571],[-118.25397,34.12679],[-118.25364,34.12678],[-118.25363,34.12732],[-118.2533,34.12732],[-118.2533,34.12759],[-118.25297,34.12758],[-118.25297,34.12785],[-118.25232,34.12784],[-118.25231,34.12812],[-118.25199,34.12811],[-118.25198,34.12838],[-118.25165,34.12837],[-118.25165,34.12864],[-118.25035,34.12863],[-118.25034,34.1289],[-118.25002,34.12889],[-118.25,34.12943],[-118.24968,34.12943],[-118.24967,34.1297],[-118.24837,34.12968],[-118.24837,34.12995],[-118.24576,34.12991],[-118.24578,34.1291],[-118.24481,34.12908],[-118.24479,34.12962],[-118.24512,34.12963],[-118.24511,34.13017],[-118.24478,34.13016],[-118.24478,34.13043],[-118.24445,34.13043],[-118.24444,34.1307],[-118.24249,34.13067],[-118.2425,34.1304],[-118.2412,34.13038],[-118.24119,34.13092],[-118.24086,34.13091],[-118.24085,34.13118],[-118.24118,34.13119],[-118.24117,34.13146],[-118.2415,34.13146],[-118.24149,34.13173],[-118.24117,34.13173],[-118.24116,34.132],[-118.24084,34.132],[-118.24083,34.13227],[-118.24116,34.13227],[-118.24114,34.13308],[-118.24146,34.13309],[-118.24145,34.13363],[-118.24113,34.13362],[-118.24112,34.13389],[-118.2408,34.13389],[-118.24076,34.13524],[-118.24044,34.13524],[-118.24042,34.13605],[-118.2401,34.13604],[-118.24009,34.13631],[-118.23911,34.1363],[-118.23911,34.13657],[-118.23878,34.13656],[-118.23878,34.13683],[-118.23813,34.13682],[-118.23812,34.13709],[-118.23845,34.1371],[-118.23844,34.13737],[-118.23779,34.13736],[-118.23778,34.13763],[-118.23681,34.13761],[-118.2368,34.13788],[-118.23615,34.13787],[-118.23614,34.13814],[-118.23582,34.13814],[-118.23581,34.13841],[-118.23484,34.13839],[-118.23483,34.13893],[-118.23353,34.13891],[-118.23352,34.13918],[-118.23319,34.13918],[-118.23318,34.13972],[-118.23351,34.13972],[-118.2335,34.14],[-118.23383,34.14],[-118.23381,34.14081],[-118.23348,34.14081],[-118.23348,34.14108],[-118.23283,34.14107],[-118.23282,34.14134],[-118.2325,34.14133],[-118.23248,34.14187],[-118.23216,34.14187],[-118.23215,34.14214],[-118.23248,34.14214],[-118.23246,34.14268],[-118.23279,34.14269],[-118.23278,34.14296],[-118.23246,34.14296],[-118.23245,34.1435],[-118.23277,34.1435],[-118.23277,34.14377],[-118.23244,34.14377],[-118.23243,34.14404],[-118.23276,34.14404],[-118.23274,34.14485],[-118.23242,34.14485],[-118.23241,34.14512],[-118.23274,34.14512],[-118.23272,34.14566],[-118.2324,34.14566],[-118.23239,34.14593],[-118.23207,34.14592],[-118.23206,34.14619],[-118.23174,34.14619],[-118.23172,34.147],[-118.23139,34.14699],[-118.23137,34.14808],[-118.23104,34.14807],[-118.23103,34.14861],[-118.23135,34.14862],[-118.23135,34.14889],[-118.23167,34.14889],[-118.23165,34.14997],[-118.23132,34.14997],[-118.23131,34.15051],[-118.23099,34.15051],[-118.23098,34.15078],[-118.23163,34.15078],[-118.23163,34.15106],[-118.23195,34.15106],[-118.23194,34.15133],[-118.23292,34.15135],[-118.23292,34.15162],[-118.23356,34.15163],[-118.23356,34.1519],[-118.23389,34.1519],[-118.23388,34.15217],[-118.2342,34.15218],[-118.2342,34.15245],[-118.23452,34.15245],[-118.23452,34.15272],[-118.23484,34.15273],[-118.23484,34.153],[-118.23516,34.153],[-118.23516,34.15327],[-118.23581,34.15328],[-118.2358,34.15355],[-118.23613,34.15356],[-118.23613,34.15329],[-118.23646,34.15329],[-118.23645,34.15357],[-118.23678,34.15357],[-118.23677,34.15384],[-118.23709,34.15384],[-118.2371,34.15357],[-118.23808,34.15359],[-118.23807,34.15413],[-118.23872,34.15414],[-118.2387,34.15468],[-118.23935,34.15469],[-118.23934,34.15523],[-118.23902,34.15523],[-118.23901,34.15577],[-118.23965,34.15578],[-118.23965,34.15605],[-118.23998,34.15605],[-118.23996,34.15659],[-118.24029,34.1566],[-118.24028,34.15714],[-118.2406,34.15714],[-118.24058,34.15796],[-118.24091,34.15796],[-118.2409,34.15823],[-118.24058,34.15823],[-118.24053,34.16012],[-118.24021,34.16011],[-118.24018,34.16119],[-118.24051,34.1612],[-118.2405,34.16147],[-118.24083,34.16148],[-118.24084,34.16121],[-118.24279,34.16123],[-118.24279,34.16096],[-118.2441,34.16098],[-118.2441,34.16072],[-118.24508,34.16073],[-118.24507,34.161],[-118.2454,34.16101],[-118.24539,34.16128],[-118.24572,34.16128],[-118.24572,34.16101],[-118.24735,34.16103],[-118.24734,34.16158],[-118.24799,34.16159],[-118.24798,34.16186],[-118.24863,34.16187],[-118.24863,34.16214],[-118.24895,34.16214],[-118.24895,34.16241],[-118.24927,34.16242],[-118.24926,34.16269],[-118.24959,34.16269],[-118.2496,34.16242],[-118.24992,34.16243],[-118.24992,34.1627],[-118.25057,34.16271],[-118.25055,34.16325],[-118.25088,34.16325],[-118.25088,34.16298],[-118.25121,34.16299],[-118.2512,34.16326],[-118.25153,34.16326],[-118.25152,34.16353],[-118.25185,34.16354],[-118.25186,34.16327],[-118.25251,34.16328],[-118.25251,34.16301],[-118.25284,34.16301],[-118.25283,34.16328],[-118.25413,34.1633],[-118.25413,34.16357],[-118.25445,34.16358],[-118.25445,34.16385],[-118.25542,34.16386],[-118.25542,34.16413],[-118.25607,34.16414],[-118.25607,34.16387],[-118.25705,34.16389],[-118.25705,34.16362],[-118.25836,34.16364],[-118.25835,34.16391],[-118.259,34.16392],[-118.25899,34.16419],[-118.25932,34.16419],[-118.25932,34.16446],[-118.25964,34.16447],[-118.25963,34.16474],[-118.25931,34.16473],[-118.2593,34.165],[-118.25963,34.16501],[-118.25962,34.16528],[-118.25995,34.16528],[-118.25993,34.16583],[-118.26026,34.16583],[-118.26027,34.16556],[-118.26124,34.16557],[-118.26124,34.16584],[-118.26189,34.16586],[-118.26188,34.16613],[-118.26221,34.16613],[-118.26221,34.16586],[-118.26254,34.16586],[-118.26253,34.16614],[-118.26286,34.16614],[-118.26285,34.16641],[-118.2635,34.16642],[-118.2635,34.16669],[-118.26415,34.1667],[-118.26414,34.16697],[-118.26447,34.16698],[-118.26445,34.16752],[-118.26478,34.16752],[-118.26477,34.16779],[-118.2651,34.1678],[-118.26508,34.16861],[-118.26541,34.16861],[-118.2654,34.16888],[-118.26573,34.16889],[-118.26571,34.16943],[-118.26604,34.16943],[-118.26603,34.16971],[-118.26571,34.1697],[-118.2657,34.16997],[-118.26603,34.16998],[-118.26601,34.17079],[-118.26633,34.17079],[-118.26633,34.17106],[-118.26666,34.17107],[-118.26665,34.17134],[-118.26697,34.17134],[-118.26696,34.17215],[-118.26761,34.17216],[-118.26761,34.17189],[-118.26859,34.17191],[-118.26858,34.17218],[-118.26891,34.17218],[-118.26892,34.17191],[-118.27119,34.17195],[-118.27119,34.17222],[-118.27281,34.17224],[-118.27282,34.17197],[-118.27347,34.17198],[-118.27346,34.17225],[-118.27379,34.17226],[-118.27378,34.17253],[-118.27443,34.17254],[-118.27443,34.17281],[-118.27573,34.17283],[-118.27572,34.1731],[-118.27638,34.17311],[-118.27636,34.17365],[-118.27701,34.17366],[-118.27701,34.17393],[-118.27733,34.17393],[-118.27733,34.1742],[-118.27765,34.17421],[-118.27765,34.17448],[-118.2783,34.17449],[-118.27829,34.17476],[-118.27894,34.17477],[-118.27894,34.17504],[-118.27926,34.17504],[-118.27926,34.17531],[-118.28023,34.17533],[-118.28023,34.1756],[-118.28055,34.1756],[-118.28055,34.17587],[-118.28087,34.17588],[-118.28086,34.17642],[-118.28118,34.17643],[-118.28117,34.17697],[-118.2815,34.17697],[-118.28149,34.17724],[-118.28182,34.17725],[-118.2818,34.17806],[-118.28213,34.17806],[-118.28212,34.17833],[-118.28244,34.17834],[-118.28243,34.17915],[-118.28275,34.17915],[-118.28274,34.17969],[-118.28307,34.1797],[-118.28303,34.18132],[-118.28401,34.18133],[-118.284,34.18188],[-118.28432,34.18188],[-118.28432,34.18215],[-118.28464,34.18216],[-118.28463,34.18243],[-118.28496,34.18243],[-118.28495,34.18297],[-118.28527,34.18298],[-118.28527,34.18325],[-118.28559,34.18325],[-118.28559,34.18352],[-118.28591,34.18353],[-118.28589,34.18434],[-118.28557,34.18433],[-118.28556,34.1846],[-118.28621,34.18461],[-118.28621,34.18488],[-118.28653,34.18489],[-118.28653,34.18516],[-118.2875,34.18517],[-118.2875,34.18545],[-118.28782,34.18545],[-118.28783,34.18518],[-118.28848,34.18519],[-118.28849,34.18492],[-118.28881,34.18492],[-118.28881,34.18519],[-118.28913,34.1852],[-118.28914,34.18493],[-118.28946,34.18493],[-118.28946,34.1852],[-118.28967,34.18521],[-118.28869,34.18654],[-118.28845,34.18654]]],[[[-118.30498,34.15974],[-118.30433,34.15973],[-118.30432,34.16],[-118.304,34.16],[-118.30399,34.16027],[-118.30367,34.16026],[-118.30366,34.16053],[-118.30301,34.16052],[-118.303,34.1608],[-118.30138,34.16077],[-118.30137,34.16104],[-118.3004,34.16103],[-118.3004,34.16076],[-118.30008,34.16075],[-118.30007,34.16102],[-118.29975,34.16102],[-118.29973,34.16156],[-118.29941,34.16155],[-118.2994,34.16182],[-118.29908,34.16182],[-118.29907,34.16209],[-118.2981,34.16207],[-118.29809,34.16234],[-118.29744,34.16233],[-118.29744,34.16206],[-118.29614,34.16204],[-118.29614,34.16231],[-118.29581,34.16231],[-118.29582,34.16204],[-118.29549,34.16204],[-118.29549,34.16231],[-118.29419,34.16229],[-118.29419,34.16202],[-118.29387,34.16201],[-118.29388,34.16147],[-118.29323,34.16146],[-118.29323,34.16119],[-118.29291,34.16119],[-118.29291,34.16092],[-118.29194,34.1609],[-118.29196,34.16009],[-118.29163,34.16008],[-118.29162,34.16035],[-118.29097,34.16034],[-118.29099,34.15953],[-118.29067,34.15953],[-118.29067,34.15926],[-118.29035,34.15925],[-118.29035,34.15898],[-118.29003,34.15898],[-118.29004,34.15844],[-118.28809,34.15841],[-118.28808,34.15868],[-118.28743,34.15867],[-118.28742,34.15894],[-118.2871,34.15893],[-118.2871,34.15866],[-118.28678,34.15866],[-118.28678,34.15839],[-118.28581,34.15837],[-118.2858,34.15864],[-118.28483,34.15863],[-118.28483,34.15836],[-118.28321,34.15834],[-118.28321,34.15807],[-118.28256,34.15805],[-118.28256,34.15832],[-118.28223,34.15832],[-118.28224,34.15805],[-118.28126,34.15803],[-118.28127,34.15776],[-118.28062,34.15776],[-118.28062,34.15749],[-118.27965,34.15747],[-118.27965,34.1572],[-118.279,34.15719],[-118.27901,34.15692],[-118.27868,34.15691],[-118.27869,34.15664],[-118.27836,34.15664],[-118.27837,34.15637],[-118.27804,34.15636],[-118.27805,34.15582],[-118.27773,34.15582],[-118.27774,34.15528],[-118.27742,34.15527],[-118.27742,34.155],[-118.27677,34.15499],[-118.27678,34.15472],[-118.27645,34.15472],[-118.27646,34.15418],[-118.27679,34.15418],[-118.2768,34.15364],[-118.27713,34.15364],[-118.27714,34.15323],[-118.27811,34.15322],[-118.27808,34.15474],[-118.2784,34.15475],[-118.27839,34.15529],[-118.27872,34.15529],[-118.27871,34.15583],[-118.27903,34.15584],[-118.27903,34.15611],[-118.27935,34.15611],[-118.27934,34.15638],[-118.27999,34.15639],[-118.27999,34.15666],[-118.28064,34.15667],[-118.28063,34.15694],[-118.28128,34.15695],[-118.28128,34.15722],[-118.28323,34.15725],[-118.28322,34.15752],[-118.28518,34.15755],[-118.28518,34.15728],[-118.28583,34.15729],[-118.28583,34.15756],[-118.28648,34.15757],[-118.28648,34.1573],[-118.28681,34.15731],[-118.2868,34.15758],[-118.28745,34.15759],[-118.28746,34.15732],[-118.28941,34.15735],[-118.28941,34.15762],[-118.28973,34.15762],[-118.28974,34.15735],[-118.29039,34.15736],[-118.29038,34.15763],[-118.29071,34.15764],[-118.2907,34.15791],[-118.29103,34.15791],[-118.29102,34.15845],[-118.29134,34.15846],[-118.29133,34.15873],[-118.29198,34.15874],[-118.29197,34.15928],[-118.2923,34.15928],[-118.29229,34.15955],[-118.29262,34.15956],[-118.29261,34.15983],[-118.29294,34.15983],[-118.29293,34.1601],[-118.29326,34.16011],[-118.29325,34.16038],[-118.29423,34.16039],[-118.29422,34.16066],[-118.29455,34.16067],[-118.29454,34.16094],[-118.29649,34.16097],[-118.29649,34.16124],[-118.29779,34.16126],[-118.29779,34.16099],[-118.29845,34.161],[-118.29847,34.15992],[-118.29912,34.15993],[-118.29913,34.15966],[-118.29977,34.15966],[-118.29977,34.15993],[-118.30107,34.15995],[-118.30108,34.15968],[-118.30238,34.1597],[-118.30239,34.15916],[-118.30337,34.15918],[-118.30337,34.15891],[-118.3037,34.15891],[-118.3037,34.1587],[-118.30437,34.15885],[-118.30499,34.15931],[-118.30498,34.15974]]]]}},{"type":"Feature","properties":{"level":3,"label":"Very high fire hazard severity zone"},"geometry":{"type":"MultiPolygon","coordinates":[[[[-118.25181,34.12134],[-118.2518,34.12157],[-118.25157,34.12134],[-118.25181,34.12134]]],[[[-118.25335,34.12516],[-118.2527,34.12515],[-118.2527,34.12542],[-118.25237,34.12541],[-118.25236,34.12568],[-118.25269,34.12569],[-118.25266,34.12677],[-118.25234,34.12676],[-118.25233,34.12703],[-118.25168,34.12702],[-118.25168,34.12729],[-118.25103,34.12728],[-118.25102,34.12755],[-118.25005,34.12754],[-118.25005,34.12727],[-118.24973,34.12726],[-118.24971,34.1278],[-118.24939,34.1278],[-118.24938,34.12807],[-118.24873,34.12806],[-118.24873,34.12833],[-118.2484,34.12832],[-118.2484,34.1286],[-118.24742,34.12858],[-118.24743,34.12831],[-118.24515,34.12828],[-118.24515,34.12801],[-118.24353,34.12798],[-118.24352,34.12825],[-118.2432,34.12824],[-118.24318,34.12906],[-118.24286,34.12905],[-118.24285,34.12932],[-118.24155,34.1293],[-118.24155,34.12903],[-118.24025,34.12901],[-118.24025,34.12928],[-118.24057,34.12929],[-118.24057,34.12956],[-118.24024,34.12955],[-118.24022,34.13036],[-118.2399,34.13036],[-118.23987,34.13144],[-118.2402,34.13144],[-118.24019,34.13171],[-118.23987,34.13171],[-118.23983,34.13333],[-118.24016,34.13334],[-118.24015,34.13361],[-118.23982,34.1336],[-118.2398,34.13468],[-118.23948,34.13468],[-118.23946,34.13522],[-118.23914,34.13522],[-118.23913,34.13549],[-118.23848,34.13547],[-118.23848,34.13575],[-118.23815,34.13574],[-118.23815,34.13601],[-118.23782,34.13601],[-118.23781,34.13628],[-118.23749,34.13627],[-118.23748,34.13654],[-118.23683,34.13653],[-118.23683,34.1368],[-118.23585,34.13679],[-118.23584,34.13706],[-118.23552,34.13705],[-118.23552,34.13678],[-118.2352,34.13678],[-118.23519,34.13732],[-118.23454,34.13731],[-118.23453,34.13758],[-118.23421,34.13757],[-118.2342,34.13784],[-118.23355,34.13783],[-118.23354,34.1381],[-118.23322,34.1381],[-118.23322,34.13783],[-118.2329,34.13782],[-118.23289,34.13809],[-118.23224,34.13808],[-118.23219,34.14025],[-118.23252,34.14025],[-118.23251,34.14052],[-118.23219,34.14052],[-118.23218,34.14079],[-118.23186,34.14078],[-118.23185,34.14105],[-118.23153,34.14105],[-118.23152,34.14132],[-118.23119,34.14131],[-118.23118,34.14212],[-118.2315,34.14213],[-118.23147,34.14348],[-118.2318,34.14348],[-118.23179,34.14376],[-118.23146,34.14375],[-118.23146,34.14402],[-118.23178,34.14403],[-118.23176,34.14484],[-118.23144,34.14483],[-118.23143,34.14537],[-118.2311,34.14537],[-118.23108,34.14618],[-118.23076,34.14617],[-118.23075,34.14672],[-118.23042,34.14671],[-118.23041,34.14725],[-118.23008,34.14724],[-118.23008,34.14752],[-118.2304,34.14752],[-118.23039,34.14806],[-118.23007,34.14806],[-118.23006,34.14833],[-118.22974,34.14832],[-118.22972,34.14886],[-118.23037,34.14887],[-118.23037,34.14914],[-118.23069,34.14915],[-118.23068,34.14969],[-118.23036,34.14968],[-118.23034,34.15022],[-118.23002,34.15022],[-118.23,34.15103],[-118.22935,34.15102],[-118.22934,34.15156],[-118.23129,34.15159],[-118.23128,34.15213],[-118.23225,34.15215],[-118.23225,34.15242],[-118.2329,34.15243],[-118.23289,34.1527],[-118.23322,34.1527],[-118.2332,34.15324],[-118.23353,34.15325],[-118.23352,34.15379],[-118.23384,34.1538],[-118.23383,34.15434],[-118.23416,34.15434],[-118.23415,34.15461],[-118.23448,34.15462],[-118.23448,34.15435],[-118.23513,34.15436],[-118.23514,34.15409],[-118.23546,34.15409],[-118.23546,34.15436],[-118.23611,34.15437],[-118.2361,34.15491],[-118.23675,34.15492],[-118.23675,34.15465],[-118.23708,34.15466],[-118.23707,34.15493],[-118.23772,34.15494],[-118.23772,34.15521],[-118.23804,34.15521],[-118.23803,34.15548],[-118.23771,34.15548],[-118.2377,34.15575],[-118.23803,34.15575],[-118.23802,34.15602],[-118.23835,34.15603],[-118.23834,34.1563],[-118.23867,34.1563],[-118.23866,34.15657],[-118.23899,34.15658],[-118.23897,34.15712],[-118.2393,34.15713],[-118.23929,34.1574],[-118.23962,34.1574],[-118.23959,34.15848],[-118.23927,34.15848],[-118.23926,34.15875],[-118.23959,34.15875],[-118.23958,34.15902],[-118.23926,34.15902],[-118.23925,34.15929],[-118.23958,34.15929],[-118.23956,34.15983],[-118.23924,34.15983],[-118.23923,34.16037],[-118.2389,34.16036],[-118.23889,34.1609],[-118.23856,34.1609],[-118.23856,34.16117],[-118.23888,34.16118],[-118.23885,34.16253],[-118.23853,34.16252],[-118.23852,34.16306],[-118.23949,34.16308],[-118.23949,34.16335],[-118.23981,34.16335],[-118.23981,34.16362],[-118.24013,34.16363],[-118.24014,34.16309],[-118.24047,34.16309],[-118.24047,34.16282],[-118.24112,34.16283],[-118.24113,34.16256],[-118.24211,34.16258],[-118.24211,34.16231],[-118.24309,34.16232],[-118.24309,34.16205],[-118.24407,34.16207],[-118.24408,34.1618],[-118.2444,34.1618],[-118.2444,34.16207],[-118.24472,34.16208],[-118.24472,34.16235],[-118.24537,34.16236],[-118.24536,34.16263],[-118.24634,34.16264],[-118.24634,34.16237],[-118.24699,34.16238],[-118.24699,34.16265],[-118.24796,34.16267],[-118.24795,34.16321],[-118.24893,34.16322],[-118.24891,34.16376],[-118.24924,34.16377],[-118.24925,34.1635],[-118.24957,34.1635],[-118.24957,34.16377],[-118.24989,34.16378],[-118.24989,34.16405],[-118.25054,34.16406],[-118.25053,34.16433],[-118.25281,34.16436],[-118.25281,34.16409],[-118.25314,34.1641],[-118.25313,34.16437],[-118.25378,34.16438],[-118.25378,34.16465],[-118.25443,34.16466],[-118.25442,34.16493],[-118.25475,34.16493],[-118.25475,34.16466],[-118.2554,34.16467],[-118.2554,34.16495],[-118.25605,34.16495],[-118.25606,34.16468],[-118.25801,34.16471],[-118.258,34.16499],[-118.25833,34.16499],[-118.25831,34.16553],[-118.25864,34.16553],[-118.25863,34.16608],[-118.25895,34.16608],[-118.25895,34.16635],[-118.2596,34.16636],[-118.25959,34.16663],[-118.26122,34.16666],[-118.26121,34.16693],[-118.26154,34.16693],[-118.26153,34.1672],[-118.26251,34.16722],[-118.2625,34.16776],[-118.26315,34.16777],[-118.26314,34.16804],[-118.26347,34.16804],[-118.26346,34.16831],[-118.26379,34.16832],[-118.26378,34.16859],[-118.26411,34.16859],[-118.2641,34.16886],[-118.26377,34.16886],[-118.26376,34.1694],[-118.26409,34.1694],[-118.26408,34.16967],[-118.26441,34.16968],[-118.2644,34.16995],[-118.26408,34.16994],[-118.26407,34.17022],[-118.26472,34.17023],[-118.2647,34.17131],[-118.26502,34.17131],[-118.26499,34.17266],[-118.26467,34.17266],[-118.26466,34.1732],[-118.26433,34.17319],[-118.26432,34.17374],[-118.26367,34.17373],[-118.26366,34.174],[-118.26757,34.17406],[-118.26757,34.17379],[-118.2692,34.17381],[-118.2692,34.17354],[-118.27083,34.17356],[-118.27083,34.17383],[-118.27245,34.17386],[-118.27246,34.17359],[-118.27278,34.17359],[-118.27278,34.17386],[-118.2731,34.17387],[-118.2731,34.17414],[-118.27407,34.17415],[-118.27407,34.17442],[-118.27504,34.17444],[-118.27504,34.17471],[-118.27536,34.17471],[-118.27536,34.17498],[-118.27568,34.17499],[-118.27568,34.17526],[-118.276,34.17527],[-118.276,34.17554],[-118.27632,34.17554],[-118.27632,34.17581],[-118.27762,34.17583],[-118.27761,34.1761],[-118.27794,34.1761],[-118.27793,34.17638],[-118.27858,34.17639],[-118.27858,34.17666],[-118.27923,34.17667],[-118.27921,34.17721],[-118.27954,34.17721],[-118.27953,34.17748],[-118.27986,34.17749],[-118.27985,34.17803],[-118.28017,34.17803],[-118.28016,34.17884],[-118.28048,34.17885],[-118.28047,34.17939],[-118.28079,34.17939],[-118.28079,34.17966],[-118.28111,34.17967],[-118.2811,34.18048],[-118.28142,34.18048],[-118.2814,34.18157],[-118.28107,34.18156],[-118.28107,34.18183],[-118.28172,34.18184],[-118.28171,34.18211],[-118.28204,34.18212],[-118.28203,34.18239],[-118.28268,34.1824],[-118.28267,34.18294],[-118.283,34.18294],[-118.28298,34.18348],[-118.28364,34.18349],[-118.28362,34.18431],[-118.28394,34.18431],[-118.28392,34.18512],[-118.28425,34.18512],[-118.28424,34.18567],[-118.28489,34.18568],[-118.28488,34.18595],[-118.28521,34.18595],[-118.2852,34.18649],[-118.2865,34.18651],[-118.28649,34.18678],[-118.28845,34.18681],[-118.28845,34.18654],[-118.28869,34.18654],[-118.28787,34.18767],[-118.28349,34.18586],[-118.27999,34.1907],[-118.28011,34.20747],[-118.29279,34.22166],[-118.26688,34.22185],[-118.26679,34.23435],[-118.26624,34.23434],[-118.26624,34.23407],[-118.26657,34.23408],[-118.26658,34.23381],[-118.26592,34.2338],[-118.26593,34.23353],[-118.2656,34.23352],[-118.26562,34.23298],[-118.26529,34.23298],[-118.2653,34.23271],[-118.26497,34.2327],[-118.26498,34.23243],[-118.26465,34.23243],[-118.26467,34.23162],[-118.26434,34.23161],[-118.26435,34.23134],[-118.26403,34.23134],[-118.26403,34.23107],[-118.26305,34.23105],[-118.26306,34.23078],[-118.26208,34.23076],[-118.26209,34.23049],[-118.26176,34.23049],[-118.26177,34.23022],[-118.26112,34.23021],[-118.26112,34.22994],[-118.26047,34.22993],[-118.26048,34.22966],[-118.26015,34.22965],[-118.26017,34.22884],[-118.25984,34.22884],[-118.25985,34.22857],[-118.26018,34.22857],[-118.26019,34.22803],[-118.25986,34.22803],[-118.25987,34.22776],[-118.25857,34.22774],[-118.25857,34.22747],[-118.25792,34.22746],[-118.25793,34.22719],[-118.2576,34.22718],[-118.25761,34.22691],[-118.25728,34.22691],[-118.25729,34.22664],[-118.25696,34.22663],[-118.25697,34.22636],[-118.25567,34.22634],[-118.25567,34.22607],[-118.25502,34.22606],[-118.25503,34.22579],[-118.25438,34.22578],[-118.25438,34.22551],[-118.25373,34.2255],[-118.25374,34.22523],[-118.25341,34.22522],[-118.25343,34.22441],[-118.25213,34.22439],[-118.25213,34.22412],[-118.25181,34.22412],[-118.25182,34.22358],[-118.25149,34.22357],[-118.25152,34.22249],[-118.25119,34.22249],[-118.2512,34.22222],[-118.25055,34.22221],[-118.25056,34.22167],[-118.25023,34.22166],[-118.25023,34.22193],[-118.2499,34.22192],[-118.24991,34.22138],[-118.24959,34.22138],[-118.24959,34.22111],[-118.24927,34.2211],[-118.24927,34.22083],[-118.24895,34.22083],[-118.24895,34.22056],[-118.24863,34.22055],[-118.24864,34.22001],[-118.24832,34.22001],[-118.24833,34.2192],[-118.24801,34.21919],[-118.24801,34.21892],[-118.24769,34.21892],[-118.24772,34.21757],[-118.24804,34.21757],[-118.24806,34.21703],[-118.24773,34.21702],[-118.24774,34.21675],[-118.24676,34.21674],[-118.24677,34.21647],[-118.24612,34.21646],[-118.24612,34.21619],[-118.24514,34.21617],[-118.24516,34.21563],[-118.24451,34.21562],[-118.24452,34.21508],[-118.24419,34.21508],[-118.2442,34.21481],[-118.24387,34.2148],[-118.24388,34.21453],[-118.24323,34.21452],[-118.24324,34.21398],[-118.24291,34.21397],[-118.24293,34.21343],[-118.2426,34.21343],[-118.24261,34.21316],[-118.24228,34.21315],[-118.24229,34.21288],[-118.24196,34.21288],[-118.24197,34.21261],[-118.24132,34.2126],[-118.24132,34.21233],[-118.241,34.21232],[-118.241,34.21205],[-118.24068,34.21205],[-118.24068,34.21178],[-118.24036,34.21177],[-118.24036,34.2115],[-118.24004,34.2115],[-118.24004,34.21123],[-118.23972,34.21122],[-118.23973,34.21068],[-118.23941,34.21068],[-118.23941,34.21041],[-118.23909,34.2104],[-118.23909,34.21013],[-118.23877,34.21012],[-118.23881,34.20823],[-118.23848,34.20823],[-118.23849,34.20796],[-118.23816,34.20795],[-118.23817,34.20768],[-118.23784,34.20768],[-118.23785,34.20741],[-118.23752,34.2074],[-118.23753,34.20713],[-118.23721,34.20713],[-118.23722,34.20658],[-118.23689,34.20658],[-118.2369,34.20631],[-118.23657,34.20631],[-118.23658,34.20603],[-118.2369,34.20604],[-118.23692,34.2055],[-118.23659,34.20549],[-118.2366,34.20522],[-118.23627,34.20522],[-118.23628,34.20495],[-118.2366,34.20495],[-118.23661,34.20468],[-118.23693,34.20469],[-118.23694,34.20442],[-118.23661,34.20441],[-118.23662,34.20414],[-118.23695,34.20415],[-118.23695,34.20388],[-118.23663,34.20387],[-118.23663,34.2036],[-118.23696,34.20361],[-118.23697,34.20307],[-118.23664,34.20306],[-118.23667,34.20198],[-118.23602,34.20197],[-118.23603,34.20143],[-118.23636,34.20143],[-118.23636,34.20116],[-118.23604,34.20116],[-118.23608,34.19927],[-118.23575,34.19926],[-118.23576,34.19899],[-118.23543,34.19899],[-118.23543,34.19926],[-118.2351,34.19925],[-118.23511,34.19898],[-118.23446,34.19897],[-118.23446,34.1987],[-118.23414,34.1987],[-118.23414,34.19842],[-118.23349,34.19841],[-118.2335,34.19787],[-118.23318,34.19787],[-118.2332,34.19706],[-118.23287,34.19705],[-118.23288,34.19678],[-118.23255,34.19678],[-118.23256,34.19651],[-118.23288,34.19651],[-118.23291,34.19543],[-118.23258,34.19543],[-118.23259,34.19515],[-118.23226,34.19515],[-118.23227,34.19488],[-118.23194,34.19488],[-118.23195,34.1946],[-118.23162,34.1946],[-118.23163,34.19433],[-118.23098,34.19432],[-118.23099,34.19405],[-118.23066,34.19404],[-118.23064,34.19512],[-118.23031,34.19512],[-118.2303,34.19566],[-118.23062,34.19566],[-118.23062,34.19594],[-118.23029,34.19593],[-118.23029,34.1962],[-118.23061,34.19621],[-118.23061,34.19648],[-118.23028,34.19647],[-118.23026,34.19728],[-118.22994,34.19728],[-118.22987,34.20025],[-118.22954,34.20025],[-118.22951,34.20187],[-118.22918,34.20186],[-118.22917,34.2024],[-118.22885,34.2024],[-118.22884,34.20267],[-118.22851,34.20266],[-118.22851,34.20293],[-118.22818,34.20293],[-118.22817,34.20347],[-118.22784,34.20347],[-118.22784,34.20374],[-118.22719,34.20373],[-118.22718,34.204],[-118.22686,34.20399],[-118.22685,34.20426],[-118.22652,34.20426],[-118.22652,34.20453],[-118.22619,34.20452],[-118.22619,34.20479],[-118.22586,34.20479],[-118.22585,34.20506],[-118.22553,34.20505],[-118.22551,34.20572],[-118.22513,34.20566],[-118.2247,34.20578],[-118.22418,34.20571],[-118.22422,34.20558],[-118.2234,34.20546],[-118.22341,34.206],[-118.2221,34.20569],[-118.2221,34.20618],[-118.22116,34.20612],[-118.22073,34.20632],[-118.22028,34.20631],[-118.22028,34.20503],[-118.21838,34.20554],[-118.21656,34.20573],[-118.21658,34.20587],[-118.2163,34.20604],[-118.215,34.20642],[-118.215,34.20354],[-118.2155,34.20354],[-118.21571,34.20325],[-118.21769,34.20295],[-118.2177,34.20115],[-118.21722,34.20098],[-118.21701,34.20047],[-118.21673,34.19779],[-118.21535,34.19728],[-118.21462,34.1962],[-118.21287,34.19537],[-118.2127,34.19508],[-118.21346,34.19409],[-118.21225,34.19276],[-118.2111,34.19282],[-118.20806,34.19069],[-118.2078,34.18931],[-118.20812,34.18758],[-118.20585,34.18692],[-118.20473,34.18567],[-118.19835,34.18143],[-118.19643,34.17991],[-118.19236,34.18044],[-118.19226,34.18023],[-118.19173,34.18028],[-118.19083,34.18008],[-118.19004,34.17919],[-118.18993,34.17926],[-118.18952,34.17908],[-118.18932,34.17876],[-118.18901,34.17853],[-118.18931,34.17835],[-118.1889,34.17788],[-118.19098,34.17319],[-118.19049,34.17032],[-118.18978,34.1691],[-118.18908,34.16908],[-118.18792,34.16673],[-118.18861,34.16567],[-118.18727,34.16521],[-118.18655,34.16434],[-118.186,34.1636],[-118.18483,34.15979],[-118.18413,34.15978],[-118.18147,34.14994],[-118.18172,34.14909],[-118.19818,34.14905],[-118.19816,34.15163],[-118.19889,34.15115],[-118.20271,34.15067],[-118.20358,34.14972],[-118.20423,34.1493],[-118.20541,34.14744],[-118.20771,34.14725],[-118.20876,34.14651],[-118.21095,34.14622],[-118.21161,34.14718],[-118.21324,34.14728],[-118.2162,34.14726],[-118.2168,34.14756],[-118.21919,34.14755],[-118.21945,34.14829],[-118.22202,34.14889],[-118.22249,34.14929],[-118.22499,34.14937],[-118.22625,34.1498],[-118.22696,34.14862],[-118.22705,34.1481],[-118.22703,34.14762],[-118.22747,34.14776],[-118.2281,34.1467],[-118.22862,34.14688],[-118.2287,34.14673],[-118.22826,34.14644],[-118.22865,34.14579],[-118.22878,34.14589],[-118.22878,34.13909],[-118.22915,34.13908],[-118.22914,34.13809],[-118.22789,34.1381],[-118.22793,34.13561],[-118.23372,34.13561],[-118.23372,34.13451],[-118.23629,34.1345],[-118.23662,34.13272],[-118.23603,34.12884],[-118.23532,34.1276],[-118.23524,34.12672],[-118.25288,34.1243],[-118.25326,34.12445],[-118.25337,34.12412],[-118.25335,34.12516]]],[[[-118.22584,34.20587],[-118.22582,34.20642],[-118.22558,34.20643],[-118.22569,34.20587],[-118.22584,34.20587]]],[[[-118.24864,34.23462],[-118.24864,34.23481],[-118.24864,34.23462],[-118.24864,34.23462]]],[[[-118.24928,34.23517],[-118.24927,34.23544],[-118.24993,34.23545],[-118.24992,34.23572],[-118.25057,34.23573],[-118.25057,34.236],[-118.25122,34.23601],[-118.25121,34.23628],[-118.25154,34.23628],[-118.25152,34.23709],[-118.25184,34.2371],[-118.25184,34.23737],[-118.25216,34.23738],[-118.25215,34.23792],[-118.25248,34.23792],[-118.25247,34.23819],[-118.25215,34.23819],[-118.25212,34.23954],[-118.25277,34.23955],[-118.25274,34.2409],[-118.25241,34.24089],[-118.25241,34.24117],[-118.25306,34.24117],[-118.25305,34.24144],[-118.25403,34.24146],[-118.25402,34.24173],[-118.25467,34.24174],[-118.25467,34.24201],[-118.25597,34.24203],[-118.25596,34.2423],[-118.25629,34.24231],[-118.25628,34.24285],[-118.2566,34.24285],[-118.2566,34.24312],[-118.25692,34.24313],[-118.25692,34.2434],[-118.25724,34.2434],[-118.25723,34.24421],[-118.25755,34.24422],[-118.25754,34.24476],[-118.25917,34.24478],[-118.25916,34.24505],[-118.26014,34.24507],[-118.26013,34.24534],[-118.26144,34.24536],[-118.26143,34.24563],[-118.26175,34.24563],[-118.26175,34.24591],[-118.26273,34.24592],[-118.26272,34.24619],[-118.26305,34.2462],[-118.26304,34.24647],[-118.26336,34.24647],[-118.26337,34.2462],[-118.26402,34.24621],[-118.26402,34.24648],[-118.26499,34.2465],[-118.265,34.24623],[-118.26533,34.24623],[-118.26532,34.2465],[-118.26565,34.2465],[-118.26564,34.24677],[-118.26596,34.24678],[-118.26597,34.24651],[-118.26607,34.24651],[-118.26609,34.24777],[-118.2667,34.24777],[-118.26667,34.25077],[-118.2653,34.25026],[-118.26527,34.25238],[-118.25651,34.25227],[-118.25669,34.26723],[-118.2385,34.26706],[-118.23875,34.25226],[-118.24343,34.25231],[-118.24348,34.24665],[-118.2438,34.24667],[-118.24378,34.2465],[-118.24417,34.24591],[-118.24455,34.24596],[-118.24537,34.24638],[-118.24598,34.24535],[-118.24604,34.24511],[-118.24607,34.24518],[-118.24634,34.24523],[-118.24665,34.24449],[-118.24699,34.24434],[-118.24704,34.24402],[-118.24751,34.24419],[-118.24772,34.24378],[-118.24848,34.24406],[-118.24849,34.24398],[-118.24858,34.24398],[-118.24864,34.23516],[-118.24928,34.23517]]]]}},{"type":"Feature","properties":{"level":3,"label":"Very high fire hazard severity zone"},"geometry":{"type":"Polygon","coordinates":[[[-118.3037,34.15891],[-118.30337,34.15891],[-118.30337,34.15918],[-118.30239,34.15916],[-118.30238,34.1597],[-118.30108,34.15968],[-118.30107,34.15995],[-118.29977,34.15993],[-118.29977,34.15966],[-118.29913,34.15966],[-118.29912,34.15993],[-118.29847,34.15992],[-118.29845,34.161],[-118.29779,34.16099],[-118.29779,34.16126],[-118.29649,34.16124],[-118.29649,34.16097],[-118.29454,34.16094],[-118.29455,34.16067],[-118.29422,34.16066],[-118.29423,34.16039],[-118.29325,34.16038],[-118.29326,34.16011],[-118.29293,34.1601],[-118.29294,34.15983],[-118.29261,34.15983],[-118.29262,34.15956],[-118.29229,34.15955],[-118.2923,34.15928],[-118.29197,34.15928],[-118.29198,34.15874],[-118.29133,34.15873],[-118.29134,34.15846],[-118.29102,34.15845],[-118.29103,34.15791],[-118.2907,34.15791],[-118.29071,34.15764],[-118.29038,34.15763],[-118.29039,34.15736],[-118.28974,34.15735],[-118.28973,34.15762],[-118.28941,34.15762],[-118.28941,34.15735],[-118.28746,34.15732],[-118.28745,34.15759],[-118.2868,34.15758],[-118.28681,34.15731],[-118.28648,34.1573],[-118.28648,34.15757],[-118.28583,34.15756],[-118.28583,34.15729],[-118.28518,34.15728],[-118.28518,34.15755],[-118.28322,34.15752],[-118.28323,34.15725],[-118.28128,34.15722],[-118.28128,34.15695],[-118.28063,34.15694],[-118.28064,34.15667],[-118.27999,34.15666],[-118.27999,34.15639],[-118.27934,34.15638],[-118.27935,34.15611],[-118.27903,34.15611],[-118.27903,34.15584],[-118.27871,34.15583],[-118.27872,34.15529],[-118.27839,34.15529],[-118.2784,34.15475],[-118.27808,34.15474],[-118.27811,34.15322],[-118.27899,34.15322],[-118.2793,34.15511],[-118.28057,34.15634],[-118.28269,34.15678],[-118.28797,34.15568],[-118.29145,34.15571],[-118.29544,34.15882],[-118.29745,34.15888],[-118.29887,34.15761],[-118.3037,34.1587],[-118.3037,34.15891]]]}}]}